id,name,town,region,country,marketSegment,tripadvisorRank,latitude,longitude,officialWebsite,policyPage,bookingCom,dataSource,taxCount,feeCount,resortFee,parkingFee,childrenFreeAge,adultCharge,damageDeposit,scrapedAt,scrapingNotes
australia-falls-creek-astra-falls-creek,Astra Falls Creek,Falls Creek,Victoria,Australia,Upscale,3,-36.8623,147.2745,https://www.astrafallscreek.com.au/,https://astrafallscreek.com.au/terms-conditions/,,official,0,0,,,,,,2025-12-20T09:48:49Z,No taxes or fees found on policy page
australia-falls-creek-attunga-alpine-lodge,Attunga Alpine Lodge,Falls Creek,Victoria,Australia,Upper-Midscale,6,-36.8667,147.2789,https://www.attungalodge.com.au/,https://www.attungalodge.com.au/about.html,,official,0,0,,,,,,2025-12-20T09:50:41Z,No taxes or fees found on policy page
australia-falls-creek-cedarwood-apartments,Cedarwood Apartments,Falls Creek,Victoria,Australia,Upper-Midscale,9,-36.859,147.2712,https://www.cedarwood.com.au/,https://www.cedarwood.com.au/policies,,official,0,0,,,,,,2025-12-20T09:52:02Z,No taxes or fees found on policy page
australia-falls-creek-the-stables,The Stables,Falls Creek,Victoria,Australia,Upper-Midscale,11,-36.8579,147.2701,https://www.thestables.com.au/,https://www.thestables.com.au/privacy-policy,,official,0,0,,,,,,2025-12-20T09:53:16Z,No taxes or fees found on policy page
australia-falls-creek-silverski-boutique-hotel,Silverski Boutique Hotel,Falls Creek,Victoria,Australia,Upscale,14,-36.8712,147.2834,https://www.silverski.com.au/,https://www.silverski.com.au/faq/,,official,0,0,,,,,,2025-12-20T09:54:57Z,No taxes or fees found on policy page
australia-falls-creek-peppers-rundells-alpine-lodge,Peppers Rundells Alpine Lodge,Falls Creek,Victoria,Australia,Upscale,26,-36.8778,147.2901,https://www.peppers.com.au/rundells/,https://www.peppers.com.au/terms/,,official,0,0,,,,,,2025-12-20T10:01:57Z,No taxes or fees found on policy page
australia-falls-creek-falls-creek-country-club,Falls Creek Country Club,Falls Creek,Victoria,Australia,Upper-Midscale,28,-36.8789,147.2912,https://www.fallscreekcountryclub.com.au/,https://fallscreekcountryclub.com.au/about/terms-and-conditions/,,official,0,0,,,,,,2025-12-20T10:02:38Z,No taxes or fees found on policy page
australia-mount-buller-arlberg-hotel-mt-buller,Arlberg Hotel Mt Buller,Mount Buller,Victoria,Australia,Upper-Midscale,3,-37.1445,146.4378,https://www.arlberg.com.au/,http://arlberg.com.au/faq/,,official,0,0,,,,,,2025-12-20T10:27:32Z,No taxes or fees found on policy page
australia-mount-buller-alzburg-resort,Alzburg Resort,Mount Buller,Victoria,Australia,Upper-Midscale,9,-37.1501,146.4434,https://www.alzburg.com.au/,https://alzburg.com.au/wp-content/uploads/2023/01/INFO.pdf,,official,0,0,,,,,,2025-12-20T10:31:03Z,No taxes or fees found on policy page
australia-mount-buller-hotel-pension-grimus,Hotel & Pension Grimus,Mount Buller,Victoria,Australia,Upper-Midscale,11,-37.1512,146.4445,https://www.grimus.com.au/,https://www.grimus.com.au/policies,,official,0,0,,,,,,2025-12-20T10:31:44Z,No taxes or fees found on policy page
australia-mount-buller-ski-club-of-victoria,Ski Club of Victoria,Mount Buller,Victoria,Australia,Midscale,24,-37.1346,146.4279,https://www.scv.com.au/,https://www.scv.com.au/policies,,official,0,0,,,,,,2025-12-20T10:39:04Z,No taxes or fees found on policy page
australia-mount-buller-mansfield-ski-lodge,Mansfield Ski Lodge,Mount Buller,Victoria,Australia,Midscale,27,-37.1335,146.4268,https://www.mansfieldskilodge.com.au/,https://www.mansfieldskilodge.com.au/terms-and-conditions/,,official,0,0,,,,,,2025-12-20T10:40:24Z,No taxes or fees found on policy page
australia-mount-buller-high-country-motor-inn,High Country Motor Inn,Mount Buller,Victoria,Australia,Midscale,29,-37.0589,146.0934,https://www.highcountrymotorinn.com.au/,https://highcountrymotorinn.com.au/terms-of-use/,,official,0,0,,,,,,2025-12-20T10:41:10Z,No taxes or fees found on policy page
australia-perisher-marritz-hotel,Marritz Hotel,Perisher,New South Wales,Australia,Upscale,1,-36.3712,148.4156,https://www.marritz.com.au/,https://www.marritz.com.au/faq/,,official,0,0,,,,,,2025-12-20T10:04:18Z,No taxes or fees found on policy page
australia-perisher-banjo-paterson-inn,Banjo Paterson Inn,Perisher,New South Wales,Australia,Midscale,17,-36.4189,148.6245,https://www.banjopatersoninn.com.au/,https://www.banjopatersoninn.com.au/terms-conditions,,official,0,0,,,,,,2025-12-20T10:19:56Z,No taxes or fees found on policy page
australia-perisher-discovery-parks-jindabyne,Discovery Parks Jindabyne,Perisher,New South Wales,Australia,Midscale,20,-36.4212,148.6267,https://www.discoveryholidayparks.com.au/jindabyne/,https://www.discoveryholidayparks.com.au/terms-and-conditions,,official,0,0,,,,,,2025-12-20T10:21:22Z,No taxes or fees found on policy page
australia-perisher-jindy-inn,Jindy Inn,Perisher,New South Wales,Australia,Midscale,22,-36.4223,148.6278,https://www.jindyinn.com.au/,https://www.jindyinn.com.au/about-2/faq,,official,0,0,,,,,,2025-12-20T10:22:24Z,No taxes or fees found on policy page
australia-perisher-snowgum-motel-jindabyne,Snowgum Motel Jindabyne,Perisher,New South Wales,Australia,Midscale,23,-36.3823,148.4267,https://www.snowgummotel.com.au/,https://snowgummotel.com.au/conditions,,official,0,0,,,,,,2025-12-20T10:22:33Z,No taxes or fees found on policy page
australia-perisher-lake-jindabyne-hotel,Lake Jindabyne Hotel,Perisher,New South Wales,Australia,Midscale,25,-36.3834,148.4278,https://www.lakejindabynehotel.com.au/,https://lakejindabynehotel.com.au,,official,0,0,,,,,,2025-12-20T10:23:09Z,No taxes or fees found on policy page
australia-perisher-ski-rider-motel,Ski Rider Motel,Perisher,New South Wales,Australia,Economy,26,-36.3624,148.4068,https://www.skirider.com.au/,https://www.skirider.com.au/hotel-information/,,official,0,0,,,,,,2025-12-20T10:23:47Z,No taxes or fees found on policy page
australia-perisher-snowy-valley-resort,Snowy Valley Resort,Perisher,New South Wales,Australia,Midscale,29,-36.3856,148.4301,https://www.snowyvalleyresort.com.au/,https://snowyvalleyresort.com.au/terms-conditions/,,official,0,0,,,,,,2025-12-20T10:25:12Z,No taxes or fees found on policy page
australia-thredbo-thredbo-alpine-hotel,Thredbo Alpine Hotel,Thredbo,New South Wales,Australia,Upscale,1,-36.5034,148.3067,https://www.thredbo.com.au/accommodation/thredbo-alpine-hotel/,https://www.thredbo.com.au/terms-conditions/,,official,0,0,,,,,,2025-12-20T09:31:11Z,No taxes or fees found on policy page
australia-thredbo-house-of-ullr,House of Ullr,Thredbo,New South Wales,Australia,Upscale,3,-36.5023,148.3056,https://www.houseofullr.com.au/,https://www.houseofullr.com.au/terms-and-conditions,,official,0,0,,,,,,2025-12-20T09:32:04Z,No taxes or fees found on policy page
australia-thredbo-thredbo-yha,Thredbo YHA,Thredbo,New South Wales,Australia,Economy,8,-36.5078,148.3112,https://www.yha.com.au/hostels/nsw/snowy-mountains/thredbo/,https://www.yha.com.au/hostels/booking-terms-and-conditions/,,official,0,0,,,,,,2025-12-20T09:35:07Z,No taxes or fees found on policy page
australia-thredbo-lantern-apartments,Lantern Apartments,Thredbo,New South Wales,Australia,Upper-Midscale,9,-36.499,148.3023,https://www.lanternapartments.com.au/,https://www.lanternapartments.com.au/terms-conditions/,,official,0,0,,,,,,2025-12-20T09:35:15Z,No taxes or fees found on policy page
australia-thredbo-alpine-gables,Alpine Gables,Thredbo,New South Wales,Australia,Upper-Midscale,11,-36.4979,148.3012,https://www.alpinegables.com.au/,https://alpinegables.com.au/home,,official,0,0,,,,,,2025-12-20T09:35:55Z,No taxes or fees found on policy page
australia-thredbo-matterhorn-lodge,Matterhorn Lodge,Thredbo,New South Wales,Australia,Upper-Midscale,14,-36.5112,148.3145,https://www.matterhornlodge.com.au/,https://www.matterhornlodge.com.au/s/FQA.pdf,,official,0,0,,,,,,2025-12-20T09:37:51Z,No taxes or fees found on policy page
australia-thredbo-snowgoose-apartments,Snowgoose Apartments,Thredbo,New South Wales,Australia,Upper-Midscale,15,-36.4957,148.299,https://www.snowgoose.com.au/,https://www.snowgoose.com.au/pages/faqs,,official,0,0,,,,,,2025-12-20T09:38:31Z,No taxes or fees found on policy page
australia-thredbo-crackenback-resort,Crackenback Resort,Thredbo,New South Wales,Australia,Upscale,16,-36.4623,148.2789,https://www.crackenback.com.au/,https://www.crackenback.com.au/faq/,,official,0,0,,,,,,2025-12-20T09:39:02Z,No taxes or fees found on policy page
australia-thredbo-banjo-paterson-inn,Banjo Paterson Inn,Thredbo,New South Wales,Australia,Midscale,25,-36.4189,148.6245,https://www.banjopatersoninn.com.au/,https://www.banjopatersoninn.com.au/terms-conditions,,official,0,0,,,,,,2025-12-20T09:44:31Z,No taxes or fees found on policy page
australia-thredbo-jindy-inn-jindabyne,Jindy Inn Jindabyne,Thredbo,New South Wales,Australia,Midscale,28,-36.4212,148.6267,https://www.jindyinn.com.au/,https://www.jindyinn.com.au/about-2/faq,,official,0,0,,,,,,2025-12-20T09:46:12Z,No taxes or fees found on policy page
canada-banff-fairmont-banff-springs,Fairmont Banff Springs,Banff,Alberta,Canada,Luxury,1,51.1679,-115.5595,https://www.fairmont.com/banff-springs/,https://permalink.fairmont.com/booking/select?dateIn=2025-12-22&lengthOfStayValue=1&client=aem.fairmont&product%5B0%5D%5BadultNumber%5D=2&languageCode=en&hotelCodes=A550,,official,0,1,,$35,,,,2025-12-22T22:05:16Z,
canada-banff-rimrock-resort-hotel,Rimrock Resort Hotel,Banff,Alberta,Canada,Upscale,2,51.1546,-115.5856,https://www.rimrockresort.com/,https://www.rimrockresort.com/faqs/,,official,0,0,,,,,,2025-12-22T22:05:54Z,No taxes or fees found on policy page
canada-banff-moose-hotel-and-suites,Moose Hotel and Suites,Banff,Alberta,Canada,Upscale,3,51.1762,-115.5708,https://www.banffmoosehotel.com/,https://www.booking.com/hotel/ca/moose-and-suites.en-gb.html?aid=304142&label=mkt123sc-409007e3-0c34-421e-8748-6e066a0149de&ucfs=1&arphpl=1&group_adults=2&req_adults=2&no_rooms=1&group_children=0&req_children=0&hpos=1&hapos=1&sr_order=popularity&srpvid=ac6b4c92d14677abe059153a32418806&srepoch=1766441242&from=searchresults,https://www.booking.com/hotel/ca/moose-and-suites.en-gb.html?aid=304142&label=mkt123sc-409007e3-0c34-421e-8748-6e066a0149de&ucfs=1&arphpl=1&group_adults=2&req_adults=2&no_rooms=1&group_children=0&req_children=0&hpos=1&hapos=1&sr_order=popularity&srpvid=ac6b4c92d14677abe059153a32418806&srepoch=1766441242&from=searchresults,booking.com,0,0,,,,,,2025-12-22T22:07:40Z,Data sourced from Booking.com listing
canada-banff-the-juniper-hotel,The Juniper Hotel,Banff,Alberta,Canada,Upper-Midscale,4,51.1891,-115.5543,https://thejuniper.com/,https://www.booking.com/hotel/ca/the-juniper-bistro.en-gb.html?aid=304142&label=gen173nr-10CAQoggJCHnNlYXJjaF90aGUganVuaXBlciBob3RlbCBiYW5mZkgzWARoJ4gBAZgBM7gBF8gBDNgBA-gBAfgBAYgCAagCAbgC_4KnygbAAgHSAiQ1OWM5YzBlYy1mYWE5LTRkY2ItYTNiZi01NzYxMGY2ZmFkMmHYAgHgAgE&ucfs=1&arphpl=1&group_adults=2&req_adults=2&no_rooms=1&group_children=0&req_children=0&hpos=1&hapos=1&sr_order=popularity&srpvid=42cc9bbfe9d40225&srepoch=1766441345&from=searchresults,https://www.booking.com/hotel/ca/the-juniper-bistro.en-gb.html?aid=304142&label=gen173nr-10CAQoggJCHnNlYXJjaF90aGUganVuaXBlciBob3RlbCBiYW5mZkgzWARoJ4gBAZgBM7gBF8gBDNgBA-gBAfgBAYgCAagCAbgC_4KnygbAAgHSAiQ1OWM5YzBlYy1mYWE5LTRkY2ItYTNiZi01NzYxMGY2ZmFkMmHYAgHgAgE&ucfs=1&arphpl=1&group_adults=2&req_adults=2&no_rooms=1&group_children=0&req_children=0&hpos=1&hapos=1&sr_order=popularity&srpvid=42cc9bbfe9d40225&srepoch=1766441345&from=searchresults,booking.com,0,0,,,,,,2025-12-22T22:09:23Z,Data sourced from Booking.com listing
canada-banff-banff-aspen-lodge,Banff Aspen Lodge,Banff,Alberta,Canada,Upper-Midscale,5,51.1754,-115.5702,https://www.banffaspenlodge.com/,https://www.banffaspenlodge.com/terms-and-conditions,,official,0,0,,,,,,2025-12-22T22:10:45Z,No taxes or fees found on policy page
canada-banff-mount-royal-hotel,Mount Royal Hotel,Banff,Alberta,Canada,Upper-Midscale,6,51.1784,-115.5708,https://www.banffmountroyalhotel.com/,https://www.booking.com/hotel/ca/mount-royal-banff.en-gb.html?aid=304142&label=gen173nr-10CAQoggJCHnNlYXJjaF9tb3VudCByb3lhbCBob3RlbCBiYW5mZkgzWARoJ4gBAZgBM7gBF8gBDNgBA-gBAfgBAYgCAagCAbgCsoSnygbAAgHSAiQ0ZTQ5YTAwYi0zOTVlLTQwNjMtYjUzNC0zYTY2YjQ5NTcyZmTYAgHgAgE&ucfs=1&arphpl=1&group_adults=2&req_adults=2&no_rooms=1&group_children=0&req_children=0&hpos=1&hapos=1&sr_order=popularity&srpvid=03ce9c1984ab00f0&srepoch=1766441525&from=searchresults,https://www.booking.com/hotel/ca/mount-royal-banff.en-gb.html?aid=304142&label=gen173nr-10CAQoggJCHnNlYXJjaF9tb3VudCByb3lhbCBob3RlbCBiYW5mZkgzWARoJ4gBAZgBM7gBF8gBDNgBA-gBAfgBAYgCAagCAbgCsoSnygbAAgHSAiQ0ZTQ5YTAwYi0zOTVlLTQwNjMtYjUzNC0zYTY2YjQ5NTcyZmTYAgHgAgE&ucfs=1&arphpl=1&group_adults=2&req_adults=2&no_rooms=1&group_children=0&req_children=0&hpos=1&hapos=1&sr_order=popularity&srpvid=03ce9c1984ab00f0&srepoch=1766441525&from=searchresults,booking.com,0,0,,,,,,2025-12-22T22:12:22Z,Data sourced from Booking.com listing
canada-banff-elk-avenue-hotel,Elk + Avenue Hotel,Banff,Alberta,Canada,Midscale,7,51.1778,-115.5712,https://www.bestofbanff.com/elk-avenue/,https://www.booking.com/hotel/ca/banff-international.en-gb.html?aid=304142&label=mkt123sc-44d7f539-d4d0-46a9-9efa-e17c5f68daba&ucfs=1&arphpl=1&group_adults=2&req_adults=2&no_rooms=1&group_children=0&req_children=0&hpos=1&hapos=1&sr_order=popularity&srpvid=72ecf2398c75b24dc80cd86dc96d711a&srepoch=1766441630&from=searchresults,https://www.booking.com/hotel/ca/banff-international.en-gb.html?aid=304142&label=mkt123sc-44d7f539-d4d0-46a9-9efa-e17c5f68daba&ucfs=1&arphpl=1&group_adults=2&req_adults=2&no_rooms=1&group_children=0&req_children=0&hpos=1&hapos=1&sr_order=popularity&srpvid=72ecf2398c75b24dc80cd86dc96d711a&srepoch=1766441630&from=searchresults,booking.com,0,0,,,,,,2025-12-22T22:14:06Z,Data sourced from Booking.com listing
canada-banff-banff-park-lodge,Banff Park Lodge,Banff,Alberta,Canada,Upper-Midscale,8,51.1768,-115.5698,https://www.banffparklodge.com/,https://www.banffparklodge.com/parking-instructions/,,official,0,0,,,,,,2025-12-22T22:14:24Z,No taxes or fees found on policy page
canada-banff-the-rundlestone-lodge,The Rundlestone Lodge,Banff,Alberta,Canada,Upper-Midscale,9,51.1695,-115.5642,https://www.rundlestone.com/,https://www.booking.com/hotel/ca/the-rundlestone-lodge.en-gb.html?aid=304142&label=mkt123sc-d9910bd3-936a-43c9-94e4-082f3c401a61&ucfs=1&arphpl=1&group_adults=2&req_adults=2&no_rooms=1&group_children=0&req_children=0&hpos=1&hapos=1&sr_order=popularity&srpvid=8b5d3cab956e38614a9034a92db621e4&srepoch=1766441752&from=searchresults,https://www.booking.com/hotel/ca/the-rundlestone-lodge.en-gb.html?aid=304142&label=mkt123sc-d9910bd3-936a-43c9-94e4-082f3c401a61&ucfs=1&arphpl=1&group_adults=2&req_adults=2&no_rooms=1&group_children=0&req_children=0&hpos=1&hapos=1&sr_order=popularity&srpvid=8b5d3cab956e38614a9034a92db621e4&srepoch=1766441752&from=searchresults,booking.com,0,0,,,,,,2025-12-22T22:16:09Z,Data sourced from Booking.com listing
canada-banff-banff-caribou-lodge-spa,Banff Caribou Lodge & Spa,Banff,Alberta,Canada,Midscale,10,51.1756,-115.5689,https://www.bestofbanff.com/banff-caribou-lodge/,https://www.booking.com/hotel/ca/banff-caribou-lodge-and-spa.en-gb.html?aid=304142&label=gen173nr-10CAQoggJCJnNlYXJjaF9iYW5mZiBjYXJpYm91IGxvZGdlICYgc3BhIGJhbmZmSDNYBGgniAEBmAEzuAEXyAEM2AED6AEB-AEBiAIBqAIBuAL_hqfKBsACAdICJGVjYzhhOGM2LTRmYjUtNGJiNy05N2I1LTdlNjJmNTNhN2M4M9gCAeACAQ&ucfs=1&arphpl=1&group_adults=2&req_adults=2&no_rooms=1&group_children=0&req_children=0&hpos=1&hapos=1&sr_order=popularity&srpvid=f4609cbfa180013f&srepoch=1766441858&from=searchresults,https://www.booking.com/hotel/ca/banff-caribou-lodge-and-spa.en-gb.html?aid=304142&label=gen173nr-10CAQoggJCJnNlYXJjaF9iYW5mZiBjYXJpYm91IGxvZGdlICYgc3BhIGJhbmZmSDNYBGgniAEBmAEzuAEXyAEM2AED6AEB-AEBiAIBqAIBuAL_hqfKBsACAdICJGVjYzhhOGM2LTRmYjUtNGJiNy05N2I1LTdlNjJmNTNhN2M4M9gCAeACAQ&ucfs=1&arphpl=1&group_adults=2&req_adults=2&no_rooms=1&group_children=0&req_children=0&hpos=1&hapos=1&sr_order=popularity&srpvid=f4609cbfa180013f&srepoch=1766441858&from=searchresults,booking.com,0,0,,,,,,2025-12-22T22:17:54Z,Data sourced from Booking.com listing
canada-banff-hidden-ridge-resort,Hidden Ridge Resort,Banff,Alberta,Canada,Upper-Midscale,11,51.1612,-115.5734,https://www.bestofbanff.com/hidden-ridge-resort/,https://www.booking.com/hotel/ca/the-hidden-ridge-resort.en-gb.html?aid=304142&label=gen173nr-10CAQoggJCIHNlYXJjaF9oaWRkZW4gcmlkZ2UgcmVzb3J0IGJhbmZmSDNYBGgniAEBmAEzuAEXyAEM2AED6AEB-AEBiAIBqAIBuALmh6fKBsACAdICJDliNTY4OTFjLTEzMjItNDY2Yi04NmMyLWFiYTI5MzA3N2JhNtgCAeACAQ&ucfs=1&arphpl=1&group_adults=2&req_adults=2&no_rooms=1&group_children=0&req_children=0&hpos=1&hapos=1&sr_order=popularity&srpvid=2b519cf343bb019a&srepoch=1766441961&from=searchresults,https://www.booking.com/hotel/ca/the-hidden-ridge-resort.en-gb.html?aid=304142&label=gen173nr-10CAQoggJCIHNlYXJjaF9oaWRkZW4gcmlkZ2UgcmVzb3J0IGJhbmZmSDNYBGgniAEBmAEzuAEXyAEM2AED6AEB-AEBiAIBqAIBuALmh6fKBsACAdICJDliNTY4OTFjLTEzMjItNDY2Yi04NmMyLWFiYTI5MzA3N2JhNtgCAeACAQ&ucfs=1&arphpl=1&group_adults=2&req_adults=2&no_rooms=1&group_children=0&req_children=0&hpos=1&hapos=1&sr_order=popularity&srpvid=2b519cf343bb019a&srepoch=1766441961&from=searchresults,booking.com,0,0,,,,,,2025-12-22T22:19:38Z,Data sourced from Booking.com listing
canada-banff-fox-hotel-suites,Fox Hotel & Suites,Banff,Alberta,Canada,Upper-Midscale,12,51.1752,-115.5685,https://www.bestofbanff.com/fox-hotel/,https://www.booking.com/hotel/ca/fox-and-suites.en-gb.html?aid=304142&label=mkt123sc-6fa24a5c-aab2-41c1-9680-a4dcd7edf1bf&ucfs=1&arphpl=1&group_adults=2&req_adults=2&no_rooms=1&group_children=0&req_children=0&hpos=1&hapos=1&sr_order=popularity&srpvid=882a1b02f03582cbae6cc1ac3ebbe2c1&srepoch=1766442061&from=searchresults,https://www.booking.com/hotel/ca/fox-and-suites.en-gb.html?aid=304142&label=mkt123sc-6fa24a5c-aab2-41c1-9680-a4dcd7edf1bf&ucfs=1&arphpl=1&group_adults=2&req_adults=2&no_rooms=1&group_children=0&req_children=0&hpos=1&hapos=1&sr_order=popularity&srpvid=882a1b02f03582cbae6cc1ac3ebbe2c1&srepoch=1766442061&from=searchresults,booking.com,0,0,,,,,,2025-12-22T22:21:20Z,Data sourced from Booking.com listing
canada-banff-royal-canadian-lodge,Royal Canadian Lodge,Banff,Alberta,Canada,Midscale,13,51.1761,-115.5693,https://www.banffroyalcanadianlodge.com/,https://www.booking.com/hotel/ca/royal-canadian-lodge.en-gb.html?aid=304142&label=gen173nr-10CAQoggJCIXNlYXJjaF9yb3lhbCBjYW5hZGlhbiBsb2RnZSBiYW5mZkgzWARoJ4gBAZgBM7gBF8gBDNgBA-gBAfgBAYgCAagCAbgCsomnygbAAgHSAiQxMjQwZWRjNi1kODk5LTQ2MjktYmY1Mi1kMjVlNDY0MzgzOTDYAgHgAgE&ucfs=1&arphpl=1&group_adults=2&req_adults=2&no_rooms=1&group_children=0&req_children=0&hpos=1&hapos=1&sr_order=popularity&srpvid=00bd9d5944300093&srepoch=1766442165&from_sustainable_property_sr=1&from=searchresults,https://www.booking.com/hotel/ca/royal-canadian-lodge.en-gb.html?aid=304142&label=gen173nr-10CAQoggJCIXNlYXJjaF9yb3lhbCBjYW5hZGlhbiBsb2RnZSBiYW5mZkgzWARoJ4gBAZgBM7gBF8gBDNgBA-gBAfgBAYgCAagCAbgCsomnygbAAgHSAiQxMjQwZWRjNi1kODk5LTQ2MjktYmY1Mi1kMjVlNDY0MzgzOTDYAgHgAgE&ucfs=1&arphpl=1&group_adults=2&req_adults=2&no_rooms=1&group_children=0&req_children=0&hpos=1&hapos=1&sr_order=popularity&srpvid=00bd9d5944300093&srepoch=1766442165&from_sustainable_property_sr=1&from=searchresults,booking.com,0,0,,,,,,2025-12-22T22:23:03Z,Data sourced from Booking.com listing
canada-banff-banff-ptarmigan-inn,Banff Ptarmigan Inn,Banff,Alberta,Canada,Midscale,14,51.1773,-115.5701,https://www.banffptarmiganinn.com/,https://banffptarmiganinn.com/amenities/,,official,0,0,,,,,,2025-12-22T22:23:23Z,No taxes or fees found on policy page
canada-banff-charltons-banff,Charlton's Banff,Banff,Alberta,Canada,Upper-Midscale,15,51.1748,-115.5678,https://www.charltonsbanff.com/,https://www.charltonsbanff.com,,official,0,0,,,,,,2025-12-22T22:23:41Z,No taxes or fees found on policy page
canada-banff-banff-inn,Banff Inn,Banff,Alberta,Canada,Midscale,16,51.1776,-115.5695,https://www.banffinn.com/,https://banffinn.com/amenities/,,official,0,1,,$19.95,,,,2025-12-22T22:23:59Z,
canada-banff-basecamp-suites-banff,Basecamp Suites Banff,Banff,Alberta,Canada,Upper-Midscale,17,51.1771,-115.5688,https://basecampresorts.com/banff/,https://basecampresorts.com/about/,,official,0,0,,,,,,2025-12-22T22:24:52Z,No taxes or fees found on policy page
canada-banff-irwins-mountain-inn,Irwin's Mountain Inn,Banff,Alberta,Canada,Economy,18,51.1782,-115.5715,https://www.irwinsmountaininn.com/,https://irwinsmountaininn.com/amenities/,,official,0,0,,,,,,2025-12-22T22:25:13Z,No taxes or fees found on policy page
canada-banff-tunnel-mountain-resort,Tunnel Mountain Resort,Banff,Alberta,Canada,Upper-Midscale,19,51.1823,-115.5512,https://www.tunnelmountain.com/,https://tunnelmountain.com/amenities/,,official,0,0,,,,,,2025-12-22T22:25:37Z,No taxes or fees found on policy page
canada-banff-banff-voyager-inn,Banff Voyager Inn,Banff,Alberta,Canada,Midscale,20,51.1789,-115.5723,https://www.banffvoyagerinn.com/,https://www.booking.com/hotel/ca/the-banff-inn.en-gb.html?aid=304142&label=mkt123sc-5ad38823-3c53-42b1-8437-becc8c9a140a&ucfs=1&arphpl=1&group_adults=2&req_adults=2&no_rooms=1&group_children=0&req_children=0&hpos=1&hapos=1&sr_order=popularity&srpvid=63bf7fb640fc49c019328e74a922f1e1&srepoch=1766442420&from=searchresults,https://www.booking.com/hotel/ca/the-banff-inn.en-gb.html?aid=304142&label=mkt123sc-5ad38823-3c53-42b1-8437-becc8c9a140a&ucfs=1&arphpl=1&group_adults=2&req_adults=2&no_rooms=1&group_children=0&req_children=0&hpos=1&hapos=1&sr_order=popularity&srpvid=63bf7fb640fc49c019328e74a922f1e1&srepoch=1766442420&from=searchresults,booking.com,0,0,,,12,,,2025-12-22T22:27:17Z,Data sourced from Booking.com listing
canada-banff-high-country-inn,High Country Inn,Banff,Alberta,Canada,Midscale,21,51.1765,-115.5681,https://www.highcountryinn.com/,https://www.booking.com/hotel/ca/po-coast-high-country-inn-whitehorse.en-gb.html?aid=304142&label=gen173nr-10CAQoggJCHXNlYXJjaF9oaWdoIGNvdW50cnkgaW5uIGJhbmZmSDNYBGgniAEBmAEzuAEXyAEM2AED6AEB-AEBiAIBqAIBuAKYjKfKBsACAdICJGM4MjZlZjAzLWQ3NDItNDQwMC1hM2EyLTM3MjBmNWM5NmE2YdgCAeACAQ&ucfs=1&arphpl=1&group_adults=2&req_adults=2&no_rooms=1&group_children=0&req_children=0&hpos=1&hapos=1&sr_order=popularity&srpvid=36fa9e0cd2690889&srepoch=1766442524&from=searchresults,https://www.booking.com/hotel/ca/po-coast-high-country-inn-whitehorse.en-gb.html?aid=304142&label=gen173nr-10CAQoggJCHXNlYXJjaF9oaWdoIGNvdW50cnkgaW5uIGJhbmZmSDNYBGgniAEBmAEzuAEXyAEM2AED6AEB-AEBiAIBqAIBuAKYjKfKBsACAdICJGM4MjZlZjAzLWQ3NDItNDQwMC1hM2EyLTM3MjBmNWM5NmE2YdgCAeACAQ&ucfs=1&arphpl=1&group_adults=2&req_adults=2&no_rooms=1&group_children=0&req_children=0&hpos=1&hapos=1&sr_order=popularity&srpvid=36fa9e0cd2690889&srepoch=1766442524&from=searchresults,booking.com,0,0,,,,,,2025-12-22T22:29:00Z,Data sourced from Booking.com listing
canada-banff-inns-of-banff,Inns of Banff,Banff,Alberta,Canada,Midscale,22,51.1758,-115.5676,https://www.innsofbanff.com/,https://hotelcanoeandsuites.com/amenities/,,official,0,0,,,,,,2025-12-22T22:29:21Z,No taxes or fees found on policy page
canada-banff-banff-rocky-mountain-resort,Banff Rocky Mountain Resort,Banff,Alberta,Canada,Upper-Midscale,23,51.1634,-115.5589,https://www.banffrockymountainresort.com/,https://www.booking.com/hotel/ca/banff-rocky-mountain-resort.en-gb.html?aid=304142&label=mkt123sc-22c5f055-026a-4ccf-bd87-920df0342cdf&ucfs=1&arphpl=1&group_adults=2&req_adults=2&no_rooms=1&group_children=0&req_children=0&hpos=1&hapos=1&sr_order=popularity&srpvid=7823b8e60992727e149bbccae104fff8&srepoch=1766442646&from=searchresults,https://www.booking.com/hotel/ca/banff-rocky-mountain-resort.en-gb.html?aid=304142&label=mkt123sc-22c5f055-026a-4ccf-bd87-920df0342cdf&ucfs=1&arphpl=1&group_adults=2&req_adults=2&no_rooms=1&group_children=0&req_children=0&hpos=1&hapos=1&sr_order=popularity&srpvid=7823b8e60992727e149bbccae104fff8&srepoch=1766442646&from=searchresults,booking.com,0,0,,,,,,2025-12-22T22:31:05Z,Data sourced from Booking.com listing
canada-banff-brewsters-mountain-lodge,Brewster's Mountain Lodge,Banff,Alberta,Canada,Midscale,24,51.1779,-115.5707,https://www.brewstermountainlodge.com/,https://brewstermountainlodge.com/privacy,,official,0,0,,,,,,2025-12-22T22:32:18Z,No taxes or fees found on policy page
canada-banff-king-edward-hotel,King Edward Hotel,Banff,Alberta,Canada,Economy,25,51.1781,-115.5711,https://www.kingedwardbanff.com/,https://www.booking.com/hotel/ca/king-edward-banff.en-gb.html?aid=304142&label=mkt123sc-8063627c-b475-4e91-9632-cc8f8b52a1a7&ucfs=1&arphpl=1&group_adults=2&req_adults=2&no_rooms=1&group_children=0&req_children=0&hpos=1&hapos=1&sr_order=popularity&srpvid=77000597bf33ba58c1e6e613972c67d3&srepoch=1766442826&from=searchresults,https://www.booking.com/hotel/ca/king-edward-banff.en-gb.html?aid=304142&label=mkt123sc-8063627c-b475-4e91-9632-cc8f8b52a1a7&ucfs=1&arphpl=1&group_adults=2&req_adults=2&no_rooms=1&group_children=0&req_children=0&hpos=1&hapos=1&sr_order=popularity&srpvid=77000597bf33ba58c1e6e613972c67d3&srepoch=1766442826&from=searchresults,booking.com,0,1,,,,,$150,2025-12-22T22:34:04Z,Data sourced from Booking.com listing
canada-banff-samesun-banff,Samesun Banff,Banff,Alberta,Canada,Economy,26,51.1785,-115.5718,https://www.samesun.com/banff/,https://samesun.com/about-samesun/,,official,0,0,,,,,,2025-12-22T22:34:54Z,No taxes or fees found on policy page
canada-banff-hi-banff-alpine-centre,HI Banff Alpine Centre,Banff,Alberta,Canada,Economy,27,51.1621,-115.5567,https://hihostels.ca/en/destinations/alberta/hi-banff-alpine-centre,https://hihostels.ca/faq,,official,0,0,,,,,,2025-12-22T22:35:29Z,No taxes or fees found on policy page
canada-banff-bumpers-inn,Bumpers Inn,Banff,Alberta,Canada,Economy,28,51.1792,-115.5728,https://www.bumpersinn.com/,https://www.bumpersinn.com/fees,,official,0,0,,,,,,2025-12-22T22:35:34Z,No taxes or fees found on policy page
canada-banff-red-carpet-inn,Red Carpet Inn,Banff,Alberta,Canada,Economy,29,51.1787,-115.5721,https://www.banffredcarpetinn.com/,https://www.booking.com/hotel/ca/red-carpet-inn.en-gb.html?aid=304142&label=mkt123sc-a9b51211-5231-4a02-a479-9c738e9b8f94&ucfs=1&arphpl=1&group_adults=2&req_adults=2&no_rooms=1&group_children=0&req_children=0&hpos=1&hapos=1&sr_order=popularity&srpvid=9b433545aceb6d7aa20c452b17fa2e32&srepoch=1766443015&from=searchresults,https://www.booking.com/hotel/ca/red-carpet-inn.en-gb.html?aid=304142&label=mkt123sc-a9b51211-5231-4a02-a479-9c738e9b8f94&ucfs=1&arphpl=1&group_adults=2&req_adults=2&no_rooms=1&group_children=0&req_children=0&hpos=1&hapos=1&sr_order=popularity&srpvid=9b433545aceb6d7aa20c452b17fa2e32&srepoch=1766443015&from=searchresults,booking.com,0,0,,,,,,2025-12-22T22:37:14Z,Data sourced from Booking.com listing
canada-banff-banff-international-hotel,Banff International Hotel,Banff,Alberta,Canada,Midscale,30,51.1774,-115.5699,https://www.banffinternationalhotel.com/,https://www.banffjaspercollection.com/hotels/elk-avenue-hotel/,,official,0,0,,,,,,2025-12-22T22:37:14Z,No taxes or fees found on policy page
canada-blue-mountain-westin-trillium-house-blue-mountain,Westin Trillium House Blue Mountain,Blue Mountain,Ontario,Canada,Upscale,1,44.5012,-80.3156,https://www.marriott.com/hotels/travel/yyzwb-the-westin-trillium-house-blue-mountain/,https://www.booking.com/hotel/ca/the-westin-trillium-house-blue-mountain.en-gb.html?aid=304142&label=gen173nr-10CAQoggJCOHNlYXJjaF93ZXN0aW4gdHJpbGxpdW0gaG91c2UgYmx1ZSBtb3VudGFpbiBibHVlIG1vdW50YWluSDNYBGgniAEBmAEzuAEXyAEM2AED6AEB-AEBiAIBqAIBuAK55qfKBsACAdICJDRlYTBhM2E5LWJhM2MtNDhmNi04Y2EwLWRhYWM4ZGJiM2JlMNgCAeACAQ&ucfs=1&arphpl=1&group_adults=2&req_adults=2&no_rooms=1&group_children=0&req_children=0&hpos=1&hapos=1&sr_order=popularity&srpvid=4fe50bdc6698025d&srepoch=1766454076&from=searchresults,https://www.booking.com/hotel/ca/the-westin-trillium-house-blue-mountain.en-gb.html?aid=304142&label=gen173nr-10CAQoggJCOHNlYXJjaF93ZXN0aW4gdHJpbGxpdW0gaG91c2UgYmx1ZSBtb3VudGFpbiBibHVlIG1vdW50YWluSDNYBGgniAEBmAEzuAEXyAEM2AED6AEB-AEBiAIBqAIBuAK55qfKBsACAdICJDRlYTBhM2E5LWJhM2MtNDhmNi04Y2EwLWRhYWM4ZGJiM2JlMNgCAeACAQ&ucfs=1&arphpl=1&group_adults=2&req_adults=2&no_rooms=1&group_children=0&req_children=0&hpos=1&hapos=1&sr_order=popularity&srpvid=4fe50bdc6698025d&srepoch=1766454076&from=searchresults,booking.com,0,0,,,,,,2025-12-23T01:41:34Z,Data sourced from Booking.com listing
canada-blue-mountain-blue-mountain-resort,Blue Mountain Resort,Blue Mountain,Ontario,Canada,Upscale,2,44.5023,-80.3167,https://www.bluemountain.ca/,https://www.bluemountain.ca/discover-blue/getting-here,,official,0,0,,,,,,2025-12-23T01:41:53Z,No taxes or fees found on policy page
canada-blue-mountain-mosaic-blue-mountain,Mosaic Blue Mountain,Blue Mountain,Ontario,Canada,Upper-Midscale,3,44.5034,-80.3178,https://www.bluemountain.ca/plan-your-trip/accommodations/mosaic,https://www.bluemountain.ca/discover-blue/getting-here,,official,0,0,,,,,,2025-12-23T01:42:17Z,No taxes or fees found on policy page
canada-blue-mountain-grand-georgian,Grand Georgian,Blue Mountain,Ontario,Canada,Upper-Midscale,4,44.5045,-80.3189,https://www.bluemountain.ca/plan-your-trip/accommodations/grand-georgian,https://www.bluemountain.ca/discover-blue/getting-here,,official,0,0,,,,,,2025-12-23T01:42:39Z,No taxes or fees found on policy page
canada-blue-mountain-weider-lodge,Weider Lodge,Blue Mountain,Ontario,Canada,Upper-Midscale,5,44.5056,-80.3201,https://www.bluemountain.ca/plan-your-trip/accommodations/weider-lodge,https://www.bluemountain.ca/discover-blue/getting-here,,official,0,0,,,,,,2025-12-23T01:42:59Z,No taxes or fees found on policy page
canada-blue-mountain-village-at-blue,Village at Blue,Blue Mountain,Ontario,Canada,Upper-Midscale,6,44.5001,-80.3145,https://www.bluemountain.ca/plan-your-trip/accommodations/village-at-blue,https://www.bluemountain.ca/discover-blue/getting-here,,official,0,0,,,,,,2025-12-23T01:43:18Z,No taxes or fees found on policy page
canada-blue-mountain-seasons-blue-mountain,Seasons Blue Mountain,Blue Mountain,Ontario,Canada,Midscale,7,44.4989,-80.3134,https://www.bluemountain.ca/plan-your-trip/accommodations/seasons,https://www.bluemountain.ca/discover-blue/getting-here,,official,0,0,,,,,,2025-12-23T01:43:38Z,No taxes or fees found on policy page
canada-blue-mountain-snowbridge,Snowbridge,Blue Mountain,Ontario,Canada,Upper-Midscale,8,44.4978,-80.3123,https://www.bluemountain.ca/plan-your-trip/accommodations/snowbridge,https://www.bluemountain.ca/discover-blue/getting-here,,official,0,0,,,,,,2025-12-23T01:43:59Z,No taxes or fees found on policy page
canada-blue-mountain-living-water-resort,Living Water Resort,Blue Mountain,Ontario,Canada,Midscale,9,44.4967,-80.3112,https://www.livingwaterresort.com/,https://www.booking.com/hotel/ca/living-water-resort.en-gb.html?aid=304142&label=mkt123sc-5e9a2738-0187-4133-ba4f-2e656ab3bd50&ucfs=1&arphpl=1&group_adults=2&req_adults=2&no_rooms=1&group_children=0&req_children=0&hpos=1&hapos=1&sr_order=popularity&srpvid=f1fa56cbc1dd50635fc94cdfa3c4327b&srepoch=1766454333&from=searchresults,https://www.booking.com/hotel/ca/living-water-resort.en-gb.html?aid=304142&label=mkt123sc-5e9a2738-0187-4133-ba4f-2e656ab3bd50&ucfs=1&arphpl=1&group_adults=2&req_adults=2&no_rooms=1&group_children=0&req_children=0&hpos=1&hapos=1&sr_order=popularity&srpvid=f1fa56cbc1dd50635fc94cdfa3c4327b&srepoch=1766454333&from=searchresults,booking.com,0,0,,,,,,2025-12-23T01:45:53Z,Data sourced from Booking.com listing
canada-blue-mountain-blue-mountain-inn,Blue Mountain Inn,Blue Mountain,Ontario,Canada,Upper-Midscale,12,44.5067,-80.3212,https://www.bluemountaininn.ca/,https://www.booking.com/hotel/us/the-balsam-mountain-inn.en-gb.html?aid=304142&label=gen173nr-10CAQoggJCJnNlYXJjaF9ibHVlIG1vdW50YWluIGlubiBibHVlIG1vdW50YWluSDNYBGgniAEBmAEzuAEXyAEM2AED6AEB-AEBiAIBqAIBuALP6qfKBsACAdICJGZlYzEwYmQ3LTdhMmEtNGViYi04OWFmLWMwYTllMjNmMTc5ONgCAeACAQ&ucfs=1&arphpl=1&group_adults=2&req_adults=2&no_rooms=1&group_children=0&req_children=0&hpos=16&hapos=16&sr_order=popularity&srpvid=72b40ce73d0c0032&srepoch=1766454610&from=searchresults,https://www.booking.com/hotel/us/the-balsam-mountain-inn.en-gb.html?aid=304142&label=gen173nr-10CAQoggJCJnNlYXJjaF9ibHVlIG1vdW50YWluIGlubiBibHVlIG1vdW50YWluSDNYBGgniAEBmAEzuAEXyAEM2AED6AEB-AEBiAIBqAIBuALP6qfKBsACAdICJGZlYzEwYmQ3LTdhMmEtNGViYi04OWFmLWMwYTllMjNmMTc5ONgCAeACAQ&ucfs=1&arphpl=1&group_adults=2&req_adults=2&no_rooms=1&group_children=0&req_children=0&hpos=16&hapos=16&sr_order=popularity&srpvid=72b40ce73d0c0032&srepoch=1766454610&from=searchresults,booking.com,0,0,,,,,,2025-12-23T01:50:27Z,Data sourced from Booking.com listing
canada-blue-mountain-mountainview-resort,Mountainview Resort,Blue Mountain,Ontario,Canada,Upper-Midscale,13,44.5078,-80.3223,https://www.mountainviewresort.ca/,https://www.booking.com/hotel/lk/blue-mountain-resort-diyatalawa.en-gb.html?aid=304142&label=gen173nr-10CAQoggJCKHNlYXJjaF9tb3VudGFpbnZpZXcgcmVzb3J0IGJsdWUgbW91bnRhaW5IM1gEaCeIAQGYATO4ARfIAQzYAQPoAQH4AQGIAgGoAgG4ArDrp8oGwAIB0gIkNzE1NjdiNDQtYWJjNi00ZGE1LTgyMjgtODMyYjMzYmFmMTY12AIB4AIB&ucfs=1&arphpl=1&group_adults=2&req_adults=2&no_rooms=1&group_children=0&req_children=0&hpos=1&hapos=1&sr_order=popularity&srpvid=bd910d18fb1302dd&srepoch=1766454708&from=searchresults,https://www.booking.com/hotel/lk/blue-mountain-resort-diyatalawa.en-gb.html?aid=304142&label=gen173nr-10CAQoggJCKHNlYXJjaF9tb3VudGFpbnZpZXcgcmVzb3J0IGJsdWUgbW91bnRhaW5IM1gEaCeIAQGYATO4ARfIAQzYAQPoAQH4AQGIAgGoAgG4ArDrp8oGwAIB0gIkNzE1NjdiNDQtYWJjNi00ZGE1LTgyMjgtODMyYjMzYmFmMTY12AIB4AIB&ucfs=1&arphpl=1&group_adults=2&req_adults=2&no_rooms=1&group_children=0&req_children=0&hpos=1&hapos=1&sr_order=popularity&srpvid=bd910d18fb1302dd&srepoch=1766454708&from=searchresults,booking.com,0,0,,,,,,2025-12-23T01:52:04Z,Data sourced from Booking.com listing
canada-blue-mountain-cranberry-resort,Cranberry Resort,Blue Mountain,Ontario,Canada,Upper-Midscale,14,44.5634,-80.3678,https://www.cranberryresort.com/,https://www.cranberryresort.com/fees,,official,0,0,,,,,,2025-12-23T01:52:08Z,No taxes or fees found on policy page
canada-blue-mountain-high-point-resort,High Point Resort,Blue Mountain,Ontario,Canada,Upper-Midscale,15,44.5089,-80.3234,https://www.highpointresort.com/,https://www.booking.com/hotel/ca/whiskey-point-resort.en-gb.html?aid=304142&label=mkt123sc-4da53d9e-c359-429b-9003-4eabc58f3891&ucfs=1&arphpl=1&group_adults=2&req_adults=2&no_rooms=1&group_children=0&req_children=0&hpos=1&hapos=1&sr_order=popularity&srpvid=26f61c5feaa6337ed75b38367cb95282&srepoch=1766454803&from=searchresults,https://www.booking.com/hotel/ca/whiskey-point-resort.en-gb.html?aid=304142&label=mkt123sc-4da53d9e-c359-429b-9003-4eabc58f3891&ucfs=1&arphpl=1&group_adults=2&req_adults=2&no_rooms=1&group_children=0&req_children=0&hpos=1&hapos=1&sr_order=popularity&srpvid=26f61c5feaa6337ed75b38367cb95282&srepoch=1766454803&from=searchresults,booking.com,0,0,,,,,,2025-12-23T01:53:42Z,Data sourced from Booking.com listing
canada-blue-mountain-lora-bay-golf-club-resort,Lora Bay Golf Club & Resort,Blue Mountain,Ontario,Canada,Upscale,16,44.4812,-80.2967,https://www.lorabay.com/,https://www.booking.com/hotel/us/kingwood-country-club-and-resort.en-gb.html?aid=304142&label=mkt123sc-076b7c1a-8e68-428a-afbd-5bec27baf5e8&ucfs=1&arphpl=1&group_adults=2&req_adults=2&no_rooms=1&group_children=0&req_children=0&hpos=1&hapos=1&sr_order=popularity&srpvid=deb34dec44cb492532803b5143b2b26b&srepoch=1766454900&from=searchresults,https://www.booking.com/hotel/us/kingwood-country-club-and-resort.en-gb.html?aid=304142&label=mkt123sc-076b7c1a-8e68-428a-afbd-5bec27baf5e8&ucfs=1&arphpl=1&group_adults=2&req_adults=2&no_rooms=1&group_children=0&req_children=0&hpos=1&hapos=1&sr_order=popularity&srpvid=deb34dec44cb492532803b5143b2b26b&srepoch=1766454900&from=searchresults,booking.com,0,1,,,,,,2025-12-23T01:55:19Z,Data sourced from Booking.com listing
canada-blue-mountain-scandinave-spa-blue-mountain,Scandinave Spa Blue Mountain,Blue Mountain,Ontario,Canada,Upper-Midscale,17,44.4934,-80.3078,https://www.scandinave.com/bluemountain/,https://www.scandinave.com/search,,official,0,0,,,,,,2025-12-23T01:55:57Z,No taxes or fees found on policy page
canada-blue-mountain-comfort-inn-collingwood,Comfort Inn Collingwood,Blue Mountain,Ontario,Canada,Midscale,19,44.5001,-80.2234,https://www.choicehotels.com/ontario/collingwood/comfort-inn-hotels,https://www.choicehotels.com/about,,official,0,0,,,,,,2025-12-23T01:58:19Z,No taxes or fees found on policy page
canada-blue-mountain-holiday-inn-express-collingwood,Holiday Inn Express Collingwood,Blue Mountain,Ontario,Canada,Midscale,20,44.5012,-80.2245,https://www.ihg.com/holidayinnexpress/hotels/us/en/collingwood/yyzco/hoteldetail,https://www.ihg.com/content/us/en/customer-care/member-tc,,official,0,0,,,,,,2025-12-23T01:59:30Z,No taxes or fees found on policy page
canada-blue-mountain-best-western-plus-the-conference-centre,Best Western Plus The & Conference Centre,Blue Mountain,Ontario,Canada,Midscale,21,44.5023,-80.2256,https://www.bestwestern.com/en_US/book/hotels-in-collingwood/best-western-plus-the-& conference-centre/propertyCode.66083.html,https://www.booking.com/hotel/us/holiday-inn-kingston.en-gb.html?aid=304142&label=gen173nr-10CAQoggJCPnNlYXJjaF9iZXN0IHdlc3Rlcm4gcGx1cyB0aGUgJiBjb25mZXJlbmNlIGNlbnRyZSBibHVlIG1vdW50YWluSDNYBGgniAEBmAEzuAEXyAEM2AED6AEB-AEBiAIBqAIBuALT76fKBsACAdICJGNiZjlkMjZlLWViNGItNDRjOS1iYTI0LWMyMjNiYjQzZjg1OdgCAeACAQ&ucfs=1&arphpl=1&group_adults=2&req_adults=2&no_rooms=1&group_children=0&req_children=0&hpos=1&hapos=1&sr_order=popularity&srpvid=0f8b0e296aa1029e&srepoch=1766455254&from=searchresults,https://www.booking.com/hotel/us/holiday-inn-kingston.en-gb.html?aid=304142&label=gen173nr-10CAQoggJCPnNlYXJjaF9iZXN0IHdlc3Rlcm4gcGx1cyB0aGUgJiBjb25mZXJlbmNlIGNlbnRyZSBibHVlIG1vdW50YWluSDNYBGgniAEBmAEzuAEXyAEM2AED6AEB-AEBiAIBqAIBuALT76fKBsACAdICJGNiZjlkMjZlLWViNGItNDRjOS1iYTI0LWMyMjNiYjQzZjg1OdgCAeACAQ&ucfs=1&arphpl=1&group_adults=2&req_adults=2&no_rooms=1&group_children=0&req_children=0&hpos=1&hapos=1&sr_order=popularity&srpvid=0f8b0e296aa1029e&srepoch=1766455254&from=searchresults,booking.com,0,0,,,,,,2025-12-23T02:01:11Z,Data sourced from Booking.com listing
canada-blue-mountain-days-inn-by-wyndham-collingwood,Days Inn by Wyndham Collingwood,Blue Mountain,Ontario,Canada,Economy,23,44.5034,-80.2267,https://www.wyndhamhotels.com/days-inn/collingwood-ontario/days-inn-collingwood/overview,https://www.wyndhamhotels.com/hotel-deals/best-rate-guarantee,,official,0,0,,,,,,2025-12-23T02:03:55Z,No taxes or fees found on policy page
canada-blue-mountain-blue-peaks-resort,Blue Peaks Resort,Blue Mountain,Ontario,Canada,Midscale,26,44.4978,-80.3112,https://www.bluepeaksresort.ca/,https://www.booking.com/hotel/ca/blue-mountain-resort-inn.en-gb.html?aid=304142&label=mkt123sc-2165172b-7ad6-4267-8647-7c0d28e0fade&ucfs=1&arphpl=1&group_adults=2&req_adults=2&no_rooms=1&group_children=0&req_children=0&hpos=1&hapos=1&sr_order=popularity&srpvid=ef042f38609dd885619b6ddc57c7c2ad&srepoch=1766455736&from=searchresults,https://www.booking.com/hotel/ca/blue-mountain-resort-inn.en-gb.html?aid=304142&label=mkt123sc-2165172b-7ad6-4267-8647-7c0d28e0fade&ucfs=1&arphpl=1&group_adults=2&req_adults=2&no_rooms=1&group_children=0&req_children=0&hpos=1&hapos=1&sr_order=popularity&srpvid=ef042f38609dd885619b6ddc57c7c2ad&srepoch=1766455736&from=searchresults,booking.com,0,0,,,,,,2025-12-23T02:09:15Z,Data sourced from Booking.com listing
canada-blue-mountain-nipissing-ridge-estates,Nipissing Ridge Estates,Blue Mountain,Ontario,Canada,Upper-Midscale,27,44.4967,-80.3101,https://www.nipissingridge.ca/,https://www.booking.com/hotel/us/river-ridge-retreat-sapphire.en-gb.html?aid=304142&label=mkt123sc-25b462d9-4773-431f-ad20-827d1362001e&ucfs=1&arphpl=1&group_adults=2&req_adults=2&no_rooms=1&group_children=0&req_children=0&hpos=12&hapos=12&sr_order=popularity&srpvid=d7294b2e9ebef4da385272e3e8180c9d&srepoch=1766455834&from=searchresults,https://www.booking.com/hotel/us/river-ridge-retreat-sapphire.en-gb.html?aid=304142&label=mkt123sc-25b462d9-4773-431f-ad20-827d1362001e&ucfs=1&arphpl=1&group_adults=2&req_adults=2&no_rooms=1&group_children=0&req_children=0&hpos=12&hapos=12&sr_order=popularity&srpvid=d7294b2e9ebef4da385272e3e8180c9d&srepoch=1766455834&from=searchresults,booking.com,0,0,,,,,,2025-12-23T02:10:54Z,Data sourced from Booking.com listing
canada-canmore-malcolm-hotel,Malcolm Hotel,Canmore,Alberta,Canada,Upscale,1,51.0884,-115.3479,https://www.malcolmhotel.ca/,https://www.booking.com/hotel/ca/malcolm-hotel.en-gb.html?aid=304142&label=gen173nr-10CAQoggJCHHNlYXJjaF9tYWxjb2xtIGhvdGVsIGNhbm1vcmVIM1gEaCeIAQGYATO4ARfIAQzYAQPoAQH4AQGIAgGoAgG4AvKQp8oGwAIB0gIkN2FlMDE1OWMtMGNjNC00YWE5LThjYWUtN2I5ZDAwYjRmYTBh2AIB4AIB&ucfs=1&arphpl=1&group_adults=2&req_adults=2&no_rooms=1&group_children=0&req_children=0&hpos=1&hapos=1&sr_order=popularity&srpvid=dc579f3919e60351&srepoch=1766443126&from=searchresults,https://www.booking.com/hotel/ca/malcolm-hotel.en-gb.html?aid=304142&label=gen173nr-10CAQoggJCHHNlYXJjaF9tYWxjb2xtIGhvdGVsIGNhbm1vcmVIM1gEaCeIAQGYATO4ARfIAQzYAQPoAQH4AQGIAgGoAgG4AvKQp8oGwAIB0gIkN2FlMDE1OWMtMGNjNC00YWE5LThjYWUtN2I5ZDAwYjRmYTBh2AIB4AIB&ucfs=1&arphpl=1&group_adults=2&req_adults=2&no_rooms=1&group_children=0&req_children=0&hpos=1&hapos=1&sr_order=popularity&srpvid=dc579f3919e60351&srepoch=1766443126&from=searchresults,booking.com,0,0,,,,,,2025-12-22T22:39:03Z,Data sourced from Booking.com listing
canada-canmore-stoneridge-mountain-resort,Stoneridge Mountain Resort,Canmore,Alberta,Canada,Upscale,2,51.0712,-115.3156,https://www.stoneridgeresort.com/,https://www.booking.com/hotel/ca/stoneridge-mountain-resort.en-gb.html?aid=304142&label=gen173nr-10CAQoggJCKXNlYXJjaF9zdG9uZXJpZGdlIG1vdW50YWluIHJlc29ydCBjYW5tb3JlSDNYBGgniAEBmAEzuAEXyAEM2AED6AEB-AEBiAIBqAIBuALakafKBsACAdICJGUwNTkzNmNiLTYwNzctNDUxOS1iODc2LWE0ZDU2ZmUyOWIxMNgCAeACAQ&ucfs=1&arphpl=1&group_adults=2&req_adults=2&no_rooms=1&group_children=0&req_children=0&hpos=1&hapos=1&sr_order=popularity&srpvid=befc9f6d0ca90365&srepoch=1766443229&from=searchresults,https://www.booking.com/hotel/ca/stoneridge-mountain-resort.en-gb.html?aid=304142&label=gen173nr-10CAQoggJCKXNlYXJjaF9zdG9uZXJpZGdlIG1vdW50YWluIHJlc29ydCBjYW5tb3JlSDNYBGgniAEBmAEzuAEXyAEM2AED6AEB-AEBiAIBqAIBuALakafKBsACAdICJGUwNTkzNmNiLTYwNzctNDUxOS1iODc2LWE0ZDU2ZmUyOWIxMNgCAeACAQ&ucfs=1&arphpl=1&group_adults=2&req_adults=2&no_rooms=1&group_children=0&req_children=0&hpos=1&hapos=1&sr_order=popularity&srpvid=befc9f6d0ca90365&srepoch=1766443229&from=searchresults,booking.com,0,0,,,,,,2025-12-22T22:40:45Z,Data sourced from Booking.com listing
canada-canmore-blackstone-mountain-lodge,Blackstone Mountain Lodge,Canmore,Alberta,Canada,Upper-Midscale,4,51.0756,-115.3234,https://www.cliquehospitality.com/blackstone,https://www.booking.com/hotel/ca/blackstone-mountain-lodge.en-gb.html?aid=304142&label=gen173nr-10CAQoggJCKHNlYXJjaF9ibGFja3N0b25lIG1vdW50YWluIGxvZGdlIGNhbm1vcmVIM1gEaCeIAQGYATO4ARfIAQzYAQPoAQH4AQGIAgGoAgG4ApmTp8oGwAIB0gIkMWJiZTdmOGMtNmVhMi00ZTY0LWE1NWQtZjYzNWZiMjRiMGFh2AIB4AIB&ucfs=1&arphpl=1&group_adults=2&req_adults=2&no_rooms=1&group_children=0&req_children=0&hpos=1&hapos=1&sr_order=popularity&srpvid=d7cd9fcc7a680169&srepoch=1766443419&from=searchresults,https://www.booking.com/hotel/ca/blackstone-mountain-lodge.en-gb.html?aid=304142&label=gen173nr-10CAQoggJCKHNlYXJjaF9ibGFja3N0b25lIG1vdW50YWluIGxvZGdlIGNhbm1vcmVIM1gEaCeIAQGYATO4ARfIAQzYAQPoAQH4AQGIAgGoAgG4ApmTp8oGwAIB0gIkMWJiZTdmOGMtNmVhMi00ZTY0LWE1NWQtZjYzNWZiMjRiMGFh2AIB4AIB&ucfs=1&arphpl=1&group_adults=2&req_adults=2&no_rooms=1&group_children=0&req_children=0&hpos=1&hapos=1&sr_order=popularity&srpvid=d7cd9fcc7a680169&srepoch=1766443419&from=searchresults,booking.com,0,0,,,,,,2025-12-22T22:43:56Z,Data sourced from Booking.com listing
canada-canmore-the-georgetown-inn,The Georgetown Inn,Canmore,Alberta,Canada,Upper-Midscale,6,51.0878,-115.3489,https://www.georgetowninn.ca/,https://www.booking.com/hotel/ca/the-georgetown-inn.en-gb.html?aid=304142&label=gen173nr-10CAQoggJCIXNlYXJjaF90aGUgZ2VvcmdldG93biBpbm4gY2FubW9yZUgzWARoJ4gBAZgBM7gBF8gBDNgBA-gBAfgBAYgCAagCAbgC6JSnygbAAgHSAiQxMWU5YjJkZC04MzMyLTQ1NTMtODIzNi00MmY5NWMzNzBkMzjYAgHgAgE&ucfs=1&arphpl=1&group_adults=2&req_adults=2&no_rooms=1&group_children=0&req_children=0&hpos=1&hapos=1&sr_order=popularity&srpvid=eeaca03405700288&srepoch=1766443628&from=searchresults,https://www.booking.com/hotel/ca/the-georgetown-inn.en-gb.html?aid=304142&label=gen173nr-10CAQoggJCIXNlYXJjaF90aGUgZ2VvcmdldG93biBpbm4gY2FubW9yZUgzWARoJ4gBAZgBM7gBF8gBDNgBA-gBAfgBAYgCAagCAbgC6JSnygbAAgHSAiQxMWU5YjJkZC04MzMyLTQ1NTMtODIzNi00MmY5NWMzNzBkMzjYAgHgAgE&ucfs=1&arphpl=1&group_adults=2&req_adults=2&no_rooms=1&group_children=0&req_children=0&hpos=1&hapos=1&sr_order=popularity&srpvid=eeaca03405700288&srepoch=1766443628&from=searchresults,booking.com,0,0,,,,,,2025-12-22T22:47:25Z,Data sourced from Booking.com listing
canada-canmore-basecamp-suites-canmore,Basecamp Suites Canmore,Canmore,Alberta,Canada,Upper-Midscale,7,51.0886,-115.3498,https://basecampresorts.com/canmore/,https://basecampresorts.com/about/,,official,0,0,,,,,,2025-12-22T22:48:19Z,No taxes or fees found on policy page
canada-canmore-grande-rockies-resort,Grande Rockies Resort,Canmore,Alberta,Canada,Upper-Midscale,8,51.0734,-115.3189,https://www.granderockies.com/,https://www.granderockies.com/amenities,,official,0,0,,,,,,2025-12-22T22:48:40Z,No taxes or fees found on policy page
canada-canmore-coast-canmore-hotel,Coast Canmore Hotel,Canmore,Alberta,Canada,Midscale,9,51.0867,-115.3456,https://www.coasthotels.com/hotels/alberta/canmore/coast-canmore-hotel-conference-centre/,https://www.coasthotels.com,,official,0,0,,,,,,2025-12-22T22:48:48Z,No taxes or fees found on policy page
canada-canmore-windtower-lodge-suites,Windtower Lodge & Suites,Canmore,Alberta,Canada,Midscale,10,51.0845,-115.3401,https://www.windtower.ca/,https://www.windtower.ca/about/,,official,0,0,,,,,,2025-12-22T22:49:40Z,No taxes or fees found on policy page
canada-canmore-canmore-inn-suites,Canmore Inn & Suites,Canmore,Alberta,Canada,Midscale,11,51.0912,-115.3567,https://www.canmoreinn.com/,https://www.canmoreinn.com/amenities/,,official,0,0,,,,,,2025-12-22T22:50:04Z,No taxes or fees found on policy page
canada-canmore-rocky-mountain-ski-lodge,Rocky Mountain Ski Lodge,Canmore,Alberta,Canada,Midscale,12,51.0923,-115.3589,https://www.rockymountainskislodge.com/,https://www.booking.com/hotel/ca/rocky-mountain-ski-lodge.en-gb.html?aid=304142&label=gen173nr-10CAQoggJCJ3NlYXJjaF9yb2NreSBtb3VudGFpbiBza2kgbG9kZ2UgY2FubW9yZUgzWARoJ4gBAZgBM7gBF8gBDNgBA-gBAfgBAYgCAagCAbgC8ZanygbAAgHSAiQ2NWZkNzdkNS0xNjRjLTRhODYtODYzYy01NTc5ZDI0ZmJkZDbYAgHgAgE&ucfs=1&arphpl=1&group_adults=2&req_adults=2&no_rooms=1&group_children=0&req_children=0&hpos=1&hapos=1&sr_order=popularity&srpvid=9a3aa0b849dc0174&srepoch=1766443892&from=searchresults,https://www.booking.com/hotel/ca/rocky-mountain-ski-lodge.en-gb.html?aid=304142&label=gen173nr-10CAQoggJCJ3NlYXJjaF9yb2NreSBtb3VudGFpbiBza2kgbG9kZ2UgY2FubW9yZUgzWARoJ4gBAZgBM7gBF8gBDNgBA-gBAfgBAYgCAagCAbgC8ZanygbAAgHSAiQ2NWZkNzdkNS0xNjRjLTRhODYtODYzYy01NTc5ZDI0ZmJkZDbYAgHgAgE&ucfs=1&arphpl=1&group_adults=2&req_adults=2&no_rooms=1&group_children=0&req_children=0&hpos=1&hapos=1&sr_order=popularity&srpvid=9a3aa0b849dc0174&srepoch=1766443892&from=searchresults,booking.com,0,0,,,,,,2025-12-22T22:51:49Z,Data sourced from Booking.com listing
canada-canmore-canalta-lodge,Canalta Lodge,Canmore,Alberta,Canada,Midscale,13,51.0856,-115.3423,https://www.canaltalodge.com/,https://canaltalodge.com/about/,,official,0,0,,,,,,2025-12-22T22:52:42Z,No taxes or fees found on policy page
canada-canmore-quality-resort-chateau-canmore,Quality Resort Chateau Canmore,Canmore,Alberta,Canada,Midscale,14,51.0834,-115.3378,https://www.chateaucanmore.com/,https://www.chateaucanmore.com/amenities,,official,0,0,,,,,,2025-12-22T22:53:05Z,No taxes or fees found on policy page
canada-canmore-silver-creek-lodge,Silver Creek Lodge,Canmore,Alberta,Canada,Upper-Midscale,15,51.0789,-115.3298,https://www.silvercreekcanmore.com/,https://www.booking.com/hotel/ca/silver-creek-lodge.en-gb.html?aid=304142&label=gen173nr-10CAQoggJCIXNlYXJjaF9zaWx2ZXIgY3JlZWsgbG9kZ2UgY2FubW9yZUgzWARoJ4gBAZgBM7gBF8gBDNgBA-gBAfgBAYgCAagCAbgCppinygbAAgHSAiQxMTI0ZmFlNi0wYzI5LTRjYmEtYmE4YS0zZmQ1Yzk5NWU0NDPYAgHgAgE&ucfs=1&arphpl=1&group_adults=2&req_adults=2&no_rooms=1&group_children=0&req_children=0&hpos=1&hapos=1&sr_order=popularity&srpvid=58bfa1136bb0007b&srepoch=1766444073&from=searchresults,https://www.booking.com/hotel/ca/silver-creek-lodge.en-gb.html?aid=304142&label=gen173nr-10CAQoggJCIXNlYXJjaF9zaWx2ZXIgY3JlZWsgbG9kZ2UgY2FubW9yZUgzWARoJ4gBAZgBM7gBF8gBDNgBA-gBAfgBAYgCAagCAbgCppinygbAAgHSAiQxMTI0ZmFlNi0wYzI5LTRjYmEtYmE4YS0zZmQ1Yzk5NWU0NDPYAgHgAgE&ucfs=1&arphpl=1&group_adults=2&req_adults=2&no_rooms=1&group_children=0&req_children=0&hpos=1&hapos=1&sr_order=popularity&srpvid=58bfa1136bb0007b&srepoch=1766444073&from=searchresults,booking.com,0,0,,,,,,2025-12-22T22:54:50Z,Data sourced from Booking.com listing
canada-canmore-falcon-crest-lodge,Falcon Crest Lodge,Canmore,Alberta,Canada,Upper-Midscale,16,51.0767,-115.3256,https://www.falconcrestlodge.ca/,https://www.falconcrestlodge.ca/amenities,,official,0,0,,,,,,2025-12-22T22:55:11Z,No taxes or fees found on policy page
canada-canmore-the-drake-inn,The Drake Inn,Canmore,Alberta,Canada,Midscale,17,51.0889,-115.3512,https://www.drakeinn.com/,https://www.drakeinn.com/about,,official,0,0,,,,,,2025-12-22T22:56:05Z,No taxes or fees found on policy page
canada-canmore-lady-macdonald-country-inn,Lady Macdonald Country Inn,Canmore,Alberta,Canada,Upper-Midscale,18,51.0876,-115.3478,https://www.ladymacdonald.com/,https://www.ladymacdonald.com/amenities,,official,0,0,,,,,,2025-12-22T22:56:28Z,No taxes or fees found on policy page
canada-canmore-best-western-plus-pocaterra-inn,Best Western Plus Pocaterra Inn,Canmore,Alberta,Canada,Midscale,19,51.0901,-115.3534,https://www.bestwestern.com/en_US/book/hotels-in-canmore/best-western-plus-pocaterra-inn/propertyCode.61098.html,https://www.booking.com/hotel/us/best-western-plus-anaheim-inn.en-gb.html?aid=304142&label=gen173nr-10CAQoggJCLnNlYXJjaF9iZXN0IHdlc3Rlcm4gcGx1cyBwb2NhdGVycmEgaW5uIGNhbm1vcmVIM1gEaCeIAQGYATO4ARfIAQzYAQPoAQH4AQGIAgGoAgG4AvGZp8oGwAIB0gIkNDllZDdmOTUtZjUxNS00NTkwLWI5ODgtM2NiMjg3MGRhMjhk2AIB4AIB&ucfs=1&arphpl=1&group_adults=2&req_adults=2&no_rooms=1&group_children=0&req_children=0&hpos=1&hapos=1&sr_order=popularity&srpvid=7ac1a178062909f9&srepoch=1766444276&from=searchresults,https://www.booking.com/hotel/us/best-western-plus-anaheim-inn.en-gb.html?aid=304142&label=gen173nr-10CAQoggJCLnNlYXJjaF9iZXN0IHdlc3Rlcm4gcGx1cyBwb2NhdGVycmEgaW5uIGNhbm1vcmVIM1gEaCeIAQGYATO4ARfIAQzYAQPoAQH4AQGIAgGoAgG4AvGZp8oGwAIB0gIkNDllZDdmOTUtZjUxNS00NTkwLWI5ODgtM2NiMjg3MGRhMjhk2AIB4AIB&ucfs=1&arphpl=1&group_adults=2&req_adults=2&no_rooms=1&group_children=0&req_children=0&hpos=1&hapos=1&sr_order=popularity&srpvid=7ac1a178062909f9&srepoch=1766444276&from=searchresults,booking.com,0,1,,f 1,,,,2025-12-22T22:58:11Z,Data sourced from Booking.com listing
canada-canmore-rundle-cliffs-lodge,Rundle Cliffs Lodge,Canmore,Alberta,Canada,Upper-Midscale,20,51.0812,-115.3345,https://www.rundlecliffs.com/,https://www.booking.com/hotel/ca/rundle-cliffs-lodge-by-canmore-premie.en-gb.html?aid=304142&label=mkt123sc-ef1d6c69-570e-451d-94e4-c72df67b1576&ucfs=1&arphpl=1&group_adults=2&req_adults=2&no_rooms=1&group_children=0&req_children=0&hpos=1&hapos=1&sr_order=popularity&srpvid=931a4f7f7049f78028eddf97bef3efcc&srepoch=1766444389&from=searchresults,https://www.booking.com/hotel/ca/rundle-cliffs-lodge-by-canmore-premie.en-gb.html?aid=304142&label=mkt123sc-ef1d6c69-570e-451d-94e4-c72df67b1576&ucfs=1&arphpl=1&group_adults=2&req_adults=2&no_rooms=1&group_children=0&req_children=0&hpos=1&hapos=1&sr_order=popularity&srpvid=931a4f7f7049f78028eddf97bef3efcc&srepoch=1766444389&from=searchresults,booking.com,0,0,,,,,,2025-12-22T23:00:06Z,Data sourced from Booking.com listing
canada-canmore-econo-lodge-canmore,Econo Lodge Canmore,Canmore,Alberta,Canada,Economy,21,51.0934,-115.3612,https://www.choicehotels.com/alberta/canmore/econo-lodge-hotels,https://www.choicehotels.com/about,,official,0,0,,,,,,2025-12-22T23:01:29Z,No taxes or fees found on policy page
canada-canmore-super-8-by-wyndham-canmore,Super 8 by Wyndham Canmore,Canmore,Alberta,Canada,Economy,22,51.0945,-115.3634,https://www.wyndhamhotels.com/super-8/canmore-alberta/super-8-canmore/overview,https://www.wyndhamhotels.com/hotel-deals/best-rate-guarantee,,official,0,0,,,,,,2025-12-22T23:02:50Z,No taxes or fees found on policy page
canada-canmore-days-inn-by-wyndham-canmore,Days Inn by Wyndham Canmore,Canmore,Alberta,Canada,Economy,23,51.0956,-115.3656,https://www.wyndhamhotels.com/days-inn/canmore-alberta/days-inn-canmore/overview,https://www.wyndhamhotels.com/hotel-deals/best-rate-guarantee,,official,0,0,,,,,,2025-12-22T23:04:12Z,No taxes or fees found on policy page
canada-canmore-bow-valley-motel,Bow Valley Motel,Canmore,Alberta,Canada,Economy,24,51.0967,-115.3678,https://www.bowvalleymotel.com/,https://www.bowvalleymotel.com/fees,,official,0,0,,,,,,2025-12-22T23:04:15Z,No taxes or fees found on policy page
canada-canmore-canmore-rocky-mountain-inn,Canmore Rocky Mountain Inn,Canmore,Alberta,Canada,Midscale,25,51.0898,-115.3523,https://www.rockymountaininn.com/,https://www.booking.com/hotel/ca/canmore-rocky-mountain-inn.en-gb.html?aid=304142&label=gen173nr-10CAQoggJCKXNlYXJjaF9jYW5tb3JlIHJvY2t5IG1vdW50YWluIGlubiBjYW5tb3JlSDNYBGgniAEBmAEzuAEXyAEM2AED6AEB-AEBiAIBqAIBuALGnafKBsACAdICJDY2NjhhNGNmLTgyZjQtNDQ5Yi05YzBjLTQ4NWQ2OTIwNTllNtgCAeACAQ&ucfs=1&arphpl=1&group_adults=2&req_adults=2&no_rooms=1&group_children=0&req_children=0&hpos=1&hapos=1&sr_order=popularity&srpvid=e9d6a263de14116b&srepoch=1766444745&from_sustainable_property_sr=1&from=searchresults,https://www.booking.com/hotel/ca/canmore-rocky-mountain-inn.en-gb.html?aid=304142&label=gen173nr-10CAQoggJCKXNlYXJjaF9jYW5tb3JlIHJvY2t5IG1vdW50YWluIGlubiBjYW5tb3JlSDNYBGgniAEBmAEzuAEXyAEM2AED6AEB-AEBiAIBqAIBuALGnafKBsACAdICJDY2NjhhNGNmLTgyZjQtNDQ5Yi05YzBjLTQ4NWQ2OTIwNTllNtgCAeACAQ&ucfs=1&arphpl=1&group_adults=2&req_adults=2&no_rooms=1&group_children=0&req_children=0&hpos=1&hapos=1&sr_order=popularity&srpvid=e9d6a263de14116b&srepoch=1766444745&from_sustainable_property_sr=1&from=searchresults,booking.com,0,0,,,,,,2025-12-22T23:06:02Z,Data sourced from Booking.com listing
canada-canmore-spring-creek-vacations,Spring Creek Vacations,Canmore,Alberta,Canada,Upper-Midscale,26,51.0723,-115.3178,https://www.springcreekvacations.com/,https://www.springcreekvacations.com/faq,,official,0,0,,,,,,2025-12-22T23:06:39Z,No taxes or fees found on policy page
canada-canmore-fire-mountain-lodge,Fire Mountain Lodge,Canmore,Alberta,Canada,Upper-Midscale,27,51.0801,-115.3312,https://www.firemountainlodge.com/,https://www.booking.com/hotel/ca/fire-mountain-lodge-canmore2.en-gb.html?aid=304142&label=gen173nr-10CAQoggJCInNlYXJjaF9maXJlIG1vdW50YWluIGxvZGdlIGNhbm1vcmVIM1gEaCeIAQGYATO4ARfIAQzYAQPoAQH4AQGIAgGoAgG4At2ep8oGwAIB0gIkNmNmYjMzYjItOWE4OC00YTU0LTk2MWQtY2FkMWI1YTAwODZl2AIB4AIB&ucfs=1&arphpl=1&group_adults=2&req_adults=2&no_rooms=1&group_children=0&req_children=0&hpos=1&hapos=1&sr_order=popularity&srpvid=726aa2ae37c9169a&srepoch=1766444896&from=searchresults,https://www.booking.com/hotel/ca/fire-mountain-lodge-canmore2.en-gb.html?aid=304142&label=gen173nr-10CAQoggJCInNlYXJjaF9maXJlIG1vdW50YWluIGxvZGdlIGNhbm1vcmVIM1gEaCeIAQGYATO4ARfIAQzYAQPoAQH4AQGIAgGoAgG4At2ep8oGwAIB0gIkNmNmYjMzYjItOWE4OC00YTU0LTk2MWQtY2FkMWI1YTAwODZl2AIB4AIB&ucfs=1&arphpl=1&group_adults=2&req_adults=2&no_rooms=1&group_children=0&req_children=0&hpos=1&hapos=1&sr_order=popularity&srpvid=726aa2ae37c9169a&srepoch=1766444896&from=searchresults,booking.com,0,0,,,,,,2025-12-22T23:08:33Z,Data sourced from Booking.com listing
canada-canmore-creekside-villa,Creekside Villa,Canmore,Alberta,Canada,Upper-Midscale,28,51.0778,-115.3278,https://www.creeksidevillacanmore.com/,https://www.creeksidevilla.ca/faq,,official,0,0,,,,,,2025-12-22T23:09:06Z,No taxes or fees found on policy page
canada-canmore-sunset-resorts-canmore,Sunset Resorts Canmore,Canmore,Alberta,Canada,Upper-Midscale,30,51.0756,-115.3234,https://www.sunsetresortscanmore.com/,https://www.booking.com/hotel/ca/sunset-resorts-canmore.en-gb.html?aid=304142&label=mkt123sc-bad70234-cd34-4cd4-90af-5b367b520ddf&ucfs=1&arphpl=1&group_adults=2&req_adults=2&no_rooms=1&group_children=0&req_children=0&hpos=1&hapos=1&sr_order=popularity&srpvid=2fd64aa18e210b164d972fd8231c23c1&srepoch=1766445122&from=searchresults,https://www.booking.com/hotel/ca/sunset-resorts-canmore.en-gb.html?aid=304142&label=mkt123sc-bad70234-cd34-4cd4-90af-5b367b520ddf&ucfs=1&arphpl=1&group_adults=2&req_adults=2&no_rooms=1&group_children=0&req_children=0&hpos=1&hapos=1&sr_order=popularity&srpvid=2fd64aa18e210b164d972fd8231c23c1&srepoch=1766445122&from=searchresults,booking.com,0,0,,,,,,2025-12-22T23:12:21Z,Data sourced from Booking.com listing
canada-jasper-fairmont-jasper-park-lodge,Fairmont Jasper Park Lodge,Jasper,Alberta,Canada,Luxury,1,52.8851,-118.0558,https://www.fairmont.com/jasper/,https://permalink.fairmont.com/booking/select?dateIn=2025-12-22&lengthOfStayValue=1&client=aem.fairmont&product%5B0%5D%5BadultNumber%5D=2&languageCode=en&hotelCodes=A562,,official,0,1,,$45,,,,2025-12-22T23:13:36Z,
canada-jasper-sawridge-inn-and-conference-centre,Sawridge Inn and Conference Centre,Jasper,Alberta,Canada,Upscale,2,52.8734,-118.0823,https://www.sawridgeinn.com/jasper/,https://www.banffjaspercollection.com/hotels/forest-park-hotel/,,official,0,0,,,,,,2025-12-22T23:13:38Z,No taxes or fees found on policy page
canada-jasper-pyramid-lake-resort,Pyramid Lake Resort,Jasper,Alberta,Canada,Upper-Midscale,3,52.9123,-118.0912,https://www.pyramidlakeresort.com/,https://www.booking.com/hotel/ca/pyramid-lake-resort.en-gb.html?aid=304142&label=mkt123sc-3dac0691-943d-4a7a-94c8-f3a69ffd9d92&ucfs=1&arphpl=1&group_adults=2&req_adults=2&no_rooms=1&group_children=0&req_children=0&hpos=1&hapos=1&sr_order=popularity&srpvid=74616463483beb78a9c62f2b51cff760&srepoch=1766445308&from=searchresults,https://www.booking.com/hotel/ca/pyramid-lake-resort.en-gb.html?aid=304142&label=mkt123sc-3dac0691-943d-4a7a-94c8-f3a69ffd9d92&ucfs=1&arphpl=1&group_adults=2&req_adults=2&no_rooms=1&group_children=0&req_children=0&hpos=1&hapos=1&sr_order=popularity&srpvid=74616463483beb78a9c62f2b51cff760&srepoch=1766445308&from=searchresults,booking.com,0,0,,,,,,2025-12-22T23:15:26Z,Data sourced from Booking.com listing
canada-jasper-pine-bungalows,Pine Bungalows,Jasper,Alberta,Canada,Upper-Midscale,5,52.8612,-118.0312,https://www.pinebungalows.com/,https://pinebungalows.com/about-us/,,official,0,0,,,,,,2025-12-22T23:17:51Z,No taxes or fees found on policy page
canada-jasper-bear-hill-lodge,Bear Hill Lodge,Jasper,Alberta,Canada,Upper-Midscale,6,52.8789,-118.0756,https://www.bearhilllodge.com/,https://bearhilllodge.com/information/,,official,0,0,,,,,,2025-12-22T23:18:28Z,No taxes or fees found on policy page
canada-jasper-jasper-inn-suites,Jasper Inn & Suites,Jasper,Alberta,Canada,Midscale,7,52.8756,-118.0801,https://www.jasperinn.com/,https://jasperinn.com/ErrorPages/404?aspxerrorpath=/fees,,official,0,0,,,,,,2025-12-22T23:18:29Z,No taxes or fees found on policy page
canada-jasper-chateau-jasper,Chateau Jasper,Jasper,Alberta,Canada,Midscale,8,52.8767,-118.0812,https://www.chateaujasper.com/,https://www.banffjaspercollection.com/hotels/chateau-jasper/,,official,0,0,,,,,,2025-12-22T23:18:30Z,No taxes or fees found on policy page
canada-jasper-lobstick-lodge,Lobstick Lodge,Jasper,Alberta,Canada,Midscale,9,52.8778,-118.0834,https://www.lobsticklodge.com/,https://www.banffjaspercollection.com/hotels/lobstick-lodge/,,official,0,0,,,,,,2025-12-22T23:18:33Z,No taxes or fees found on policy page
canada-jasper-marmot-lodge,Marmot Lodge,Jasper,Alberta,Canada,Midscale,10,52.8789,-118.0845,https://www.marmotlodge.com/,https://www.banffjaspercollection.com/hotels/marmot-lodge/,,official,0,0,,,,,,2025-12-22T23:18:37Z,No taxes or fees found on policy page
canada-jasper-tonquin-inn,Tonquin Inn,Jasper,Alberta,Canada,Midscale,11,52.8745,-118.0789,https://www.tonquininn.com/,https://www.booking.com/hotel/ca/tonquin-inn.en-gb.html?aid=304142&label=gen173nr-10CAQoggJCGXNlYXJjaF90b25xdWluIGlubiBqYXNwZXJIM1gEaCeIAQGYATO4ARfIAQzYAQPoAQH4AQGIAgGoAgG4Ap6kp8oGwAIB0gIkYzZkZTU1YmQtYzUyMC00MGI2LTk1MDEtYjk3ZGU5YjllZDlj2AIB4AIB&ucfs=1&arphpl=1&group_adults=2&req_adults=2&no_rooms=1&group_children=0&req_children=0&hpos=1&hapos=1&sr_order=popularity&srpvid=d8bda40fd37503dd&srepoch=1766445600&from=searchresults,https://www.booking.com/hotel/ca/tonquin-inn.en-gb.html?aid=304142&label=gen173nr-10CAQoggJCGXNlYXJjaF90b25xdWluIGlubiBqYXNwZXJIM1gEaCeIAQGYATO4ARfIAQzYAQPoAQH4AQGIAgGoAgG4Ap6kp8oGwAIB0gIkYzZkZTU1YmQtYzUyMC00MGI2LTk1MDEtYjk3ZGU5YjllZDlj2AIB4AIB&ucfs=1&arphpl=1&group_adults=2&req_adults=2&no_rooms=1&group_children=0&req_children=0&hpos=1&hapos=1&sr_order=popularity&srpvid=d8bda40fd37503dd&srepoch=1766445600&from=searchresults,booking.com,0,0,,,,,,2025-12-22T23:20:18Z,Data sourced from Booking.com listing
canada-jasper-mount-robson-inn,Mount Robson Inn,Jasper,Alberta,Canada,Midscale,12,52.8723,-118.0767,https://www.mountrobsoninn.com/,https://www.booking.com/hotel/ca/premier-mountain-lodge.en-gb.html?aid=304142&label=mkt123sc-5b299683-fc0b-48b6-a4d9-2425cb6f55ac&ucfs=1&arphpl=1&group_adults=2&req_adults=2&no_rooms=1&group_children=0&req_children=0&hpos=8&hapos=8&sr_order=popularity&srpvid=7f00773c1a365ccee888fb1b8e58c0f9&srepoch=1766445699&from=searchresults,https://www.booking.com/hotel/ca/premier-mountain-lodge.en-gb.html?aid=304142&label=mkt123sc-5b299683-fc0b-48b6-a4d9-2425cb6f55ac&ucfs=1&arphpl=1&group_adults=2&req_adults=2&no_rooms=1&group_children=0&req_children=0&hpos=8&hapos=8&sr_order=popularity&srpvid=7f00773c1a365ccee888fb1b8e58c0f9&srepoch=1766445699&from=searchresults,booking.com,0,0,,,,,,2025-12-22T23:21:58Z,Data sourced from Booking.com listing
canada-jasper-astoria-hotel,Astoria Hotel,Jasper,Alberta,Canada,Midscale,13,52.8734,-118.0778,https://www.astoriajasper.com/,https://www.booking.com/hotel/ca/astoria.en-gb.html?aid=304142&label=gen173nr-10CAQoggJCG3NlYXJjaF9hc3RvcmlhIGhvdGVsIGphc3BlckgzWARoJ4gBAZgBM7gBF8gBDNgBA-gBAfgBAYgCAagCAbgC4KWnygbAAgHSAiQ4ZjlkMzY3Yy02M2ViLTRlY2YtYmNjNy1hYjM4ODczN2I3ZGHYAgHgAgE&ucfs=1&arphpl=1&group_adults=2&req_adults=2&no_rooms=1&group_children=0&req_children=0&hpos=1&hapos=1&sr_order=popularity&srpvid=fa2ba470374a01ac&srepoch=1766445795&from=searchresults,https://www.booking.com/hotel/ca/astoria.en-gb.html?aid=304142&label=gen173nr-10CAQoggJCG3NlYXJjaF9hc3RvcmlhIGhvdGVsIGphc3BlckgzWARoJ4gBAZgBM7gBF8gBDNgBA-gBAfgBAYgCAagCAbgC4KWnygbAAgHSAiQ4ZjlkMzY3Yy02M2ViLTRlY2YtYmNjNy1hYjM4ODczN2I3ZGHYAgHgAgE&ucfs=1&arphpl=1&group_adults=2&req_adults=2&no_rooms=1&group_children=0&req_children=0&hpos=1&hapos=1&sr_order=popularity&srpvid=fa2ba470374a01ac&srepoch=1766445795&from=searchresults,booking.com,0,0,,,,,,2025-12-22T23:23:32Z,Data sourced from Booking.com listing
canada-jasper-patricia-lake-bungalows,Patricia Lake Bungalows,Jasper,Alberta,Canada,Upper-Midscale,14,52.9012,-118.0934,https://www.patricialakebungalows.com/,https://www.patricialakebungalows.com/rates,,official,0,0,,,,,,2025-12-22T23:23:40Z,No taxes or fees found on policy page
canada-jasper-overlander-mountain-lodge,Overlander Mountain Lodge,Jasper,Alberta,Canada,Upper-Midscale,15,53.0123,-118.1234,https://www.overlandermountainlodge.com/,https://www.overlandermountainlodge.com/faq,,official,0,0,,,,,,2025-12-22T23:24:16Z,No taxes or fees found on policy page
canada-jasper-alpine-village,Alpine Village,Jasper,Alberta,Canada,Upper-Midscale,16,52.8534,-118.0189,https://www.alpinevillagejasper.com/,https://www.booking.com/hotel/au/karas-6-thredbo-village.en-gb.html?aid=304142&label=gen173nr-10CAQoggJCHHNlYXJjaF9hbHBpbmUgdmlsbGFnZSBqYXNwZXJIM1gEaCeIAQGYATO4ARfIAQzYAQPoAQH4AQGIAgGoAgG4AvSmp8oGwAIB0gIkYTFmYmI0YjgtZTM3Ny00ODFmLWFiOTMtYWNjNjQ0ZDBjY2E32AIB4AIB&ucfs=1&arphpl=1&group_adults=2&req_adults=2&no_rooms=1&group_children=0&req_children=0&hpos=22&hapos=22&sr_order=popularity&srpvid=1c07a4ba98530133&srepoch=1766445943&from=searchresults,https://www.booking.com/hotel/au/karas-6-thredbo-village.en-gb.html?aid=304142&label=gen173nr-10CAQoggJCHHNlYXJjaF9hbHBpbmUgdmlsbGFnZSBqYXNwZXJIM1gEaCeIAQGYATO4ARfIAQzYAQPoAQH4AQGIAgGoAgG4AvSmp8oGwAIB0gIkYTFmYmI0YjgtZTM3Ny00ODFmLWFiOTMtYWNjNjQ0ZDBjY2E32AIB4AIB&ucfs=1&arphpl=1&group_adults=2&req_adults=2&no_rooms=1&group_children=0&req_children=0&hpos=22&hapos=22&sr_order=popularity&srpvid=1c07a4ba98530133&srepoch=1766445943&from=searchresults,booking.com,0,0,,,,,,2025-12-22T23:26:01Z,Data sourced from Booking.com listing
canada-jasper-pocahontas-cabins,Pocahontas Cabins,Jasper,Alberta,Canada,Midscale,17,53.0867,-117.9012,https://www.pocahontascabins.com/,https://www.booking.com/hotel/au/jaspers-cabins.en-gb.html?aid=304142&label=gen173nr-10CAQoggJCH3NlYXJjaF9wb2NhaG9udGFzIGNhYmlucyBqYXNwZXJIM1gEaCeIAQGYATO4ARfIAQzYAQPoAQH4AQGIAgGoAgG4AuGnp8oGwAIB0gIkZDU0NDg1NmUtMDhjNS00NWZhLThjYWUtODg2ZDllYmJiYzVi2AIB4AIB&ucfs=1&arphpl=1&group_adults=2&req_adults=2&no_rooms=1&group_children=0&req_children=0&hpos=1&hapos=1&sr_order=popularity&srpvid=42cea4f0e50a0ccb&srepoch=1766446052&from=searchresults,https://www.booking.com/hotel/au/jaspers-cabins.en-gb.html?aid=304142&label=gen173nr-10CAQoggJCH3NlYXJjaF9wb2NhaG9udGFzIGNhYmlucyBqYXNwZXJIM1gEaCeIAQGYATO4ARfIAQzYAQPoAQH4AQGIAgGoAgG4AuGnp8oGwAIB0gIkZDU0NDg1NmUtMDhjNS00NWZhLThjYWUtODg2ZDllYmJiYzVi2AIB4AIB&ucfs=1&arphpl=1&group_adults=2&req_adults=2&no_rooms=1&group_children=0&req_children=0&hpos=1&hapos=1&sr_order=popularity&srpvid=42cea4f0e50a0ccb&srepoch=1766446052&from=searchresults,booking.com,0,0,,,,,,2025-12-22T23:27:49Z,Data sourced from Booking.com listing
canada-jasper-beckers-chalets,Becker's Chalets,Jasper,Alberta,Canada,Upper-Midscale,18,52.8456,-118.0123,https://www.beckerschalets.com/,https://beckerschalets.com/about/,,official,0,0,,,,,,2025-12-22T23:28:45Z,No taxes or fees found on policy page
canada-jasper-maligne-lodge,Maligne Lodge,Jasper,Alberta,Canada,Midscale,19,52.8712,-118.0745,https://www.malignelodge.com/,https://decorehotels.com,,official,0,0,,,,,,2025-12-22T23:28:46Z,No taxes or fees found on policy page
canada-jasper-athabasca-hotel,Athabasca Hotel,Jasper,Alberta,Canada,Economy,20,52.8723,-118.0789,https://www.athabascahotel.com/,https://www.athabascahotel.com/rates/,,official,0,0,,,,,,2025-12-22T23:28:52Z,No taxes or fees found on policy page
canada-jasper-whistlers-inn,Whistlers Inn,Jasper,Alberta,Canada,Midscale,21,52.8734,-118.0801,https://www.whistlersinn.com/,https://www.whistlersinn.com/amenities/,,official,0,0,,,,,,2025-12-22T23:29:15Z,No taxes or fees found on policy page
canada-jasper-best-western-jasper-inn-suites,Best Western Jasper Inn & Suites,Jasper,Alberta,Canada,Midscale,22,52.8745,-118.0812,https://www.bestwestern.com/en_US/book/hotels-in-jasper/best-western-jasper-inn-suites/propertyCode.61033.html,https://www.booking.com/hotel/us/best-western-inn-and-suites.en-gb.html?aid=304142&label=gen173nr-10CAQoggJCLnNlYXJjaF9iZXN0IHdlc3Rlcm4gamFzcGVyIGlubiAmIHN1aXRlcyBqYXNwZXJIM1gEaCeIAQGYATO4ARfIAQzYAQPoAQH4AQGIAgGoAgG4AqCpp8oGwAIB0gIkM2E1MWExYmEtMzMwOS00NjAzLTgwOTQtNTA4Y2M2ZjVmYWVl2AIB4AIB&ucfs=1&arphpl=1&group_adults=2&req_adults=2&no_rooms=1&group_children=0&req_children=0&hpos=1&hapos=1&sr_order=popularity&srpvid=ca84a550d5da0077&srepoch=1766446243&from=searchresults,https://www.booking.com/hotel/us/best-western-inn-and-suites.en-gb.html?aid=304142&label=gen173nr-10CAQoggJCLnNlYXJjaF9iZXN0IHdlc3Rlcm4gamFzcGVyIGlubiAmIHN1aXRlcyBqYXNwZXJIM1gEaCeIAQGYATO4ARfIAQzYAQPoAQH4AQGIAgGoAgG4AqCpp8oGwAIB0gIkM2E1MWExYmEtMzMwOS00NjAzLTgwOTQtNTA4Y2M2ZjVmYWVl2AIB4AIB&ucfs=1&arphpl=1&group_adults=2&req_adults=2&no_rooms=1&group_children=0&req_children=0&hpos=1&hapos=1&sr_order=popularity&srpvid=ca84a550d5da0077&srepoch=1766446243&from=searchresults,booking.com,0,0,,,,,,2025-12-22T23:31:00Z,Data sourced from Booking.com listing
canada-jasper-hi-jasper,HI Jasper,Jasper,Alberta,Canada,Economy,23,52.8756,-118.0823,https://hihostels.ca/en/destinations/alberta/hi-jasper,https://hihostels.ca/faq,,official,0,0,,,,,,2025-12-22T23:31:35Z,No taxes or fees found on policy page
canada-jasper-jasper-downtown-hostel,Jasper Downtown Hostel,Jasper,Alberta,Canada,Economy,24,52.8767,-118.0834,https://www.jasperdowntownhostel.ca/,https://www.booking.com/hotel/ca/jasper-downtown-hostel.en-gb.html?aid=304142&label=mkt123sc-8105d89b-a862-4c90-8b86-c1e273b1a71e&ucfs=1&arphpl=1&group_adults=2&req_adults=2&no_rooms=1&group_children=0&req_children=0&hpos=1&hapos=1&sr_order=popularity&srpvid=cfbca210a0ecff1a205d709e84de8008&srepoch=1766446381&from=searchresults,https://www.booking.com/hotel/ca/jasper-downtown-hostel.en-gb.html?aid=304142&label=mkt123sc-8105d89b-a862-4c90-8b86-c1e273b1a71e&ucfs=1&arphpl=1&group_adults=2&req_adults=2&no_rooms=1&group_children=0&req_children=0&hpos=1&hapos=1&sr_order=popularity&srpvid=cfbca210a0ecff1a205d709e84de8008&srepoch=1766446381&from=searchresults,booking.com,0,0,,,,,,2025-12-22T23:33:18Z,Data sourced from Booking.com listing
canada-jasper-park-place-inn,Park Place Inn,Jasper,Alberta,Canada,Midscale,25,52.8778,-118.0845,https://www.parkplaceinn.com/,https://parkplaceinn.com/amenities/,,official,0,0,,,,,,2025-12-22T23:33:40Z,No taxes or fees found on policy page
canada-jasper-crimson-jasper,Crimson Jasper,Jasper,Alberta,Canada,Upscale,26,52.8701,-118.0734,https://www.crimsonjasper.com/,https://www.banffjaspercollection.com/hotels/the-crimson/,,official,0,0,,,,,,2025-12-22T23:33:41Z,No taxes or fees found on policy page
canada-jasper-forest-park-hotel,Forest Park Hotel,Jasper,Alberta,Canada,Midscale,27,52.8789,-118.0856,https://www.forestparkhotel.ca/,https://www.banffjaspercollection.com/hotels/forest-park-hotel/,,official,0,0,,,,,,2025-12-22T23:33:46Z,No taxes or fees found on policy page
canada-jasper-miette-hot-springs-resort,Miette Hot Springs Resort,Jasper,Alberta,Canada,Upper-Midscale,28,53.1234,-117.7856,https://www.miettehotsprings.com/,https://www.booking.com/hotel/ca/pocahontas-cabins.en-gb.html?aid=304142&label=mkt123sc-d3aee39b-894e-4331-962f-d16f8e177a39&ucfs=1&arphpl=1&group_adults=2&req_adults=2&no_rooms=1&group_children=0&req_children=0&hpos=4&hapos=4&sr_order=popularity&srpvid=449135b21a97feb806f3e6b14d2de4a2&srepoch=1766446519&from=searchresults,https://www.booking.com/hotel/ca/pocahontas-cabins.en-gb.html?aid=304142&label=mkt123sc-d3aee39b-894e-4331-962f-d16f8e177a39&ucfs=1&arphpl=1&group_adults=2&req_adults=2&no_rooms=1&group_children=0&req_children=0&hpos=4&hapos=4&sr_order=popularity&srpvid=449135b21a97feb806f3e6b14d2de4a2&srepoch=1766446519&from=searchresults,booking.com,0,0,,,,,,2025-12-22T23:35:36Z,Data sourced from Booking.com listing
canada-jasper-sunwapta-falls-rocky-mountain-lodge,Sunwapta Falls Rocky Mountain Lodge,Jasper,Alberta,Canada,Upper-Midscale,29,52.5345,-117.6234,https://www.sunwapta.com/,https://hotels.cloudbeds.com/reservation/zeypHR,,official,0,0,,,,,,2025-12-22T23:36:49Z,No taxes or fees found on policy page
canada-jasper-glacier-view-lodge,Glacier View Lodge,Jasper,Alberta,Canada,Upper-Midscale,30,52.2189,-117.2267,https://www.glacierviewlodge.com/,https://www.booking.com/hotel/ca/glacier-view-inn.en-gb.html?aid=304142&label=gen173nr-10CAQoggJCIHNlYXJjaF9nbGFjaWVyIHZpZXcgbG9kZ2UgamFzcGVySDNYBGgniAEBmAEzuAEXyAEM2AED6AEB-AEBiAIBqAIBuAKssqfKBsACAdICJDkxMjdjMmMwLWVjN2MtNDU0MS1iNjIzLTExNjU0NGQ0YWUwOdgCAeACAQ&ucfs=1&arphpl=1&group_adults=2&req_adults=2&no_rooms=1&group_children=0&req_children=0&hpos=1&hapos=1&sr_order=popularity&srpvid=5f4ca796d95c02c2&srepoch=1766447407&from=searchresults,https://www.booking.com/hotel/ca/glacier-view-inn.en-gb.html?aid=304142&label=gen173nr-10CAQoggJCIHNlYXJjaF9nbGFjaWVyIHZpZXcgbG9kZ2UgamFzcGVySDNYBGgniAEBmAEzuAEXyAEM2AED6AEB-AEBiAIBqAIBuAKssqfKBsACAdICJDkxMjdjMmMwLWVjN2MtNDU0MS1iNjIzLTExNjU0NGQ0YWUwOdgCAeACAQ&ucfs=1&arphpl=1&group_adults=2&req_adults=2&no_rooms=1&group_children=0&req_children=0&hpos=1&hapos=1&sr_order=popularity&srpvid=5f4ca796d95c02c2&srepoch=1766447407&from=searchresults,booking.com,0,0,,,,,,2025-12-22T23:50:25Z,Data sourced from Booking.com listing
canada-mont-tremblant-fairmont-tremblant,Fairmont Tremblant,Mont-Tremblant,Quebec,Canada,Luxury,1,46.2123,-74.5856,https://www.fairmont.com/tremblant/,https://permalink.fairmont.com/booking/select?dateIn=2025-12-22&lengthOfStayValue=1&client=aem.fairmont&product%5B0%5D%5BadultNumber%5D=2&languageCode=en&hotelCodes=A565,,official,0,1,,$48,,,,2025-12-23T00:57:29Z,
canada-mont-tremblant-hotel-quintessence,Hotel Quintessence,Mont-Tremblant,Quebec,Canada,Luxury,2,46.2089,-74.5923,https://www.hotelquintessence.com/,https://www.hotelquintessence.com/en/groups/corporate-meetings,,official,0,0,,,,,,2025-12-23T00:58:47Z,No taxes or fees found on policy page
canada-mont-tremblant-le-westin-resort-spa-tremblant,Le Westin Resort & Spa Tremblant,Mont-Tremblant,Quebec,Canada,Upscale,3,46.2134,-74.5867,https://www.marriott.com/hotels/travel/ymywi-le-westin-resort-and-spa-tremblant-quebec/,https://www.booking.com/hotel/ca/le-westin-resort-spa.en-gb.html?aid=304142&label=gen173nr-10CAQoggJCNnNlYXJjaF9sZSB3ZXN0aW4gcmVzb3J0ICYgc3BhIHRyZW1ibGFudCBtb250LXRyZW1ibGFudEgzWARoJ4gBAZgBM7gBF8gBDNgBA-gBAfgBAYgCAagCAbgCnNOnygbAAgHSAiQxM2VmNTc0MS01M2EzLTRiOTEtYTg5Ny1jM2NhOTkxN2NhNjTYAgHgAgE&ucfs=1&arphpl=1&group_adults=2&req_adults=2&no_rooms=1&group_children=0&req_children=0&hpos=1&hapos=1&sr_order=popularity&srpvid=e211070ed5031650&srepoch=1766451615&from_sustainable_property_sr=1&from=searchresults,https://www.booking.com/hotel/ca/le-westin-resort-spa.en-gb.html?aid=304142&label=gen173nr-10CAQoggJCNnNlYXJjaF9sZSB3ZXN0aW4gcmVzb3J0ICYgc3BhIHRyZW1ibGFudCBtb250LXRyZW1ibGFudEgzWARoJ4gBAZgBM7gBF8gBDNgBA-gBAfgBAYgCAagCAbgCnNOnygbAAgHSAiQxM2VmNTc0MS01M2EzLTRiOTEtYTg5Ny1jM2NhOTkxN2NhNjTYAgHgAgE&ucfs=1&arphpl=1&group_adults=2&req_adults=2&no_rooms=1&group_children=0&req_children=0&hpos=1&hapos=1&sr_order=popularity&srpvid=e211070ed5031650&srepoch=1766451615&from_sustainable_property_sr=1&from=searchresults,booking.com,0,0,,,,,,2025-12-23T01:00:32Z,Data sourced from Booking.com listing
canada-mont-tremblant-homewood-suites-by-hilton-mont-tremblant,Homewood Suites by Hilton Mont-Tremblant,Mont-Tremblant,Quebec,Canada,Upscale,4,46.2145,-74.5845,https://www.hilton.com/en/hotels/yulhwhw-homewood-suites-mont-tremblant/,https://www.hilton.com/en/brands/homewood-suites/,,official,0,0,,,,,,2025-12-23T01:00:46Z,No taxes or fees found on policy page
canada-mont-tremblant-ermitage-du-lac,Ermitage du Lac,Mont-Tremblant,Quebec,Canada,Upscale,5,46.2078,-74.5912,https://www.ermitagedulac.com/,https://www.booking.com/hotel/ca/ermitage-du-lac.en-gb.html?aid=304142&label=gen173nr-10CAQoggJCJXNlYXJjaF9lcm1pdGFnZSBkdSBsYWMgbW9udC10cmVtYmxhbnRIM1gEaCeIAQGYATO4ARfIAQzYAQPoAQH4AQGIAgGoAgG4Ao7Up8oGwAIB0gIkYTNlMWM1MzctM2Q1MC00YTFiLWJjYzQtZjA4MDYyOWRjODE12AIB4AIB&ucfs=1&arphpl=1&group_adults=2&req_adults=2&no_rooms=1&group_children=0&req_children=0&hpos=1&hapos=1&sr_order=popularity&srpvid=764c07472d5d00c7&srepoch=1766451729&from=searchresults,https://www.booking.com/hotel/ca/ermitage-du-lac.en-gb.html?aid=304142&label=gen173nr-10CAQoggJCJXNlYXJjaF9lcm1pdGFnZSBkdSBsYWMgbW9udC10cmVtYmxhbnRIM1gEaCeIAQGYATO4ARfIAQzYAQPoAQH4AQGIAgGoAgG4Ao7Up8oGwAIB0gIkYTNlMWM1MzctM2Q1MC00YTFiLWJjYzQtZjA4MDYyOWRjODE12AIB4AIB&ucfs=1&arphpl=1&group_adults=2&req_adults=2&no_rooms=1&group_children=0&req_children=0&hpos=1&hapos=1&sr_order=popularity&srpvid=764c07472d5d00c7&srepoch=1766451729&from=searchresults,booking.com,0,0,,,,,,2025-12-23T01:02:24Z,Data sourced from Booking.com listing
canada-mont-tremblant-le-grand-lodge,Le Grand Lodge,Mont-Tremblant,Quebec,Canada,Upper-Midscale,6,46.2112,-74.5889,https://www.legrandlodge.com/,https://legrandlodge.com/a-propos/,,official,0,0,,,,,,2025-12-23T01:03:16Z,No taxes or fees found on policy page
canada-mont-tremblant-tour-des-voyageurs,Tour des Voyageurs,Mont-Tremblant,Quebec,Canada,Upper-Midscale,7,46.2134,-74.5878,https://www.tourdesvoyageurs.com/,https://www.booking.com/hotel/ca/tour-des-voyageurs.en-gb.html?aid=304142&label=gen173nr-10CAQoggJCKHNlYXJjaF90b3VyIGRlcyB2b3lhZ2V1cnMgbW9udC10cmVtYmxhbnRIM1gEaCeIAQGYATO4ARfIAQzYAQPoAQH4AQGIAgGoAgG4AqfVp8oGwAIB0gIkYmFhNTA2MjUtN2JlYy00OTMwLTg0NzAtZDg3ZWYwMjFkNjQx2AIB4AIB&ucfs=1&arphpl=1&group_adults=2&req_adults=2&no_rooms=1&group_children=0&req_children=0&hpos=1&hapos=1&sr_order=popularity&srpvid=42ce079320bf02fd&srepoch=1766451883&from=searchresults,https://www.booking.com/hotel/ca/tour-des-voyageurs.en-gb.html?aid=304142&label=gen173nr-10CAQoggJCKHNlYXJjaF90b3VyIGRlcyB2b3lhZ2V1cnMgbW9udC10cmVtYmxhbnRIM1gEaCeIAQGYATO4ARfIAQzYAQPoAQH4AQGIAgGoAgG4AqfVp8oGwAIB0gIkYmFhNTA2MjUtN2JlYy00OTMwLTg0NzAtZDg3ZWYwMjFkNjQx2AIB4AIB&ucfs=1&arphpl=1&group_adults=2&req_adults=2&no_rooms=1&group_children=0&req_children=0&hpos=1&hapos=1&sr_order=popularity&srpvid=42ce079320bf02fd&srepoch=1766451883&from=searchresults,booking.com,0,0,,,,,,2025-12-23T01:04:59Z,Data sourced from Booking.com listing
canada-mont-tremblant-sommet-des-neiges,Sommet des Neiges,Mont-Tremblant,Quebec,Canada,Upper-Midscale,8,46.2156,-74.5823,https://www.sommetdesneiges.com/,https://www.booking.com/hotel/ca/sommet-des-neiges.en-gb.html?aid=304142&label=mkt123sc-8889843f-6399-46e8-a80a-42dde2208a6b&ucfs=1&arphpl=1&group_adults=2&req_adults=2&no_rooms=1&group_children=0&req_children=0&hpos=1&hapos=1&sr_order=popularity&srpvid=5cd26237e913cd57f9523299a095ff61&srepoch=1766451983&from=searchresults,https://www.booking.com/hotel/ca/sommet-des-neiges.en-gb.html?aid=304142&label=mkt123sc-8889843f-6399-46e8-a80a-42dde2208a6b&ucfs=1&arphpl=1&group_adults=2&req_adults=2&no_rooms=1&group_children=0&req_children=0&hpos=1&hapos=1&sr_order=popularity&srpvid=5cd26237e913cd57f9523299a095ff61&srepoch=1766451983&from=searchresults,booking.com,0,0,,,,,,2025-12-23T01:06:41Z,Data sourced from Booking.com listing
canada-mont-tremblant-lodge-de-la-montagne,Lodge de la Montagne,Mont-Tremblant,Quebec,Canada,Upper-Midscale,9,46.2145,-74.5834,https://www.lodgedelamontagne.com/,https://www.booking.com/hotel/ca/lodge-de-la-montagne.en-gb.html?aid=304142&label=gen173nr-10CAQoggJCKnNlYXJjaF9sb2RnZSBkZSBsYSBtb250YWduZSBtb250LXRyZW1ibGFudEgzWARoJ4gBAZgBM7gBF8gBDNgBA-gBAfgBAYgCAagCAbgC8danygbAAgHSAiRhZDkzYTg3Ny0zZGY0LTRmMTItYWVkNi0yZTY2OGIyODgzNjDYAgHgAgE&ucfs=1&arphpl=1&group_adults=2&req_adults=2&no_rooms=1&group_children=0&req_children=0&hpos=1&hapos=1&sr_order=popularity&srpvid=2ffb07f8c2d90530&srepoch=1766452085&from=searchresults,https://www.booking.com/hotel/ca/lodge-de-la-montagne.en-gb.html?aid=304142&label=gen173nr-10CAQoggJCKnNlYXJjaF9sb2RnZSBkZSBsYSBtb250YWduZSBtb250LXRyZW1ibGFudEgzWARoJ4gBAZgBM7gBF8gBDNgBA-gBAfgBAYgCAagCAbgC8danygbAAgHSAiRhZDkzYTg3Ny0zZGY0LTRmMTItYWVkNi0yZTY2OGIyODgzNjDYAgHgAgE&ucfs=1&arphpl=1&group_adults=2&req_adults=2&no_rooms=1&group_children=0&req_children=0&hpos=1&hapos=1&sr_order=popularity&srpvid=2ffb07f8c2d90530&srepoch=1766452085&from=searchresults,booking.com,0,0,,,,,,2025-12-23T01:08:21Z,Data sourced from Booking.com listing
canada-mont-tremblant-place-st-bernard,Place St-Bernard,Mont-Tremblant,Quebec,Canada,Upper-Midscale,10,46.2123,-74.5856,https://www.placestbernard.com/,https://www.booking.com/hotel/ca/place-saint-bernard-mont-tremblant.en-gb.html?aid=304142&label=gen173nr-10CAQoggJCJnNlYXJjaF9wbGFjZSBzdC1iZXJuYXJkIG1vbnQtdHJlbWJsYW50SDNYBGgniAEBmAEzuAEXyAEM2AED6AEB-AEBiAIBqAIBuALc16fKBsACAdICJDI5ZTI2N2VmLTU0NWYtNGY3Zi1hMThkLTQxODE1NTRjZGRkYtgCAeACAQ&ucfs=1&arphpl=1&group_adults=2&req_adults=2&no_rooms=1&group_children=0&req_children=0&hpos=1&hapos=1&sr_order=popularity&srpvid=54a0082ef0fb00f2&srepoch=1766452192&from=searchresults,https://www.booking.com/hotel/ca/place-saint-bernard-mont-tremblant.en-gb.html?aid=304142&label=gen173nr-10CAQoggJCJnNlYXJjaF9wbGFjZSBzdC1iZXJuYXJkIG1vbnQtdHJlbWJsYW50SDNYBGgniAEBmAEzuAEXyAEM2AED6AEB-AEBiAIBqAIBuALc16fKBsACAdICJDI5ZTI2N2VmLTU0NWYtNGY3Zi1hMThkLTQxODE1NTRjZGRkYtgCAeACAQ&ucfs=1&arphpl=1&group_adults=2&req_adults=2&no_rooms=1&group_children=0&req_children=0&hpos=1&hapos=1&sr_order=popularity&srpvid=54a0082ef0fb00f2&srepoch=1766452192&from=searchresults,booking.com,0,0,,,,,,2025-12-23T01:10:08Z,Data sourced from Booking.com listing
canada-mont-tremblant-residence-inn-by-marriott-mont-tremblant,Residence Inn by Marriott Mont Tremblant,Mont-Tremblant,Quebec,Canada,Upper-Midscale,11,46.2167,-74.5812,https://www.marriott.com/hotels/travel/yulmt-residence-inn-mont-tremblant-manoir-labelle/,https://www.booking.com/hotel/ca/residence-inn-mont-tremblant-manoir-labelle.en-gb.html?aid=304142&label=gen173nr-10CAQoggJCPnNlYXJjaF9yZXNpZGVuY2UgaW5uIGJ5IG1hcnJpb3R0IG1vbnQgdHJlbWJsYW50IG1vbnQtdHJlbWJsYW50SDNYBGgniAEBmAEzuAEXyAEM2AED6AEB-AEBiAIBqAIBuALG2KfKBsACAdICJDM0NGVhNzZhLWJmZTUtNDQ3Ny1hNmM3LTA4ZjE1ZTM1NjFkM9gCAeACAQ&ucfs=1&arphpl=1&group_adults=2&req_adults=2&no_rooms=1&group_children=0&req_children=0&hpos=1&hapos=1&sr_order=popularity&srpvid=fa2b0863874901f9&srepoch=1766452297&from=searchresults,https://www.booking.com/hotel/ca/residence-inn-mont-tremblant-manoir-labelle.en-gb.html?aid=304142&label=gen173nr-10CAQoggJCPnNlYXJjaF9yZXNpZGVuY2UgaW5uIGJ5IG1hcnJpb3R0IG1vbnQgdHJlbWJsYW50IG1vbnQtdHJlbWJsYW50SDNYBGgniAEBmAEzuAEXyAEM2AED6AEB-AEBiAIBqAIBuALG2KfKBsACAdICJDM0NGVhNzZhLWJmZTUtNDQ3Ny1hNmM3LTA4ZjE1ZTM1NjFkM9gCAeACAQ&ucfs=1&arphpl=1&group_adults=2&req_adults=2&no_rooms=1&group_children=0&req_children=0&hpos=1&hapos=1&sr_order=popularity&srpvid=fa2b0863874901f9&srepoch=1766452297&from=searchresults,booking.com,0,0,,,,,,2025-12-23T01:11:53Z,Data sourced from Booking.com listing
canada-mont-tremblant-comfort-inn-mont-tremblant,Comfort Inn Mont Tremblant,Mont-Tremblant,Quebec,Canada,Midscale,13,46.2189,-74.5789,https://www.choicehotels.com/quebec/mont-tremblant/comfort-inn-hotels,https://www.choicehotels.com/about,,official,0,0,,,,,,2025-12-23T01:14:42Z,No taxes or fees found on policy page
canada-mont-tremblant-holiday-inn-express-mont-tremblant,Holiday Inn Express Mont Tremblant,Mont-Tremblant,Quebec,Canada,Midscale,14,46.2201,-74.5778,https://www.ihg.com/holidayinnexpress/hotels/us/en/mont-tremblant/yultr/hoteldetail,https://www.ihg.com/content/us/en/customer-care/member-tc,,official,0,0,,,,,,2025-12-23T01:15:51Z,No taxes or fees found on policy page
canada-mont-tremblant-days-inn-mont-tremblant,Days Inn Mont Tremblant,Mont-Tremblant,Quebec,Canada,Economy,15,46.2212,-74.5767,https://www.wyndhamhotels.com/days-inn/mont-tremblant-quebec/days-inn-mont-tremblant/overview,https://www.wyndhamhotels.com/hotel-deals/best-rate-guarantee,,official,0,0,,,,,,2025-12-23T01:17:09Z,No taxes or fees found on policy page
canada-mont-tremblant-auberge-du-coq-de-montagne,Auberge du Coq de Montagne,Mont-Tremblant,Quebec,Canada,Upper-Midscale,16,46.2089,-74.5934,https://www.coqdemontagne.com/,https://www.booking.com/hotel/ca/luckey.en-gb.html?aid=304142&label=gen173nr-10CAQoggJCMHNlYXJjaF9hdWJlcmdlIGR1IGNvcSBkZSBtb250YWduZSBtb250LXRyZW1ibGFudEgzWARoJ4gBAZgBM7gBF8gBDNgBA-gBAfgBAYgCAagCAbgC59unygbAAgHSAiRhYTdlZTZmNS04ZmE1LTQwNmEtYjI4MS1hN2YyMjgwYTkyMGTYAgHgAgE&ucfs=1&arphpl=1&group_adults=2&req_adults=2&no_rooms=1&group_children=0&req_children=0&hpos=8&hapos=8&sr_order=popularity&srpvid=dabc093397bf0ca0&srepoch=1766452714&from=searchresults,https://www.booking.com/hotel/ca/luckey.en-gb.html?aid=304142&label=gen173nr-10CAQoggJCMHNlYXJjaF9hdWJlcmdlIGR1IGNvcSBkZSBtb250YWduZSBtb250LXRyZW1ibGFudEgzWARoJ4gBAZgBM7gBF8gBDNgBA-gBAfgBAYgCAagCAbgC59unygbAAgHSAiRhYTdlZTZmNS04ZmE1LTQwNmEtYjI4MS1hN2YyMjgwYTkyMGTYAgHgAgE&ucfs=1&arphpl=1&group_adults=2&req_adults=2&no_rooms=1&group_children=0&req_children=0&hpos=8&hapos=8&sr_order=popularity&srpvid=dabc093397bf0ca0&srepoch=1766452714&from=searchresults,booking.com,0,0,,,,,,2025-12-23T01:18:50Z,Data sourced from Booking.com listing
canada-mont-tremblant-cap-tremblant-mountain-resort,Cap Tremblant Mountain Resort,Mont-Tremblant,Quebec,Canada,Upper-Midscale,18,46.2234,-74.5756,https://www.captremblant.ca/,https://www.captremblant.com/,,official,0,0,,,,,,2025-12-23T01:21:07Z,No taxes or fees found on policy page
canada-mont-tremblant-auberge-la-porte-rouge,Auberge La Porte Rouge,Mont-Tremblant,Quebec,Canada,Upper-Midscale,19,46.1878,-74.6012,https://www.aubergelaporterouge.com/,https://www.booking.com/hotel/ca/auberge-a-la-croisee-des-chemins-la-conception.en-gb.html?aid=304142&label=mkt123sc-2e524312-7d2c-4cac-a8cf-e6d71de52384&ucfs=1&arphpl=1&group_adults=2&req_adults=2&no_rooms=1&group_children=0&req_children=0&hpos=1&hapos=1&sr_order=popularity&srpvid=c119c6e6ad7f4577bf0035a6ae60d378&srepoch=1766452952&from=searchresults,https://www.booking.com/hotel/ca/auberge-a-la-croisee-des-chemins-la-conception.en-gb.html?aid=304142&label=mkt123sc-2e524312-7d2c-4cac-a8cf-e6d71de52384&ucfs=1&arphpl=1&group_adults=2&req_adults=2&no_rooms=1&group_children=0&req_children=0&hpos=1&hapos=1&sr_order=popularity&srpvid=c119c6e6ad7f4577bf0035a6ae60d378&srepoch=1766452952&from=searchresults,booking.com,0,0,,,,,,2025-12-23T01:22:49Z,Data sourced from Booking.com listing
canada-mont-tremblant-chateau-beauvallon,Chateau Beauvallon,Mont-Tremblant,Quebec,Canada,Upper-Midscale,21,46.2134,-74.5878,https://www.chateaubeauvallon.com/,https://www.booking.com/hotel/ca/chateau-beauvallon.en-gb.html?aid=304142&label=mkt123sc-562bd1c5-4980-4894-96df-e5bb85216e47&ucfs=1&arphpl=1&group_adults=2&req_adults=2&no_rooms=1&group_children=0&req_children=0&hpos=1&hapos=1&sr_order=popularity&srpvid=2e1e3ce6a6b3bb9884683019071a1901&srepoch=1766453143&from=searchresults,https://www.booking.com/hotel/ca/chateau-beauvallon.en-gb.html?aid=304142&label=mkt123sc-562bd1c5-4980-4894-96df-e5bb85216e47&ucfs=1&arphpl=1&group_adults=2&req_adults=2&no_rooms=1&group_children=0&req_children=0&hpos=1&hapos=1&sr_order=popularity&srpvid=2e1e3ce6a6b3bb9884683019071a1901&srepoch=1766453143&from=searchresults,booking.com,0,0,,,,,,2025-12-23T01:26:00Z,Data sourced from Booking.com listing
canada-mont-tremblant-marriott-residence-inn-manoir-labelle,Marriott Residence Inn Manoir Labelle,Mont-Tremblant,Quebec,Canada,Upper-Midscale,22,46.2178,-74.5801,https://www.marriott.com/hotels/travel/yulmt-residence-inn-mont-tremblant-manoir-labelle/,https://www.booking.com/hotel/ca/residence-inn-mont-tremblant-manoir-labelle.en-gb.html?aid=304142&label=gen173nr-10CAQoggJCO3NlYXJjaF9tYXJyaW90dCByZXNpZGVuY2UgaW5uIG1hbm9pciBsYWJlbGxlIG1vbnQtdHJlbWJsYW50SDNYBGgniAEBmAEzuAEXyAEM2AED6AEB-AEBiAIBqAIBuAL336fKBsACAdICJGZmMzE0MjBlLTY5MmEtNGMzYS1hZjdkLTE0MDBiNDZlZDE0ZdgCAeACAQ&ucfs=1&arphpl=1&group_adults=2&req_adults=2&no_rooms=1&group_children=0&req_children=0&hpos=1&hapos=1&sr_order=popularity&srpvid=0ef90a3b806a027e&srepoch=1766453242&from=searchresults,https://www.booking.com/hotel/ca/residence-inn-mont-tremblant-manoir-labelle.en-gb.html?aid=304142&label=gen173nr-10CAQoggJCO3NlYXJjaF9tYXJyaW90dCByZXNpZGVuY2UgaW5uIG1hbm9pciBsYWJlbGxlIG1vbnQtdHJlbWJsYW50SDNYBGgniAEBmAEzuAEXyAEM2AED6AEB-AEBiAIBqAIBuAL336fKBsACAdICJGZmMzE0MjBlLTY5MmEtNGMzYS1hZjdkLTE0MDBiNDZlZDE0ZdgCAeACAQ&ucfs=1&arphpl=1&group_adults=2&req_adults=2&no_rooms=1&group_children=0&req_children=0&hpos=1&hapos=1&sr_order=popularity&srpvid=0ef90a3b806a027e&srepoch=1766453242&from=searchresults,booking.com,0,0,,,,,,2025-12-23T01:27:40Z,Data sourced from Booking.com listing
canada-mont-tremblant-hotel-mont-tremblant,Hotel Mont Tremblant,Mont-Tremblant,Quebec,Canada,Midscale,25,46.2156,-74.5834,https://www.hoteltremblant.com/,https://www.booking.com/hotel/ca/mont-tremblant.en-gb.html?aid=304142&label=gen173nr-10CAQoggJCKnNlYXJjaF9ob3RlbCBtb250IHRyZW1ibGFudCBtb250LXRyZW1ibGFudEgzWARoJ4gBAZgBM7gBF8gBDNgBA-gBAfgBAYgCAagCAbgCkOKnygbAAgHSAiQwZWMxMjE4My0zNWIyLTQyODItOGM0Ni1hY2FkYzljZWNiN2LYAgHgAgE&ucfs=1&arphpl=1&group_adults=2&req_adults=2&no_rooms=1&group_children=0&req_children=0&hpos=1&hapos=1&sr_order=popularity&srpvid=290b0ac866a0010a&srepoch=1766453524&from=searchresults,https://www.booking.com/hotel/ca/mont-tremblant.en-gb.html?aid=304142&label=gen173nr-10CAQoggJCKnNlYXJjaF9ob3RlbCBtb250IHRyZW1ibGFudCBtb250LXRyZW1ibGFudEgzWARoJ4gBAZgBM7gBF8gBDNgBA-gBAfgBAYgCAagCAbgCkOKnygbAAgHSAiQwZWMxMjE4My0zNWIyLTQyODItOGM0Ni1hY2FkYzljZWNiN2LYAgHgAgE&ucfs=1&arphpl=1&group_adults=2&req_adults=2&no_rooms=1&group_children=0&req_children=0&hpos=1&hapos=1&sr_order=popularity&srpvid=290b0ac866a0010a&srepoch=1766453524&from=searchresults,booking.com,0,0,,,,,,2025-12-23T01:32:20Z,Data sourced from Booking.com listing
canada-mont-tremblant-hi-mont-tremblant,HI Mont-Tremblant,Mont-Tremblant,Quebec,Canada,Economy,26,46.2167,-74.5823,https://hihostels.ca/en/destinations/quebec/hi-mont-tremblant,https://hihostels.ca/faq,,official,0,0,,,,,,2025-12-23T01:33:01Z,No taxes or fees found on policy page
canada-mont-tremblant-auberge-sauvignon,Auberge Sauvignon,Mont-Tremblant,Quebec,Canada,Upper-Midscale,28,46.1923,-74.5989,https://www.aubergesauvignon.com/,https://www.booking.com/hotel/ca/auberge-sauvignon.en-gb.html?aid=304142&label=gen173nr-10CAQoggJCJ3NlYXJjaF9hdWJlcmdlIHNhdXZpZ25vbiBtb250LXRyZW1ibGFudEgzWARoJ4gBAZgBM7gBF8gBDNgBA-gBAfgBAYgCAagCAbgCiOSnygbAAgHSAiQyM2Y2NzhjNS1kNjc1LTQyZTMtYmMxYS0yZmNlZDQ1ZDA5ZmHYAgHgAgE&ucfs=1&arphpl=1&group_adults=2&req_adults=2&no_rooms=1&group_children=0&req_children=0&hpos=1&hapos=1&sr_order=popularity&srpvid=67c40b44b4c905ef&srepoch=1766453772&from=searchresults,https://www.booking.com/hotel/ca/auberge-sauvignon.en-gb.html?aid=304142&label=gen173nr-10CAQoggJCJ3NlYXJjaF9hdWJlcmdlIHNhdXZpZ25vbiBtb250LXRyZW1ibGFudEgzWARoJ4gBAZgBM7gBF8gBDNgBA-gBAfgBAYgCAagCAbgCiOSnygbAAgHSAiQyM2Y2NzhjNS1kNjc1LTQyZTMtYmMxYS0yZmNlZDQ1ZDA5ZmHYAgHgAgE&ucfs=1&arphpl=1&group_adults=2&req_adults=2&no_rooms=1&group_children=0&req_children=0&hpos=1&hapos=1&sr_order=popularity&srpvid=67c40b44b4c905ef&srepoch=1766453772&from=searchresults,booking.com,0,0,,,,,,2025-12-23T01:36:29Z,Data sourced from Booking.com listing
canada-mont-tremblant-la-reserve,La Reserve,Mont-Tremblant,Quebec,Canada,Upper-Midscale,29,46.2045,-74.5934,https://www.lareservetremblant.com/,https://www.booking.com/hotel/ca/gite-la-tremblante.en-gb.html?aid=304142&label=gen173nr-10CAQoggJCIHNlYXJjaF9sYSByZXNlcnZlIG1vbnQtdHJlbWJsYW50SDNYBGgniAEBmAEzuAEXyAEM2AED6AEB-AEBiAIBqAIBuALy5KfKBsACAdICJDIyNDhmMmM0LWIxNjYtNDBlOS1hYWY4LTliZWE3ODlhODgzM9gCAeACAQ&ucfs=1&arphpl=1&group_adults=2&req_adults=2&no_rooms=1&group_children=0&req_children=0&hpos=1&hapos=1&sr_order=popularity&srpvid=00a50b7929620401&srepoch=1766453878&from=searchresults,https://www.booking.com/hotel/ca/gite-la-tremblante.en-gb.html?aid=304142&label=gen173nr-10CAQoggJCIHNlYXJjaF9sYSByZXNlcnZlIG1vbnQtdHJlbWJsYW50SDNYBGgniAEBmAEzuAEXyAEM2AED6AEB-AEBiAIBqAIBuALy5KfKBsACAdICJDIyNDhmMmM0LWIxNjYtNDBlOS1hYWY4LTliZWE3ODlhODgzM9gCAeACAQ&ucfs=1&arphpl=1&group_adults=2&req_adults=2&no_rooms=1&group_children=0&req_children=0&hpos=1&hapos=1&sr_order=popularity&srpvid=00a50b7929620401&srepoch=1766453878&from=searchresults,booking.com,0,0,,,,,,2025-12-23T01:38:15Z,Data sourced from Booking.com listing
canada-revelstoke-sutton-place-hotel-revelstoke,Sutton Place Hotel Revelstoke,Revelstoke,British Columbia,Canada,Luxury,1,50.9612,-118.1923,https://www.suttonplace.com/revelstoke,https://www.suttonplace.com/,,official,0,0,,,,,,2025-12-23T00:18:40Z,No taxes or fees found on policy page
canada-revelstoke-nelsen-lodge,Nelsen Lodge,Revelstoke,British Columbia,Canada,Upper-Midscale,2,50.9989,-118.1634,https://www.nelsenlodge.com/,https://www.booking.com/hotel/ca/revelstoke-lodge.en-gb.html?aid=304142&label=gen173nr-10CAQoggJCHnNlYXJjaF9uZWxzZW4gbG9kZ2UgcmV2ZWxzdG9rZUgzWARoJ4gBAZgBM7gBF8gBDNgBA-gBAfgBAYgCAagCAbgCtsCnygbAAgHSAiQ5NWFiZmZjMC05Mzc5LTQxMTMtYjUzMC05YTFlZDI4ZDBlMjfYAgHgAgE&ucfs=1&arphpl=1&group_adults=2&req_adults=2&no_rooms=1&group_children=0&req_children=0&hpos=1&hapos=1&sr_order=popularity&srpvid=e9e0025b422200d8&srepoch=1766449210&from=searchresults,https://www.booking.com/hotel/ca/revelstoke-lodge.en-gb.html?aid=304142&label=gen173nr-10CAQoggJCHnNlYXJjaF9uZWxzZW4gbG9kZ2UgcmV2ZWxzdG9rZUgzWARoJ4gBAZgBM7gBF8gBDNgBA-gBAfgBAYgCAagCAbgCtsCnygbAAgHSAiQ5NWFiZmZjMC05Mzc5LTQxMTMtYjUzMC05YTFlZDI4ZDBlMjfYAgHgAgE&ucfs=1&arphpl=1&group_adults=2&req_adults=2&no_rooms=1&group_children=0&req_children=0&hpos=1&hapos=1&sr_order=popularity&srpvid=e9e0025b422200d8&srepoch=1766449210&from=searchresults,booking.com,0,0,,,,,,2025-12-23T00:20:27Z,Data sourced from Booking.com listing
canada-revelstoke-hillcrest-hotel,Hillcrest Hotel,Revelstoke,British Columbia,Canada,Upper-Midscale,3,50.9978,-118.1956,https://www.hillcresthotelrevelstoke.com/,https://www.booking.com/hotel/ca/revelstoke-2100-oak-drive.en-gb.html?aid=304142&label=mkt123sc-1d9edfd8-1f7a-40f6-ac86-7bee03600812&ucfs=1&arphpl=1&group_adults=2&req_adults=2&no_rooms=1&group_children=0&req_children=0&hpos=1&hapos=1&sr_order=popularity&srpvid=f44582917bfc5dd0234ead59e239b375&srepoch=1766449307&from_sustainable_property_sr=1&from=searchresults,https://www.booking.com/hotel/ca/revelstoke-2100-oak-drive.en-gb.html?aid=304142&label=mkt123sc-1d9edfd8-1f7a-40f6-ac86-7bee03600812&ucfs=1&arphpl=1&group_adults=2&req_adults=2&no_rooms=1&group_children=0&req_children=0&hpos=1&hapos=1&sr_order=popularity&srpvid=f44582917bfc5dd0234ead59e239b375&srepoch=1766449307&from_sustainable_property_sr=1&from=searchresults,booking.com,0,0,,,,,,2025-12-23T00:22:06Z,Data sourced from Booking.com listing
canada-revelstoke-best-western-plus-revelstoke,Best Western Plus Revelstoke,Revelstoke,British Columbia,Canada,Midscale,4,51.0012,-118.1867,https://www.bestwestern.com/en_US/book/hotels-in-revelstoke/best-western-plus-revelstoke/propertyCode.61086.html,https://www.booking.com/hotel/ca/best-western-plus-revelstoke.en-gb.html?aid=304142&label=gen173nr-10CAQoggJCLnNlYXJjaF9iZXN0IHdlc3Rlcm4gcGx1cyByZXZlbHN0b2tlIHJldmVsc3Rva2VIM1gEaCeIAQGYATO4ARfIAQzYAQPoAQH4AQGIAgGoAgG4Av_Bp8oGwAIB0gIkZDY0MzM1OGQtZjkxZS00OWRiLTk4OTMtNjEwNWY2YjgzNmRk2AIB4AIB&ucfs=1&arphpl=1&group_adults=2&req_adults=2&no_rooms=1&group_children=0&req_children=0&hpos=1&hapos=1&sr_order=popularity&srpvid=539602bf07a700a0&srepoch=1766449410&from=searchresults,https://www.booking.com/hotel/ca/best-western-plus-revelstoke.en-gb.html?aid=304142&label=gen173nr-10CAQoggJCLnNlYXJjaF9iZXN0IHdlc3Rlcm4gcGx1cyByZXZlbHN0b2tlIHJldmVsc3Rva2VIM1gEaCeIAQGYATO4ARfIAQzYAQPoAQH4AQGIAgGoAgG4Av_Bp8oGwAIB0gIkZDY0MzM1OGQtZjkxZS00OWRiLTk4OTMtNjEwNWY2YjgzNmRk2AIB4AIB&ucfs=1&arphpl=1&group_adults=2&req_adults=2&no_rooms=1&group_children=0&req_children=0&hpos=1&hapos=1&sr_order=popularity&srpvid=539602bf07a700a0&srepoch=1766449410&from=searchresults,booking.com,0,0,,,,,,2025-12-23T00:23:47Z,Data sourced from Booking.com listing
canada-revelstoke-regent-hotel,Regent Hotel,Revelstoke,British Columbia,Canada,Midscale,5,50.9989,-118.1978,https://www.regenthotelrevelstoke.com/,https://www.booking.com/hotel/ca/revelstoke-box-582-112-east-first-street.en-gb.html?aid=304142&label=mkt123sc-a05014db-7724-4a52-8094-004ee7856a2a&ucfs=1&arphpl=1&group_adults=2&req_adults=2&no_rooms=1&group_children=0&req_children=0&hpos=1&hapos=1&sr_order=popularity&srpvid=7c05bef4df4105a26ed38f9b09ec6370&srepoch=1766449512&from=searchresults,https://www.booking.com/hotel/ca/revelstoke-box-582-112-east-first-street.en-gb.html?aid=304142&label=mkt123sc-a05014db-7724-4a52-8094-004ee7856a2a&ucfs=1&arphpl=1&group_adults=2&req_adults=2&no_rooms=1&group_children=0&req_children=0&hpos=1&hapos=1&sr_order=popularity&srpvid=7c05bef4df4105a26ed38f9b09ec6370&srepoch=1766449512&from=searchresults,booking.com,0,0,,,,,,2025-12-23T00:25:32Z,Data sourced from Booking.com listing
canada-revelstoke-coast-hillcrest-hotel,Coast Hillcrest Hotel,Revelstoke,British Columbia,Canada,Midscale,6,50.9967,-118.1945,https://www.coasthotels.com/hotels/british-columbia/revelstoke/coast-hillcrest-hotel/,https://www.coasthotels.com,,official,0,0,,,,,,2025-12-23T00:25:37Z,No taxes or fees found on policy page
canada-revelstoke-days-inn-by-wyndham-revelstoke,Days Inn by Wyndham Revelstoke,Revelstoke,British Columbia,Canada,Economy,7,51.0034,-118.1834,https://www.wyndhamhotels.com/days-inn/revelstoke-british-columbia/days-inn-revelstoke/overview,https://www.wyndhamhotels.com/hotel-deals/best-rate-guarantee,,official,0,0,,,,,,2025-12-23T00:26:52Z,No taxes or fees found on policy page
canada-revelstoke-sandman-hotel-revelstoke,Sandman Hotel Revelstoke,Revelstoke,British Columbia,Canada,Midscale,8,51.0045,-118.1812,https://www.sandmanhotels.com/hotels/british-columbia/revelstoke,https://www.sandmanhotels.com/about-us,,official,0,0,,,,,,2025-12-23T00:27:40Z,No taxes or fees found on policy page
canada-revelstoke-swiss-chalet-motel,Swiss Chalet Motel,Revelstoke,British Columbia,Canada,Midscale,9,50.9956,-118.1923,https://www.swisschaletmotel.com/,https://swisschaletmotel.com/amenities/,,official,0,0,,,,,,2025-12-23T00:28:03Z,No taxes or fees found on policy page
canada-revelstoke-powder-springs-inn,Powder Springs Inn,Revelstoke,British Columbia,Canada,Upper-Midscale,10,50.9934,-118.1901,https://www.powderspringsinn.com/,https://www.booking.com/hotel/us/the-modern-recharging-station.en-gb.html?aid=304142&label=gen173nr-10CAQoggJCJHNlYXJjaF9wb3dkZXIgc3ByaW5ncyBpbm4gcmV2ZWxzdG9rZUgzWARoJ4gBAZgBM7gBF8gBDNgBA-gBAfgBAYgCAagCAbgC58SnygbAAgHSAiRlMzRkZTI1OS1jM2E2LTQ0NjQtOTM1NS1hZjljMWVhYzQwYTXYAgHgAgE&ucfs=1&arphpl=1&group_adults=2&req_adults=2&no_rooms=1&group_children=0&req_children=0&hpos=16&hapos=16&sr_order=popularity&srpvid=efb903736d89025a&srepoch=1766449771&from=searchresults,https://www.booking.com/hotel/us/the-modern-recharging-station.en-gb.html?aid=304142&label=gen173nr-10CAQoggJCJHNlYXJjaF9wb3dkZXIgc3ByaW5ncyBpbm4gcmV2ZWxzdG9rZUgzWARoJ4gBAZgBM7gBF8gBDNgBA-gBAfgBAYgCAagCAbgC58SnygbAAgHSAiRlMzRkZTI1OS1jM2E2LTQ0NjQtOTM1NS1hZjljMWVhYzQwYTXYAgHgAgE&ucfs=1&arphpl=1&group_adults=2&req_adults=2&no_rooms=1&group_children=0&req_children=0&hpos=16&hapos=16&sr_order=popularity&srpvid=efb903736d89025a&srepoch=1766449771&from=searchresults,booking.com,0,0,,,,,,2025-12-23T00:29:47Z,Data sourced from Booking.com listing
canada-revelstoke-monashee-lodge,Monashee Lodge,Revelstoke,British Columbia,Canada,Midscale,11,50.9912,-118.1889,https://www.monasheelodge.com/,https://www.monasheelodge.com/policies/,,official,0,0,,,,,,2025-12-23T00:30:43Z,No taxes or fees found on policy page
canada-revelstoke-boulder-mountain-resort,Boulder Mountain Resort,Revelstoke,British Columbia,Canada,Upper-Midscale,12,50.9645,-118.1567,https://www.bouldermountainresort.com/,https://www.mydomaincontact.com/?domain_name=bouldermountainresort.com,,official,0,0,,,,,,2025-12-23T00:31:56Z,No taxes or fees found on policy page
canada-revelstoke-explorers-society-hotel,Explorers Society Hotel,Revelstoke,British Columbia,Canada,Upper-Midscale,13,50.9978,-118.1989,https://www.explorerssocietyhotel.com/,https://www.booking.com/hotel/fr/explorersdisneyland.en-gb.html?aid=304142&label=gen173nr-10CAQoggJCKXNlYXJjaF9leHBsb3JlcnMgc29jaWV0eSBob3RlbCByZXZlbHN0b2tlSDNYBGgniAEBmAEzuAEXyAEM2AED6AEB-AEBiAIBqAIBuALPxqfKBsACAdICJDNlOWZiYmMzLTBmYzAtNDM1Zi1hZWYxLTdkZmMwOThjZjAzONgCAeACAQ&ucfs=1&arphpl=1&group_adults=2&req_adults=2&no_rooms=1&group_children=0&req_children=0&hpos=1&hapos=1&sr_order=popularity&srpvid=7ac103e7488c08aa&srepoch=1766450003&from=searchresults,https://www.booking.com/hotel/fr/explorersdisneyland.en-gb.html?aid=304142&label=gen173nr-10CAQoggJCKXNlYXJjaF9leHBsb3JlcnMgc29jaWV0eSBob3RlbCByZXZlbHN0b2tlSDNYBGgniAEBmAEzuAEXyAEM2AED6AEB-AEBiAIBqAIBuALPxqfKBsACAdICJDNlOWZiYmMzLTBmYzAtNDM1Zi1hZWYxLTdkZmMwOThjZjAzONgCAeACAQ&ucfs=1&arphpl=1&group_adults=2&req_adults=2&no_rooms=1&group_children=0&req_children=0&hpos=1&hapos=1&sr_order=popularity&srpvid=7ac103e7488c08aa&srepoch=1766450003&from=searchresults,booking.com,0,0,,,,,,2025-12-23T00:33:39Z,Data sourced from Booking.com listing
canada-revelstoke-the-cube-hotel,The Cube Hotel,Revelstoke,British Columbia,Canada,Midscale,14,50.9967,-118.1967,https://www.thecubehotel.ca/,https://www.booking.com/hotel/it/the-cube-fidenza.en-gb.html?aid=304142&label=gen173nr-10CAQoggJCIHNlYXJjaF90aGUgY3ViZSBob3RlbCByZXZlbHN0b2tlSDNYBGgniAEBmAEzuAEXyAEM2AED6AEB-AEBiAIBqAIBuAK1x6fKBsACAdICJDk3MDdiMzBhLTdhMTktNGE1NS1hZmNlLWE1MjJhNjdkMzg1MdgCAeACAQ&ucfs=1&arphpl=1&group_adults=2&req_adults=2&no_rooms=1&group_children=0&req_children=0&hpos=1&hapos=1&sr_order=popularity&srpvid=8a25041aa9490125&srepoch=1766450105&from=searchresults,https://www.booking.com/hotel/it/the-cube-fidenza.en-gb.html?aid=304142&label=gen173nr-10CAQoggJCIHNlYXJjaF90aGUgY3ViZSBob3RlbCByZXZlbHN0b2tlSDNYBGgniAEBmAEzuAEXyAEM2AED6AEB-AEBiAIBqAIBuAK1x6fKBsACAdICJDk3MDdiMzBhLTdhMTktNGE1NS1hZmNlLWE1MjJhNjdkMzg1MdgCAeACAQ&ucfs=1&arphpl=1&group_adults=2&req_adults=2&no_rooms=1&group_children=0&req_children=0&hpos=1&hapos=1&sr_order=popularity&srpvid=8a25041aa9490125&srepoch=1766450105&from=searchresults,booking.com,0,0,,,,,,2025-12-23T00:35:21Z,Data sourced from Booking.com listing
canada-revelstoke-basecamp-resorts-revelstoke,Basecamp Resorts Revelstoke,Revelstoke,British Columbia,Canada,Upper-Midscale,15,50.9989,-118.1956,https://basecampresorts.com/revelstoke/,https://basecampresorts.com/about/,,official,0,0,,,,,,2025-12-23T00:36:17Z,No taxes or fees found on policy page
canada-revelstoke-stoke-hotel,Stoke Hotel,Revelstoke,British Columbia,Canada,Upper-Midscale,16,50.9623,-118.1912,https://www.stokehotel.com/,https://www.booking.com/hotel/ca/revelstoke-lodge.en-gb.html?aid=304142&label=gen173nr-10CAQoggJCHXNlYXJjaF9zdG9rZSBob3RlbCByZXZlbHN0b2tlSDNYBGgniAEBmAEzuAEXyAEM2AED6AEB-AEBiAIBqAIBuALkyKfKBsACAdICJDdjYzZlMDQ1LTBlMDQtNDNiZi05YjAyLTE1NDUxYzhkZWJlZtgCAeACAQ&ucfs=1&arphpl=1&group_adults=2&req_adults=2&no_rooms=1&group_children=0&req_children=0&hpos=11&hapos=11&sr_order=popularity&srpvid=b705047269620014&srepoch=1766450280&from=searchresults,https://www.booking.com/hotel/ca/revelstoke-lodge.en-gb.html?aid=304142&label=gen173nr-10CAQoggJCHXNlYXJjaF9zdG9rZSBob3RlbCByZXZlbHN0b2tlSDNYBGgniAEBmAEzuAEXyAEM2AED6AEB-AEBiAIBqAIBuALkyKfKBsACAdICJDdjYzZlMDQ1LTBlMDQtNDNiZi05YjAyLTE1NDUxYzhkZWJlZtgCAeACAQ&ucfs=1&arphpl=1&group_adults=2&req_adults=2&no_rooms=1&group_children=0&req_children=0&hpos=11&hapos=11&sr_order=popularity&srpvid=b705047269620014&srepoch=1766450280&from=searchresults,booking.com,0,0,,,,,,2025-12-23T00:38:15Z,Data sourced from Booking.com listing
canada-revelstoke-glacier-house-resort,Glacier House Resort,Revelstoke,British Columbia,Canada,Upper-Midscale,17,51.2623,-117.5189,https://www.glacierhouse.com/,https://glacierhouse.com/amenities/,,official,0,0,,,,,,2025-12-23T00:38:36Z,No taxes or fees found on policy page
canada-revelstoke-gateway-inn-revelstoke,Gateway Inn Revelstoke,Revelstoke,British Columbia,Canada,Economy,18,51.0067,-118.1789,https://www.gatewayinnrevelstoke.com/,https://www.booking.com/hotel/us/red-bluff-250-south-main-street.en-gb.html?aid=304142&label=mkt123sc-adb13351-722a-4456-a766-167229dff194&ucfs=1&arphpl=1&group_adults=2&req_adults=2&no_rooms=1&group_children=0&req_children=0&hpos=1&hapos=1&sr_order=popularity&srpvid=5a4be9c441c1872cca3c3ba3e73c10d9&srepoch=1766450396&from=searchresults,https://www.booking.com/hotel/us/red-bluff-250-south-main-street.en-gb.html?aid=304142&label=mkt123sc-adb13351-722a-4456-a766-167229dff194&ucfs=1&arphpl=1&group_adults=2&req_adults=2&no_rooms=1&group_children=0&req_children=0&hpos=1&hapos=1&sr_order=popularity&srpvid=5a4be9c441c1872cca3c3ba3e73c10d9&srepoch=1766450396&from=searchresults,booking.com,0,0,,,,,,2025-12-23T00:40:14Z,Data sourced from Booking.com listing
canada-revelstoke-samesun-revelstoke,Samesun Revelstoke,Revelstoke,British Columbia,Canada,Economy,19,50.9978,-118.1978,https://www.samesun.com/revelstoke/,https://samesun.com/about-samesun/,,official,0,0,,,,,,2025-12-23T00:41:04Z,No taxes or fees found on policy page
canada-revelstoke-mulvehill-creek-wilderness-inn,Mulvehill Creek Wilderness Inn,Revelstoke,British Columbia,Canada,Upper-Midscale,20,50.8912,-118.1234,https://www.mulvehillcreek.com/,https://www.villagedentaldtc.com/botox-in-dentistry/,,official,0,0,,,,,,2025-12-20T05:46:24Z,No taxes or fees found on policy page
canada-revelstoke-canyon-motor-inn,Canyon Motor Inn,Revelstoke,British Columbia,Canada,Economy,21,51.0078,-118.1767,https://www.canyonmotorinn.com/,https://www.booking.com/hotel/us/canyon-inn.en-gb.html?aid=304142&label=mkt123sc-0e042f19-e26a-4529-a932-1f657c141e12&ucfs=1&arphpl=1&group_adults=2&req_adults=2&no_rooms=1&group_children=0&req_children=0&hpos=1&hapos=1&sr_order=popularity&srpvid=5133aa7694f444b13a043dffa56b1017&srepoch=1766450641&from=searchresults,https://www.booking.com/hotel/us/canyon-inn.en-gb.html?aid=304142&label=mkt123sc-0e042f19-e26a-4529-a932-1f657c141e12&ucfs=1&arphpl=1&group_adults=2&req_adults=2&no_rooms=1&group_children=0&req_children=0&hpos=1&hapos=1&sr_order=popularity&srpvid=5133aa7694f444b13a043dffa56b1017&srepoch=1766450641&from=searchresults,booking.com,0,0,,,,,,2025-12-23T00:44:18Z,Data sourced from Booking.com listing
canada-revelstoke-peaks-lodge,Peaks Lodge,Revelstoke,British Columbia,Canada,Upper-Midscale,22,50.9612,-118.1912,https://www.peakslodge.com/,https://www.peakslodge.ca/,,official,0,0,,,,,,2025-12-23T00:44:19Z,No taxes or fees found on policy page
canada-revelstoke-snowcat-lodge,Snowcat Lodge,Revelstoke,British Columbia,Canada,Upper-Midscale,23,50.9634,-118.1934,https://www.snowcatlodge.com/,https://www.booking.com/hotel/ca/swiss-chalet-motel-revelstoke.en-gb.html?aid=304142&label=mkt123sc-4a76c2fc-3d8a-4e41-8d94-0578a989a89e&ucfs=1&arphpl=1&group_adults=2&req_adults=2&no_rooms=1&group_children=0&req_children=0&hpos=12&hapos=12&sr_order=popularity&srpvid=df05e87863cdad1f09b76d6a67bcde1b&srepoch=1766450744&from=searchresults,https://www.booking.com/hotel/ca/swiss-chalet-motel-revelstoke.en-gb.html?aid=304142&label=mkt123sc-4a76c2fc-3d8a-4e41-8d94-0578a989a89e&ucfs=1&arphpl=1&group_adults=2&req_adults=2&no_rooms=1&group_children=0&req_children=0&hpos=12&hapos=12&sr_order=popularity&srpvid=df05e87863cdad1f09b76d6a67bcde1b&srepoch=1766450744&from=searchresults,booking.com,0,0,,,,,,2025-12-23T00:46:04Z,Data sourced from Booking.com listing
canada-revelstoke-blanket-creek-cabins,Blanket Creek Cabins,Revelstoke,British Columbia,Canada,Upper-Midscale,25,50.8234,-118.0456,https://www.blanketcreekcabins.com/,https://www.booking.com/hotel/fi/crow-creek-cabins.en-gb.html?aid=304142&label=mkt123sc-edd5fe34-fc7b-4a9c-aacd-3c2bcc8b5af3&ucfs=1&arphpl=1&group_adults=2&req_adults=2&no_rooms=1&group_children=0&req_children=0&hpos=1&hapos=1&sr_order=popularity&srpvid=314cf88f50fed863bf612fbd0f47ddc1&srepoch=1766450923&from=searchresults,https://www.booking.com/hotel/fi/crow-creek-cabins.en-gb.html?aid=304142&label=mkt123sc-edd5fe34-fc7b-4a9c-aacd-3c2bcc8b5af3&ucfs=1&arphpl=1&group_adults=2&req_adults=2&no_rooms=1&group_children=0&req_children=0&hpos=1&hapos=1&sr_order=popularity&srpvid=314cf88f50fed863bf612fbd0f47ddc1&srepoch=1766450923&from=searchresults,booking.com,0,0,,,,,,2025-12-23T00:49:03Z,Data sourced from Booking.com listing
canada-revelstoke-hi-revelstoke,HI Revelstoke,Revelstoke,British Columbia,Canada,Economy,26,50.9989,-118.1989,https://hihostels.ca/en/destinations/british-columbia/hi-revelstoke,https://hihostels.ca/faq,,official,0,0,,,,,,2025-12-23T00:49:42Z,No taxes or fees found on policy page
canada-revelstoke-courthouse-inn,Courthouse Inn,Revelstoke,British Columbia,Canada,Economy,27,50.9978,-118.1978,https://www.courthouseinn.ca/,https://www.booking.com/hotel/ca/courthouse-inn-revelstoke.en-gb.html?aid=304142&label=gen173nr-10CAQoggJCIHNlYXJjaF9jb3VydGhvdXNlIGlubiByZXZlbHN0b2tlSDNYBGgniAEBmAEzuAEXyAEM2AED6AEB-AEBiAIBqAIBuAL4zqfKBsACAdICJDU0MjNjNTE1LWZhOGEtNDI4MS1hOTU1LWE3ZThlYzQwMDM5ZdgCAeACAQ&ucfs=1&arphpl=1&group_adults=2&req_adults=2&no_rooms=1&group_children=0&req_children=0&hpos=1&hapos=1&sr_order=popularity&srpvid=3a5905fc666c017f&srepoch=1766451067&from=searchresults,https://www.booking.com/hotel/ca/courthouse-inn-revelstoke.en-gb.html?aid=304142&label=gen173nr-10CAQoggJCIHNlYXJjaF9jb3VydGhvdXNlIGlubiByZXZlbHN0b2tlSDNYBGgniAEBmAEzuAEXyAEM2AED6AEB-AEBiAIBqAIBuAL4zqfKBsACAdICJDU0MjNjNTE1LWZhOGEtNDI4MS1hOTU1LWE3ZThlYzQwMDM5ZdgCAeACAQ&ucfs=1&arphpl=1&group_adults=2&req_adults=2&no_rooms=1&group_children=0&req_children=0&hpos=1&hapos=1&sr_order=popularity&srpvid=3a5905fc666c017f&srepoch=1766451067&from=searchresults,booking.com,0,0,,,,,,2025-12-23T00:51:24Z,Data sourced from Booking.com listing
canada-revelstoke-112-guest-house,112 Guest House,Revelstoke,British Columbia,Canada,Economy,28,50.9967,-118.1967,https://www.112guesthouse.com/,https://www.booking.com/hotel/za/305-guest-house.en-gb.html?aid=304142&label=gen173nr-10CAQoggJCIXNlYXJjaF8xMTIgZ3Vlc3QgaG91c2UgcmV2ZWxzdG9rZUgzWARoJ4gBAZgBM7gBF8gBDNgBA-gBAfgBAYgCAagCAbgC3c-nygbAAgHSAiRiMmFjMjc4OS1iZTMwLTQ3YmMtYmE3NS1lMDcyNmVlMGRhYmPYAgHgAgE&ucfs=1&arphpl=1&group_adults=2&req_adults=2&no_rooms=1&group_children=0&req_children=0&hpos=1&hapos=1&sr_order=popularity&srpvid=9012062e15210425&srepoch=1766451169&from=searchresults,https://www.booking.com/hotel/za/305-guest-house.en-gb.html?aid=304142&label=gen173nr-10CAQoggJCIXNlYXJjaF8xMTIgZ3Vlc3QgaG91c2UgcmV2ZWxzdG9rZUgzWARoJ4gBAZgBM7gBF8gBDNgBA-gBAfgBAYgCAagCAbgC3c-nygbAAgHSAiRiMmFjMjc4OS1iZTMwLTQ3YmMtYmE3NS1lMDcyNmVlMGRhYmPYAgHgAgE&ucfs=1&arphpl=1&group_adults=2&req_adults=2&no_rooms=1&group_children=0&req_children=0&hpos=1&hapos=1&sr_order=popularity&srpvid=9012062e15210425&srepoch=1766451169&from=searchresults,booking.com,0,0,,,,,,2025-12-23T00:53:05Z,Data sourced from Booking.com listing
canada-revelstoke-revelstoke-mountain-lodge,Revelstoke Mountain Lodge,Revelstoke,British Columbia,Canada,Midscale,30,50.9634,-118.1912,https://www.revelstokemountainlodge.com/,https://www.booking.com/hotel/ca/revelstoke-lodge.en-gb.html?aid=304142&label=gen173nr-10CAQoggJCK3NlYXJjaF9yZXZlbHN0b2tlIG1vdW50YWluIGxvZGdlIHJldmVsc3Rva2VIM1gEaCeIAQGYATO4ARfIAQzYAQPoAQH4AQGIAgGoAgG4ApvRp8oGwAIB0gIkMDhkNzE1ZTMtZmFkOS00ZmZhLTlkOTQtZjRhMTI2ODJiMTI52AIB4AIB&ucfs=1&arphpl=1&group_adults=2&req_adults=2&no_rooms=1&group_children=0&req_children=0&hpos=1&hapos=1&sr_order=popularity&srpvid=accc068d27b80045&srepoch=1766451358&from=searchresults,https://www.booking.com/hotel/ca/revelstoke-lodge.en-gb.html?aid=304142&label=gen173nr-10CAQoggJCK3NlYXJjaF9yZXZlbHN0b2tlIG1vdW50YWluIGxvZGdlIHJldmVsc3Rva2VIM1gEaCeIAQGYATO4ARfIAQzYAQPoAQH4AQGIAgGoAgG4ApvRp8oGwAIB0gIkMDhkNzE1ZTMtZmFkOS00ZmZhLTlkOTQtZjRhMTI2ODJiMTI52AIB4AIB&ucfs=1&arphpl=1&group_adults=2&req_adults=2&no_rooms=1&group_children=0&req_children=0&hpos=1&hapos=1&sr_order=popularity&srpvid=accc068d27b80045&srepoch=1766451358&from=searchresults,booking.com,0,0,,,,,,2025-12-23T00:56:15Z,Data sourced from Booking.com listing
canada-whistler-fairmont-chateau-whistler,Fairmont Chateau Whistler,Whistler,British Columbia,Canada,Luxury,1,50.0833,-122.9574,https://www.fairmont.com/whistler/,https://permalink.fairmont.com/booking/select?dateIn=2025-12-22&lengthOfStayValue=1&client=aem.fairmont&product%5B0%5D%5BadultNumber%5D=2&languageCode=en&hotelCodes=A591,,official,0,1,,,,,,2025-12-22T23:51:46Z,
canada-whistler-four-seasons-resort-whistler,Four Seasons Resort Whistler,Whistler,British Columbia,Canada,Luxury,2,50.1134,-122.9523,https://www.fourseasons.com/whistler/,https://reservations.fourseasons.com/en?cawConfig.customBooker=true&generalReservationForm.locationId=YWS199,,official,0,0,,,,,,2025-12-22T23:53:01Z,No taxes or fees found on policy page
canada-whistler-nita-lake-lodge,Nita Lake Lodge,Whistler,British Columbia,Canada,Luxury,3,50.0712,-122.9489,https://www.nitalakelodge.com/,https://www.nitalakelodge.com/faqs,,official,0,0,,,,,,2025-12-22T23:53:46Z,No taxes or fees found on policy page
canada-whistler-the-westin-resort-spa-whistler,The Westin Resort & Spa Whistler,Whistler,British Columbia,Canada,Upscale,4,50.1156,-122.9534,https://www.marriott.com/hotels/travel/ysewi-the-westin-resort-and-spa-whistler/,https://www.booking.com/hotel/ca/westin-resort-and-spa.en-gb.html?aid=304142&label=gen173nr-10CAQoggJCMHNlYXJjaF90aGUgd2VzdGluIHJlc29ydCAmIHNwYSB3aGlzdGxlciB3aGlzdGxlckgzWARoJ4gBAZgBM7gBF8gBDNgBA-gBAfgBAYgCAagCAbgC37SnygbAAgHSAiQ3NTMwNWRjNC1lYThhLTQ1MWUtYTNmMy01N2VmNmQ4NTUxMmLYAgHgAgE&ucfs=1&arphpl=1&group_adults=2&req_adults=2&no_rooms=1&group_children=0&req_children=0&hpos=1&hapos=1&sr_order=popularity&srpvid=2ffba82f3caa036b&srepoch=1766447713&from=searchresults,https://www.booking.com/hotel/ca/westin-resort-and-spa.en-gb.html?aid=304142&label=gen173nr-10CAQoggJCMHNlYXJjaF90aGUgd2VzdGluIHJlc29ydCAmIHNwYSB3aGlzdGxlciB3aGlzdGxlckgzWARoJ4gBAZgBM7gBF8gBDNgBA-gBAfgBAYgCAagCAbgC37SnygbAAgHSAiQ3NTMwNWRjNC1lYThhLTQ1MWUtYTNmMy01N2VmNmQ4NTUxMmLYAgHgAgE&ucfs=1&arphpl=1&group_adults=2&req_adults=2&no_rooms=1&group_children=0&req_children=0&hpos=1&hapos=1&sr_order=popularity&srpvid=2ffba82f3caa036b&srepoch=1766447713&from=searchresults,booking.com,0,0,,,,,,2025-12-22T23:55:32Z,Data sourced from Booking.com listing
canada-whistler-pan-pacific-whistler-village-centre,Pan Pacific Whistler Village Centre,Whistler,British Columbia,Canada,Upscale,5,50.1145,-122.9512,https://www.panpacific.com/whistler-village-centre/,http://www.panpacific.com/en/booking/e-direct/AM-group.html?destination=prsyp&utm_source=corporate&utm_medium=edirect&utm_campaign=AMGR0219,,official,0,0,,,,,,2025-12-22T23:55:54Z,No taxes or fees found on policy page
canada-whistler-pan-pacific-whistler-mountainside,Pan Pacific Whistler Mountainside,Whistler,British Columbia,Canada,Upscale,6,50.1123,-122.9545,https://www.panpacific.com/whistler-mountainside/,http://www.panpacific.com/en/booking/e-direct/AM-group.html?destination=prsyp&utm_source=corporate&utm_medium=edirect&utm_campaign=AMGR0219,,official,0,0,,,,,,2025-12-22T23:56:17Z,No taxes or fees found on policy page
canada-whistler-hilton-whistler-resort-spa,Hilton Whistler Resort & Spa,Whistler,British Columbia,Canada,Upscale,7,50.1134,-122.9556,https://www.hilton.com/en/hotels/ywshrhh-hilton-whistler-resort-and-spa/,https://www.booking.com/hotel/ca/hilton-whistler-resort-spa.en-gb.html?aid=304142&label=gen173nr-10CAQoggJCLHNlYXJjaF9oaWx0b24gd2hpc3RsZXIgcmVzb3J0ICYgc3BhIHdoaXN0bGVySDNYBGgniAEBmAEzuAEXyAEM2AED6AEB-AEBiAIBqAIBuAKxtafKBsACAdICJDBmOGZiYWNhLWRmMzMtNGUxOS1hODQ2LTc3MTRiYjIzODBjNNgCAeACAQ&ucfs=1&arphpl=1&group_adults=2&req_adults=2&no_rooms=1&group_children=0&req_children=0&hpos=1&hapos=1&sr_order=popularity&srpvid=1fe0a8589246021d&srepoch=1766447796&from_sustainable_property_sr=1&from=searchresults,https://www.booking.com/hotel/ca/hilton-whistler-resort-spa.en-gb.html?aid=304142&label=gen173nr-10CAQoggJCLHNlYXJjaF9oaWx0b24gd2hpc3RsZXIgcmVzb3J0ICYgc3BhIHdoaXN0bGVySDNYBGgniAEBmAEzuAEXyAEM2AED6AEB-AEBiAIBqAIBuAKxtafKBsACAdICJDBmOGZiYWNhLWRmMzMtNGUxOS1hODQ2LTc3MTRiYjIzODBjNNgCAeACAQ&ucfs=1&arphpl=1&group_adults=2&req_adults=2&no_rooms=1&group_children=0&req_children=0&hpos=1&hapos=1&sr_order=popularity&srpvid=1fe0a8589246021d&srepoch=1766447796&from_sustainable_property_sr=1&from=searchresults,booking.com,0,0,,,,,,2025-12-22T23:56:54Z,Data sourced from Booking.com listing
canada-whistler-delta-hotels-by-marriott-whistler-village-suites,Delta Hotels by Marriott Whistler Village Suites,Whistler,British Columbia,Canada,Upscale,8,50.1145,-122.9523,https://www.marriott.com/hotels/travel/ysewv-delta-hotels-whistler-village-suites/,https://www.booking.com/hotel/ca/d-w-village-suites-whistler-british-columbia.en-gb.html?aid=304142&label=gen173nr-10CAQoggJCQHNlYXJjaF9kZWx0YSBob3RlbHMgYnkgbWFycmlvdHQgd2hpc3RsZXIgdmlsbGFnZSBzdWl0ZXMgd2hpc3RsZXJIM1gEaCeIAQGYATO4ARfIAQzYAQPoAQH4AQGIAgGoAgG4Api2p8oGwAIB0gIkZGMwMWFkZGEtYjNmMC00MDBlLThiOTgtMTNiYTZlZmIyY2Rh2AIB4AIB&ucfs=1&arphpl=1&group_adults=2&req_adults=2&no_rooms=1&group_children=0&req_children=0&hpos=1&hapos=1&sr_order=popularity&srpvid=42cca88cdf370092&srepoch=1766447900&from_sustainable_property_sr=1&from=searchresults,https://www.booking.com/hotel/ca/d-w-village-suites-whistler-british-columbia.en-gb.html?aid=304142&label=gen173nr-10CAQoggJCQHNlYXJjaF9kZWx0YSBob3RlbHMgYnkgbWFycmlvdHQgd2hpc3RsZXIgdmlsbGFnZSBzdWl0ZXMgd2hpc3RsZXJIM1gEaCeIAQGYATO4ARfIAQzYAQPoAQH4AQGIAgGoAgG4Api2p8oGwAIB0gIkZGMwMWFkZGEtYjNmMC00MDBlLThiOTgtMTNiYTZlZmIyY2Rh2AIB4AIB&ucfs=1&arphpl=1&group_adults=2&req_adults=2&no_rooms=1&group_children=0&req_children=0&hpos=1&hapos=1&sr_order=popularity&srpvid=42cca88cdf370092&srepoch=1766447900&from_sustainable_property_sr=1&from=searchresults,booking.com,0,0,,,,,,2025-12-22T23:58:37Z,Data sourced from Booking.com listing
canada-whistler-crystal-lodge-suites,Crystal Lodge & Suites,Whistler,British Columbia,Canada,Upper-Midscale,9,50.1156,-122.9501,https://www.crystal-lodge.com/,https://www.crystal-lodge.com/wp-content/uploads/2020/05/rates.jpg,,official,0,0,,,,,,2025-12-22T23:58:42Z,No taxes or fees found on policy page
canada-whistler-summit-lodge-boutique-hotel,Summit Lodge Boutique Hotel,Whistler,British Columbia,Canada,Upper-Midscale,10,50.1134,-122.9489,https://www.summitlodge.com/,https://www.booking.com/hotel/ca/summit-lodge-spa.en-gb.html?aid=304142&label=mkt123sc-6ea2d5c1-80b8-4390-b8bf-2f20e82a7d2e&ucfs=1&arphpl=1&group_adults=2&req_adults=2&no_rooms=1&group_children=0&req_children=0&hpos=1&hapos=1&sr_order=popularity&srpvid=026141a7983493d6742733dc68430d08&srepoch=1766448007&from=searchresults,https://www.booking.com/hotel/ca/summit-lodge-spa.en-gb.html?aid=304142&label=mkt123sc-6ea2d5c1-80b8-4390-b8bf-2f20e82a7d2e&ucfs=1&arphpl=1&group_adults=2&req_adults=2&no_rooms=1&group_children=0&req_children=0&hpos=1&hapos=1&sr_order=popularity&srpvid=026141a7983493d6742733dc68430d08&srepoch=1766448007&from=searchresults,booking.com,0,0,,,,,,2025-12-23T00:00:26Z,Data sourced from Booking.com listing
canada-whistler-aava-whistler-hotel,Aava Whistler Hotel,Whistler,British Columbia,Canada,Upper-Midscale,11,50.1145,-122.9478,https://www.aavawhistlerhotel.com/,https://www.paradoxhotels.com/aava-whistler/services,,official,0,0,,,,,,2025-12-23T00:00:47Z,No taxes or fees found on policy page
canada-whistler-whistler-peak-lodge,Whistler Peak Lodge,Whistler,British Columbia,Canada,Upper-Midscale,12,50.1123,-122.9512,https://www.whistlerpeaklodge.com/,https://www.vacasa.ca/vacation-rentals/canada/Whistler-Peak-Lodge-BC?partnerid=1707,,official,0,0,,,,,,2025-12-23T00:00:49Z,No taxes or fees found on policy page
canada-whistler-the-listel-hotel-whistler,The Listel Hotel Whistler,Whistler,British Columbia,Canada,Upper-Midscale,13,50.1156,-122.9467,https://www.listelhotel.com/whistler/,https://www.coasthotels.com/listel-whistler-a-coast-hotel,,official,0,0,,,,,,2025-12-23T00:00:52Z,No taxes or fees found on policy page
canada-whistler-adara-hotel,Adara Hotel,Whistler,British Columbia,Canada,Upper-Midscale,14,50.1134,-122.9456,https://www.adarahotel.com/,https://www.adarahotel.com/amenities,,official,0,0,,,,,,2025-12-23T00:01:15Z,No taxes or fees found on policy page
canada-whistler-tantalus-resort-lodge,Tantalus Resort Lodge,Whistler,British Columbia,Canada,Upper-Midscale,15,50.1178,-122.9489,https://www.tantaluslodge.com/,https://www.tantaluslodge.com/parking-renovations/,,official,0,0,,,,,,2025-12-23T00:01:40Z,No taxes or fees found on policy page
canada-whistler-blackcomb-springs-suites,Blackcomb Springs Suites,Whistler,British Columbia,Canada,Upper-Midscale,16,50.1145,-122.9534,https://www.blackcombsprings.com/,https://www.booking.com/hotel/ca/blackcomb-springs-suites-by-clique.en-gb.html?aid=304142&label=gen173nr-10CAQoggJCKHNlYXJjaF9ibGFja2NvbWIgc3ByaW5ncyBzdWl0ZXMgd2hpc3RsZXJIM1gEaCeIAQGYATO4ARfIAQzYAQPoAQH4AQGIAgGoAgG4AsK4p8oGwAIB0gIkZWNkOWE5OGItNjllNS00YzMzLWI1NzYtOTBlYzFiNTRmZjhh2AIB4AIB&ucfs=1&arphpl=1&group_adults=2&req_adults=2&no_rooms=1&group_children=0&req_children=0&hpos=1&hapos=1&sr_order=popularity&srpvid=26dd00615b0101de&srepoch=1766448197&from=searchresults,https://www.booking.com/hotel/ca/blackcomb-springs-suites-by-clique.en-gb.html?aid=304142&label=gen173nr-10CAQoggJCKHNlYXJjaF9ibGFja2NvbWIgc3ByaW5ncyBzdWl0ZXMgd2hpc3RsZXJIM1gEaCeIAQGYATO4ARfIAQzYAQPoAQH4AQGIAgGoAgG4AsK4p8oGwAIB0gIkZWNkOWE5OGItNjllNS00YzMzLWI1NzYtOTBlYzFiNTRmZjhh2AIB4AIB&ucfs=1&arphpl=1&group_adults=2&req_adults=2&no_rooms=1&group_children=0&req_children=0&hpos=1&hapos=1&sr_order=popularity&srpvid=26dd00615b0101de&srepoch=1766448197&from=searchresults,booking.com,0,0,,,,,,2025-12-23T00:03:34Z,Data sourced from Booking.com listing
canada-whistler-whistler-village-inn-suites,Whistler Village Inn + Suites,Whistler,British Columbia,Canada,Midscale,17,50.1156,-122.9445,https://www.whistlervillageinn.com/,https://www.booking.com/hotel/ca/whistler-village-inn-suites.en-gb.html?aid=304142&label=gen173nr-10CAQoggJCLXNlYXJjaF93aGlzdGxlciB2aWxsYWdlIGlubiArIHN1aXRlcyB3aGlzdGxlckgzWARoJ4gBAZgBM7gBF8gBDNgBA-gBAfgBAYgCAagCAbgCqLmnygbAAgHSAiRhY2QzYzFlNy1kOTQxLTRjY2QtYTM5NC1kZDRhZGEwYzEwNDjYAgHgAgE&ucfs=1&arphpl=1&group_adults=2&req_adults=2&no_rooms=1&group_children=0&req_children=0&hpos=1&hapos=1&sr_order=popularity&srpvid=1f8e0094c0bd0232&srepoch=1766448300&from=searchresults,https://www.booking.com/hotel/ca/whistler-village-inn-suites.en-gb.html?aid=304142&label=gen173nr-10CAQoggJCLXNlYXJjaF93aGlzdGxlciB2aWxsYWdlIGlubiArIHN1aXRlcyB3aGlzdGxlckgzWARoJ4gBAZgBM7gBF8gBDNgBA-gBAfgBAYgCAagCAbgCqLmnygbAAgHSAiRhY2QzYzFlNy1kOTQxLTRjY2QtYTM5NC1kZDRhZGEwYzEwNDjYAgHgAgE&ucfs=1&arphpl=1&group_adults=2&req_adults=2&no_rooms=1&group_children=0&req_children=0&hpos=1&hapos=1&sr_order=popularity&srpvid=1f8e0094c0bd0232&srepoch=1766448300&from=searchresults,booking.com,0,0,,,,,,2025-12-23T00:05:16Z,Data sourced from Booking.com listing
canada-whistler-sundial-boutique-hotel,Sundial Boutique Hotel,Whistler,British Columbia,Canada,Upscale,18,50.1123,-122.9501,https://www.sundialhotel.com/,https://www.sundialhotel.com/faqs,,official,0,0,,,,,,2025-12-23T00:05:55Z,No taxes or fees found on policy page
canada-whistler-coast-blackcomb-suites,Coast Blackcomb Suites,Whistler,British Columbia,Canada,Upper-Midscale,19,50.1134,-122.9545,https://www.coasthotels.com/hotels/british-columbia/whistler/coast-blackcomb-suites/,https://www.coasthotels.com,,official,0,0,,,,,,2025-12-23T00:06:02Z,No taxes or fees found on policy page
canada-whistler-mountainside-lodge,Mountainside Lodge,Whistler,British Columbia,Canada,Upper-Midscale,20,50.1145,-122.9556,https://www.mountainsidelodge.com/,http://survey-smiles.com,,official,0,0,,,,,,2025-12-23T00:06:03Z,No taxes or fees found on policy page
canada-whistler-pinnacle-hotel-whistler,Pinnacle Hotel Whistler,Whistler,British Columbia,Canada,Midscale,21,50.1156,-122.9523,https://www.pinnaclehotelwhistler.com/,https://www.booking.com/hotel/ca/whistler-pinnacle.en-gb.html?aid=304142&label=mkt123sc-4f437270-28a4-4cff-9369-1e95523c7149&ucfs=1&arphpl=1&group_adults=2&req_adults=2&no_rooms=1&group_children=0&req_children=0&hpos=1&hapos=1&sr_order=popularity&srpvid=cc6160045035ec65e6386ef4d51ef6c6&srepoch=1766448460&from=searchresults,https://www.booking.com/hotel/ca/whistler-pinnacle.en-gb.html?aid=304142&label=mkt123sc-4f437270-28a4-4cff-9369-1e95523c7149&ucfs=1&arphpl=1&group_adults=2&req_adults=2&no_rooms=1&group_children=0&req_children=0&hpos=1&hapos=1&sr_order=popularity&srpvid=cc6160045035ec65e6386ef4d51ef6c6&srepoch=1766448460&from=searchresults,booking.com,0,0,,,,,,2025-12-23T00:07:59Z,Data sourced from Booking.com listing
canada-whistler-executive-inn-at-whistler-village,Executive Inn at Whistler Village,Whistler,British Columbia,Canada,Midscale,22,50.1167,-122.9512,https://www.executivehotels.net/whistler/,https://www.booking.com/hotel/ca/whistler.en-gb.html?aid=304142&label=gen173nr-10CAQoggJCMXNlYXJjaF9leGVjdXRpdmUgaW5uIGF0IHdoaXN0bGVyIHZpbGxhZ2Ugd2hpc3RsZXJIM1gEaCeIAQGYATO4ARfIAQzYAQPoAQH4AQGIAgGoAgG4ArS7p8oGwAIB0gIkNDg5OTBjYmItMjlmOC00MjE3LThjNjEtNjAyZjc4ZjAyNjg52AIB4AIB&ucfs=1&arphpl=1&group_adults=2&req_adults=2&no_rooms=1&group_children=0&req_children=0&hpos=1&hapos=1&sr_order=popularity&srpvid=ed21011ae44d008f&srepoch=1766448567&from=searchresults,https://www.booking.com/hotel/ca/whistler.en-gb.html?aid=304142&label=gen173nr-10CAQoggJCMXNlYXJjaF9leGVjdXRpdmUgaW5uIGF0IHdoaXN0bGVyIHZpbGxhZ2Ugd2hpc3RsZXJIM1gEaCeIAQGYATO4ARfIAQzYAQPoAQH4AQGIAgGoAgG4ArS7p8oGwAIB0gIkNDg5OTBjYmItMjlmOC00MjE3LThjNjEtNjAyZjc4ZjAyNjg52AIB4AIB&ucfs=1&arphpl=1&group_adults=2&req_adults=2&no_rooms=1&group_children=0&req_children=0&hpos=1&hapos=1&sr_order=popularity&srpvid=ed21011ae44d008f&srepoch=1766448567&from=searchresults,booking.com,0,0,,,,,,2025-12-23T00:09:43Z,Data sourced from Booking.com listing
canada-whistler-legends-whistler,Legends Whistler,Whistler,British Columbia,Canada,Upper-Midscale,23,50.0912,-122.9601,https://www.legendswhistler.com/,https://www.lodgingovations.com/legends/,,official,0,0,,,,,,2025-12-23T00:09:44Z,No taxes or fees found on policy page
canada-whistler-first-tracks-lodge,First Tracks Lodge,Whistler,British Columbia,Canada,Upscale,24,50.0923,-122.9589,https://www.firsttrackslodge.com/,https://www.lodgingovations.com/first-tracks-lodge/,,official,0,0,,,,,,2025-12-23T00:09:47Z,No taxes or fees found on policy page
canada-whistler-evolution-whistler,Evolution Whistler,Whistler,British Columbia,Canada,Upper-Midscale,25,50.0934,-122.9578,https://www.evolutionwhistler.com/,https://www.evolutionwhistler.com/about,,official,0,0,,,,,,2025-12-23T00:10:40Z,No taxes or fees found on policy page
canada-whistler-hi-whistler-hostel,HI Whistler Hostel,Whistler,British Columbia,Canada,Economy,26,50.1178,-122.9534,https://hihostels.ca/en/destinations/british-columbia/hi-whistler,https://hihostels.ca/faq,,official,0,0,,,,,,2025-12-23T00:11:16Z,No taxes or fees found on policy page
canada-whistler-whistler-lodge-hostel,Whistler Lodge Hostel,Whistler,British Columbia,Canada,Economy,27,50.1189,-122.9545,https://www.whistlerlodgehostel.com/,https://www.booking.com/hotel/ca/whistler-peak-lodge.en-gb.html?aid=304142&label=gen173nr-10CAQoggJCJXNlYXJjaF93aGlzdGxlciBsb2RnZSBob3N0ZWwgd2hpc3RsZXJIM1gEaCeIAQGYATO4ARfIAQzYAQPoAQH4AQGIAgGoAgG4AoO9p8oGwAIB0gIkNTE3OGEwMTktOGZjMy00YTM3LTlkNTktODgxYjViNGM1NzAw2AIB4AIB&ucfs=1&arphpl=1&group_adults=2&req_adults=2&no_rooms=1&group_children=0&req_children=0&hpos=1&hapos=1&sr_order=popularity&srpvid=99360181046603cd&srepoch=1766448774&from=searchresults,https://www.booking.com/hotel/ca/whistler-peak-lodge.en-gb.html?aid=304142&label=gen173nr-10CAQoggJCJXNlYXJjaF93aGlzdGxlciBsb2RnZSBob3N0ZWwgd2hpc3RsZXJIM1gEaCeIAQGYATO4ARfIAQzYAQPoAQH4AQGIAgGoAgG4AoO9p8oGwAIB0gIkNTE3OGEwMTktOGZjMy00YTM3LTlkNTktODgxYjViNGM1NzAw2AIB4AIB&ucfs=1&arphpl=1&group_adults=2&req_adults=2&no_rooms=1&group_children=0&req_children=0&hpos=1&hapos=1&sr_order=popularity&srpvid=99360181046603cd&srepoch=1766448774&from=searchresults,booking.com,0,0,,,,,,2025-12-23T00:13:11Z,Data sourced from Booking.com listing
canada-whistler-pangea-pod-hotel,Pangea Pod Hotel,Whistler,British Columbia,Canada,Economy,28,50.1145,-122.9489,https://www.pangeapod.com/,https://www.booking.com/hotel/ca/pangea-pod-whistler.en-gb.html?aid=304142&label=mkt123sc-e2c82fba-b080-465f-816e-c2ad34bf9062&ucfs=1&arphpl=1&group_adults=2&req_adults=2&no_rooms=1&group_children=0&req_children=0&hpos=1&hapos=1&sr_order=popularity&srpvid=ec6fa9fefdf5a7a88962473100356ce9&srepoch=1766448872&from=searchresults,https://www.booking.com/hotel/ca/pangea-pod-whistler.en-gb.html?aid=304142&label=mkt123sc-e2c82fba-b080-465f-816e-c2ad34bf9062&ucfs=1&arphpl=1&group_adults=2&req_adults=2&no_rooms=1&group_children=0&req_children=0&hpos=1&hapos=1&sr_order=popularity&srpvid=ec6fa9fefdf5a7a88962473100356ce9&srepoch=1766448872&from=searchresults,booking.com,0,0,,,,,,2025-12-23T00:14:48Z,Data sourced from Booking.com listing
canada-whistler-riverside-resort,Riverside Resort,Whistler,British Columbia,Canada,Midscale,29,50.1201,-122.9556,https://www.whistlerriverside.com/,https://www.booking.com/hotel/ca/riverside-resort-whistler.en-gb.html?aid=304142&label=gen173nr-10CAQoggJCIHNlYXJjaF9yaXZlcnNpZGUgcmVzb3J0IHdoaXN0bGVySDNYBGgniAEBmAEzuAEXyAEM2AED6AEB-AEBiAIBqAIBuALQvqfKBsACAdICJDAwMzdlZmU3LWY2NTYtNGJhYS1iOGQ4LWZlYmMyZTA3ODg2ONgCAeACAQ&ucfs=1&arphpl=1&group_adults=2&req_adults=2&no_rooms=1&group_children=0&req_children=0&hpos=1&hapos=1&sr_order=popularity&srpvid=54b401e8a34f00f8&srepoch=1766448980&from=searchresults,https://www.booking.com/hotel/ca/riverside-resort-whistler.en-gb.html?aid=304142&label=gen173nr-10CAQoggJCIHNlYXJjaF9yaXZlcnNpZGUgcmVzb3J0IHdoaXN0bGVySDNYBGgniAEBmAEzuAEXyAEM2AED6AEB-AEBiAIBqAIBuALQvqfKBsACAdICJDAwMzdlZmU3LWY2NTYtNGJhYS1iOGQ4LWZlYmMyZTA3ODg2ONgCAeACAQ&ucfs=1&arphpl=1&group_adults=2&req_adults=2&no_rooms=1&group_children=0&req_children=0&hpos=1&hapos=1&sr_order=popularity&srpvid=54b401e8a34f00f8&srepoch=1766448980&from=searchresults,booking.com,0,0,,,,,,2025-12-23T00:16:35Z,Data sourced from Booking.com listing
canada-whistler-whistler-cascade-lodge,Whistler Cascade Lodge,Whistler,British Columbia,Canada,Midscale,30,50.1167,-122.9501,https://www.whistlercascadelodge.com/,https://www.booking.com/hotel/ca/cascade-lodge-by-resortquest-whistler.en-gb.html?aid=304142&label=mkt123sc-191c5d19-a020-41b6-9029-a99ac9488f33&ucfs=1&arphpl=1&group_adults=2&req_adults=2&no_rooms=1&group_children=0&req_children=0&hpos=1&hapos=1&sr_order=popularity&srpvid=68dffe4bcd6408950573e541d615503c&srepoch=1766449081&from=searchresults,https://www.booking.com/hotel/ca/cascade-lodge-by-resortquest-whistler.en-gb.html?aid=304142&label=mkt123sc-191c5d19-a020-41b6-9029-a99ac9488f33&ucfs=1&arphpl=1&group_adults=2&req_adults=2&no_rooms=1&group_children=0&req_children=0&hpos=1&hapos=1&sr_order=popularity&srpvid=68dffe4bcd6408950573e541d615503c&srepoch=1766449081&from=searchresults,booking.com,0,0,,,,,,2025-12-23T00:18:20Z,Data sourced from Booking.com listing
france-chamonix-hotel-mont-blanc,Hotel Mont-Blanc,Chamonix,Auvergne-Rhone-Alpes,France,Luxury,1,45.9237,6.8694,https://www.hotelmontblancchamonix.com/,https://www.booking.com/hotel/ch/auberge-du-mont-blanc.en-gb.html?aid=304142&label=gen173nr-10CAQoggJCIHNlYXJjaF9ob3RlbCBtb250LWJsYW5jIGNoYW1vbml4SDNYBGgniAEBmAEzuAEXyAEM2AED6AEB-AEBiAIBqAIBuALuuKjKBsACAdICJGNkMDkwMjQyLTgyYjYtNDM3Mi1hYTdmLWNjNThmODcyZGEzONgCAeACAQ&ucfs=1&arphpl=1&group_adults=2&req_adults=2&no_rooms=1&group_children=0&req_children=0&hpos=12&hapos=12&sr_order=popularity&srpvid=797d20773bec0289&srepoch=1766464626&from=searchresults,https://www.booking.com/hotel/ch/auberge-du-mont-blanc.en-gb.html?aid=304142&label=gen173nr-10CAQoggJCIHNlYXJjaF9ob3RlbCBtb250LWJsYW5jIGNoYW1vbml4SDNYBGgniAEBmAEzuAEXyAEM2AED6AEB-AEBiAIBqAIBuALuuKjKBsACAdICJGNkMDkwMjQyLTgyYjYtNDM3Mi1hYTdmLWNjNThmODcyZGEzONgCAeACAQ&ucfs=1&arphpl=1&group_adults=2&req_adults=2&no_rooms=1&group_children=0&req_children=0&hpos=12&hapos=12&sr_order=popularity&srpvid=797d20773bec0289&srepoch=1766464626&from=searchresults,booking.com,0,0,,,,,,2025-12-23T04:37:23Z,Data sourced from Booking.com listing
france-chamonix-grand-hotel-des-alpes,Grand Hotel des Alpes,Chamonix,Auvergne-Rhone-Alpes,France,Luxury,2,45.9245,6.8712,https://www.grandhoteldesalpes.com/,https://grandhoteldesalpes.com/en/services/,,official,0,0,,,,,,2025-12-23T04:37:52Z,No taxes or fees found on policy page
france-chamonix-le-hameau-albert-1er,Le Hameau Albert 1er,Chamonix,Auvergne-Rhone-Alpes,France,Luxury,3,45.9212,6.8634,https://www.hameaualbert.fr/,https://www.hameaualbert.fr/en/actualites/fetes-fin-annee-reveillon-noel-nouvel-an-chamonix,,official,0,0,,,,,,2025-12-23T04:39:06Z,No taxes or fees found on policy page
france-chamonix-hotel-lheliopic,Hotel L'Heliopic,Chamonix,Auvergne-Rhone-Alpes,France,Upscale,4,45.9234,6.8723,https://www.heliopic-hotel-spa.com/,https://www.heliopic.com/faq,,official,0,0,,,,,,2025-12-23T04:39:43Z,No taxes or fees found on policy page
france-chamonix-le-refuge-des-aiglons,Le Refuge des Aiglons,Chamonix,Auvergne-Rhone-Alpes,France,Upscale,5,45.9189,6.8612,https://www.aiglons.com/,https://aiglons.com/fr/services,,official,0,0,,,,,,2025-12-23T04:40:08Z,No taxes or fees found on policy page
france-chamonix-hotel-le-morgane,Hotel Le Morgane,Chamonix,Auvergne-Rhone-Alpes,France,Upscale,6,45.9256,6.8701,https://www.morgane-hotel-chamonix.com/,https://morgane-hotel-chamonix.com/fr/services/,,official,0,0,,,,,,2025-12-23T04:40:28Z,No taxes or fees found on policy page
france-chamonix-les-aiglons-resort-spa,Les Aiglons Resort & Spa,Chamonix,Auvergne-Rhone-Alpes,France,Upscale,8,45.9178,6.8601,https://www.aiglons.com/,https://aiglons.com/fr/services,,official,0,0,,,,,,2025-12-23T04:42:16Z,No taxes or fees found on policy page
france-chamonix-mercure-chamonix-centre,Mercure Chamonix Centre,Chamonix,Auvergne-Rhone-Alpes,France,Midscale,9,45.9245,6.8678,https://www.mercure-chamonix.com/,https://www.booking.com/hotel/fr/cosmiques.en-gb.html?aid=304142&label=mkt123sc-a304e5be-a9d1-4eec-beec-59427737b776&ucfs=1&arphpl=1&group_adults=2&req_adults=2&no_rooms=1&group_children=0&req_children=0&hpos=16&hapos=16&sr_order=popularity&srpvid=79ce6b8e2419a3ae31b5aed800b2e22a&srepoch=1766465013&from=searchresults,https://www.booking.com/hotel/fr/cosmiques.en-gb.html?aid=304142&label=mkt123sc-a304e5be-a9d1-4eec-beec-59427737b776&ucfs=1&arphpl=1&group_adults=2&req_adults=2&no_rooms=1&group_children=0&req_children=0&hpos=16&hapos=16&sr_order=popularity&srpvid=79ce6b8e2419a3ae31b5aed800b2e22a&srepoch=1766465013&from=searchresults,booking.com,0,0,,,,,,2025-12-23T04:43:52Z,Data sourced from Booking.com listing
france-chamonix-hotel-park-htel-suisse,Hotel Park Htel Suisse,Chamonix,Auvergne-Rhone-Alpes,France,Upper-Midscale,10,45.9234,6.8667,https://www.chamonix-park-hotel.com/,https://www.booking.com/hotel/fr/park-suisse.en-gb.html?aid=304142&label=gen173nr-10CAQoggJCKHNlYXJjaF9ob3RlbCBwYXJrIGjDtHRlbCBzdWlzc2UgY2hhbW9uaXhIM1gEaCeIAQGYATO4ARfIAQzYAQPoAQH4AQGIAgGoAgG4Atu8qMoGwAIB0gIkNDM5ZWFhNWYtNjQxNS00NTBlLWE1ZDAtM2U5MWI0MWMxYjI42AIB4AIB&ucfs=1&arphpl=1&group_adults=2&req_adults=2&no_rooms=1&group_children=0&req_children=0&hpos=1&hapos=1&sr_order=popularity&srpvid=a7f9216da4630237&srepoch=1766465119&from=searchresults,https://www.booking.com/hotel/fr/park-suisse.en-gb.html?aid=304142&label=gen173nr-10CAQoggJCKHNlYXJjaF9ob3RlbCBwYXJrIGjDtHRlbCBzdWlzc2UgY2hhbW9uaXhIM1gEaCeIAQGYATO4ARfIAQzYAQPoAQH4AQGIAgGoAgG4Atu8qMoGwAIB0gIkNDM5ZWFhNWYtNjQxNS00NTBlLWE1ZDAtM2U5MWI0MWMxYjI42AIB4AIB&ucfs=1&arphpl=1&group_adults=2&req_adults=2&no_rooms=1&group_children=0&req_children=0&hpos=1&hapos=1&sr_order=popularity&srpvid=a7f9216da4630237&srepoch=1766465119&from=searchresults,booking.com,0,0,,,,,,2025-12-23T04:45:36Z,Data sourced from Booking.com listing
france-chamonix-htel-gourmets-et-italy,Htel Gourmets et Italy,Chamonix,Auvergne-Rhone-Alpes,France,Upper-Midscale,11,45.9256,6.8689,https://www.hotelgourmets-chamonix.com/,https://www.hotelgourmets-chamonix.com/services/,,official,0,0,,,,,,2025-12-23T04:46:05Z,No taxes or fees found on policy page
france-chamonix-htel-le-faucigny,Htel Le Faucigny,Chamonix,Auvergne-Rhone-Alpes,France,Upper-Midscale,12,45.9212,6.8656,https://www.hotelfaucigny-chamonix.com/,https://www.hameaufaucigny-chamonix.com/fr/bienvenue/conditions-generales-de-vente/,,official,0,0,,,,,,2025-12-23T04:47:14Z,No taxes or fees found on policy page
france-chamonix-htel-valle-blanche,Htel Valle Blanche,Chamonix,Auvergne-Rhone-Alpes,France,Upper-Midscale,13,45.9223,6.8645,https://www.hotelvalleeblancha.fr/,https://www.booking.com/hotel/fr/vallee-blanche.en-gb.html?aid=304142&label=mkt123sc-544afb7a-1dff-4785-a349-be66df0e5c3f&ucfs=1&arphpl=1&group_adults=2&req_adults=2&no_rooms=1&group_children=0&req_children=0&hpos=1&hapos=1&sr_order=popularity&srpvid=ae3fd6e8fb282c663cd9a4d3c9ae9a1c&srepoch=1766465318&from=searchresults,https://www.booking.com/hotel/fr/vallee-blanche.en-gb.html?aid=304142&label=mkt123sc-544afb7a-1dff-4785-a349-be66df0e5c3f&ucfs=1&arphpl=1&group_adults=2&req_adults=2&no_rooms=1&group_children=0&req_children=0&hpos=1&hapos=1&sr_order=popularity&srpvid=ae3fd6e8fb282c663cd9a4d3c9ae9a1c&srepoch=1766465318&from=searchresults,booking.com,0,0,,,,,,2025-12-23T04:48:55Z,Data sourced from Booking.com listing
switzerland-st-moritz-kulm-hotel-st-moritz,Kulm Hotel St. Moritz,St. Moritz,Graubunden,Switzerland,Luxury,2,46.4978,9.8412,https://www.kulm.com/,https://kulm.com/terms-conditions/,,official,0,0,,,,,,2025-12-21T01:10:37Z,No taxes or fees found on policy page
switzerland-st-moritz-suvretta-house,Suvretta House,St. Moritz,Graubunden,Switzerland,Luxury,3,46.4823,9.8234,https://www.suvrettahouse.ch/,https://suvrettahouse.ch/services,,official,0,0,,,,,,2025-12-21T01:11:05Z,No taxes or fees found on policy page
switzerland-st-moritz-carlton-hotel-st-moritz,Carlton Hotel St. Moritz,St. Moritz,Graubunden,Switzerland,Luxury,4,46.4967,9.8401,https://www.carlton-stmoritz.ch/,https://tschuggencollection.ch/de/hotel/carlton-hotel,,official,0,0,,,,,,2025-12-21T01:11:08Z,No taxes or fees found on policy page
switzerland-st-moritz-kempinski-grand-hotel-des-bains,Kempinski Grand Hotel des Bains,St. Moritz,Graubunden,Switzerland,Luxury,5,46.4956,9.8389,https://www.kempinski.com/st-moritz/,https://www.kempinski.com/en/,,official,0,0,,,,,,2025-12-21T01:11:11Z,No taxes or fees found on policy page
switzerland-st-moritz-grace-st-moritz,Grace St. Moritz,St. Moritz,Graubunden,Switzerland,Luxury,7,46.4945,9.8378,https://www.gracehotels.com/stmoritz/,https://www.gracehotels.com/about,,official,0,0,,,,,,2025-12-21T01:13:12Z,No taxes or fees found on policy page
switzerland-st-moritz-nira-alpina,Nira Alpina,St. Moritz,Graubunden,Switzerland,Upscale,9,46.4289,9.7534,https://www.niraalpina.com/,https://www.niraalpina.com,,official,0,0,,,,,,2025-12-21T01:14:46Z,No taxes or fees found on policy page
switzerland-st-moritz-hotel-reine-victoria,Hotel Reine Victoria,St. Moritz,Graubunden,Switzerland,Upscale,11,46.5012,9.8445,https://www.hotel-reine-victoria.ch/,https://www.hotel-reine-victoria.ch/ueber-uns/,,official,0,0,,,,,,2025-12-21T01:16:49Z,No taxes or fees found on policy page
switzerland-st-moritz-hotel-steffani,Hotel Steffani,St. Moritz,Graubunden,Switzerland,Upper-Midscale,12,46.4989,9.8412,https://www.steffani.ch/,https://steffani.ch/znpb_template_mngr/parking/,,official,0,0,,,,,,2025-12-21T01:17:05Z,No taxes or fees found on policy page
switzerland-st-moritz-crystal-hotel,Crystal Hotel,St. Moritz,Graubunden,Switzerland,Upper-Midscale,13,46.4978,9.8401,https://www.crystalhotel.ch/,https://www.crystalhotel.ch/en/corporate/privacy-cookie-policy/,,official,0,0,,,,,,2025-12-21T01:18:20Z,No taxes or fees found on policy page
switzerland-st-moritz-hotel-laudinella,Hotel Laudinella,St. Moritz,Graubunden,Switzerland,Midscale,14,46.4934,9.8367,https://www.laudinella.ch/,https://www.laudinella.ch/information/,,official,0,0,,,,,,2025-12-21T01:19:14Z,No taxes or fees found on policy page
switzerland-st-moritz-hotel-sonne,Hotel Sonne,St. Moritz,Graubunden,Switzerland,Upper-Midscale,15,46.4967,9.8389,https://www.sonne-stmoritz.ch/,https://www.sonne-stmoritz.ch/home?tx_news_pi1%5Baction%5D=detail&tx_news_pi1%5Bcontroller%5D=News&cHash=ae77208c7dead7276e1ab57ed9ac2c21,,official,0,0,,,,,,2025-12-21T01:19:18Z,No taxes or fees found on policy page
switzerland-st-moritz-giardino-mountain,Giardino Mountain,St. Moritz,Graubunden,Switzerland,Luxury,17,46.5089,9.8523,https://www.giardino-mountain.ch/,https://giardinohotels.ch/de/,,official,0,0,,,,,,2025-12-21T01:20:34Z,No taxes or fees found on policy page
switzerland-st-moritz-hotel-albana,Hotel Albana,St. Moritz,Graubunden,Switzerland,Upper-Midscale,18,46.4434,9.7701,https://www.hotelalbana.ch/,https://www.hotelalbana.ch/services/bewertungen,,official,0,0,,,,,,2025-12-21T01:21:52Z,No taxes or fees found on policy page
switzerland-st-moritz-romantik-hotel-muottas-muragl,Romantik Hotel Muottas Muragl,St. Moritz,Graubunden,Switzerland,Upscale,19,46.5156,9.9234,https://www.muottasmuragl.ch/,https://www.muottasmuragl.ch/en/terms-and-conditions/,,official,0,0,,,,,,2025-12-21T01:23:03Z,No taxes or fees found on policy page
switzerland-st-moritz-youth-hostel-st-moritz,Youth Hostel St. Moritz,St. Moritz,Graubunden,Switzerland,Economy,26,46.4912,9.8323,https://www.youthhostel.ch/en/hostels/st-moritz-bad/,https://www.youthhostel.ch/de/faq,,official,0,0,,,,,,2025-12-21T01:30:46Z,No taxes or fees found on policy page
switzerland-st-moritz-sporthotel-pontresina,Sporthotel Pontresina,St. Moritz,Graubunden,Switzerland,Upper-Midscale,28,46.4923,9.9023,https://www.sporthotel.ch/,https://www.sporthotel.ch/de/services/bewertungen,,official,0,0,,,,,,2025-12-21T01:33:32Z,No taxes or fees found on policy page
switzerland-verbier-hotel-vanessa,Hotel Vanessa,Verbier,Valais,Switzerland,Upper-Midscale,7,46.1001,7.2323,https://www.hotelvanessa.ch/,https://www.hotelvanessa.ch/,,official,0,0,,,,,,2025-12-21T01:43:05Z,No taxes or fees found on policy page
switzerland-verbier-hotel-de-verbier,Hotel de Verbier,Verbier,Valais,Switzerland,Upper-Midscale,10,46.0923,7.2245,https://www.hoteldeverbier.ch/,https://hoteldeverbier.com,,official,0,0,,,,,,2025-12-21T01:45:32Z,No taxes or fees found on policy page
switzerland-verbier-aparthotel-helvetia-intergolf,Aparthotel Helvetia Intergolf,Verbier,Valais,Switzerland,Upper-Midscale,16,46.089,7.2212,https://www.helvetia-intergolf.ch/,https://www.helvetia-intergolf.ch/wp-content/uploads/sites/195/2023/03/CONDITIONS_GNRALES_DE_RESERVATION_allemand.pdf,,official,0,0,,,,,,2025-12-21T01:52:55Z,No taxes or fees found on policy page
switzerland-verbier-hotel-chamois,Hotel Chamois,Verbier,Valais,Switzerland,Midscale,25,46.1089,7.2412,https://www.hotelchamois.ch/,https://hotel-chamois.ch/fr/,,official,0,0,,,,,,2025-12-21T02:02:37Z,No taxes or fees found on policy page
switzerland-zermatt-the-omnia,The Omnia,Zermatt,Valais,Switzerland,Luxury,1,46.0207,7.7491,https://www.the-omnia.com/,https://www.simplebooking.it/ibe2/hotel/5293?lang=EN&cur=CHF,,official,0,0,,,,,,2025-12-23T04:36:51Z,No taxes or fees found on policy page
switzerland-zermatt-mont-cervin-palace,Mont Cervin Palace,Zermatt,Valais,Switzerland,Luxury,2,46.0234,7.7512,https://www.montcervinpalace.ch/,https://www.montcervinpalace.ch/info-guide/,,official,0,0,,,,,,2025-12-23T04:37:53Z,No taxes or fees found on policy page
switzerland-zermatt-grand-hotel-zermatterhof,Grand Hotel Zermatterhof,Zermatt,Valais,Switzerland,Luxury,3,46.0223,7.7489,https://www.zermatterhof.ch/,https://www.zermatterhof.ch/terms-and-conditions/,,official,0,0,,,,,,2025-12-23T04:39:05Z,No taxes or fees found on policy page
switzerland-zermatt-riffelalp-resort-2222m,Riffelalp Resort 2222m,Zermatt,Valais,Switzerland,Luxury,4,46.0012,7.7634,https://www.riffelalp.com/,https://www.riffelalp.com/en/privacy-policy-general-terms-and-conditions/,,official,0,0,,,,,,2025-12-23T04:40:25Z,No taxes or fees found on policy page
switzerland-zermatt-hotel-schweizerhof-zermatt,Hotel Schweizerhof Zermatt,Zermatt,Valais,Switzerland,Upscale,5,46.0201,7.7478,https://www.schweizerhof-zermatt.ch/,https://www.booking.com/hotel/ch/hotel-schweizerhof-zermatt.en-gb.html?aid=304142&label=mkt123sc-055e23a6-c499-43ab-a964-b8396d80da63&ucfs=1&arphpl=1&group_adults=2&req_adults=2&no_rooms=1&group_children=0&req_children=0&hpos=1&hapos=1&sr_order=popularity&srpvid=0ba98be5e4ccfd4a1a6d39eaaf6fdaa3&srepoch=1766464907&from=searchresults,https://www.booking.com/hotel/ch/hotel-schweizerhof-zermatt.en-gb.html?aid=304142&label=mkt123sc-055e23a6-c499-43ab-a964-b8396d80da63&ucfs=1&arphpl=1&group_adults=2&req_adults=2&no_rooms=1&group_children=0&req_children=0&hpos=1&hapos=1&sr_order=popularity&srpvid=0ba98be5e4ccfd4a1a6d39eaaf6fdaa3&srepoch=1766464907&from=searchresults,booking.com,0,0,,,,,,2025-12-23T04:42:06Z,Data sourced from Booking.com listing
switzerland-zermatt-the-alpenhof,The Alpenhof,Zermatt,Valais,Switzerland,Upscale,6,46.0189,7.7467,https://www.alpenhof-zermatt.ch/,https://www.booking.com/hotel/us/the-alpenhof-teton-village-wyoming.en-gb.html?aid=304142&label=gen173nr-10CAQoggJCG3NlYXJjaF90aGUgYWxwZW5ob2YgemVybWF0dEgzWARoJ4gBAZgBM7gBF8gBDNgBA-gBAfgBAYgCAagCAbgC7buoygbAAgHSAiQzNDEzMjJiMC1iZTFiLTQ3MDktYmFiYy1lMTQzZjcwNDQ2MTTYAgHgAgE&ucfs=1&arphpl=1&group_adults=2&req_adults=2&no_rooms=1&group_children=0&req_children=0&hpos=1&hapos=1&sr_order=popularity&srpvid=3ce32136cb7e0b6e&srepoch=1766465009&from=searchresults,https://www.booking.com/hotel/us/the-alpenhof-teton-village-wyoming.en-gb.html?aid=304142&label=gen173nr-10CAQoggJCG3NlYXJjaF90aGUgYWxwZW5ob2YgemVybWF0dEgzWARoJ4gBAZgBM7gBF8gBDNgBA-gBAfgBAYgCAagCAbgC7buoygbAAgHSAiQzNDEzMjJiMC1iZTFiLTQ3MDktYmFiYy1lMTQzZjcwNDQ2MTTYAgHgAgE&ucfs=1&arphpl=1&group_adults=2&req_adults=2&no_rooms=1&group_children=0&req_children=0&hpos=1&hapos=1&sr_order=popularity&srpvid=3ce32136cb7e0b6e&srepoch=1766465009&from=searchresults,booking.com,0,0,,,,,,2025-12-23T04:43:45Z,Data sourced from Booking.com listing
switzerland-zermatt-hotel-alex,Hotel Alex,Zermatt,Valais,Switzerland,Upscale,7,46.0212,7.7501,https://www.hotelalexzermatt.com/,https://www.hotelalexzermatt.com/ueber-uns/,,official,0,0,,,,,,2025-12-23T04:44:37Z,No taxes or fees found on policy page
switzerland-zermatt-backstage-hotel-vernissage,Backstage Hotel Vernissage,Zermatt,Valais,Switzerland,Upscale,8,46.0198,7.7489,https://www.backstagehotel.ch/,https://www.backstagehotel.ch/,,official,0,0,,,,,,2025-12-23T04:44:41Z,No taxes or fees found on policy page
switzerland-zermatt-hotel-cervo-mountain-resort,Hotel Cervo Mountain Resort,Zermatt,Valais,Switzerland,Luxury,9,46.0234,7.7534,https://www.cervo.ch/,https://cervo.swiss/en/services,,official,0,0,,,,,,2025-12-23T04:45:06Z,No taxes or fees found on policy page
switzerland-zermatt-cervo-mountain-resort,CERVO Mountain Resort,Zermatt,Valais,Switzerland,Upscale,10,46.0245,7.7545,https://www.cervo.ch/,https://cervo.swiss/en/services,,official,0,0,,,,,,2025-12-23T04:45:32Z,No taxes or fees found on policy page
switzerland-zermatt-hotel-mirabeau,Hotel Mirabeau,Zermatt,Valais,Switzerland,Upper-Midscale,11,46.0178,7.7456,https://www.hotel-mirabeau.ch/,https://www.hotel-mirabeau.ch/faq,,official,0,0,,,,,,2025-12-23T04:46:13Z,No taxes or fees found on policy page
switzerland-zermatt-romantik-hotel-julen,Romantik Hotel Julen,Zermatt,Valais,Switzerland,Upper-Midscale,12,46.0189,7.7478,https://www.julen.ch/,https://www.booking.com/hotel/ch/romantik-julen.en-gb.html?aid=304142&label=gen173nr-10CAQoggJCI3NlYXJjaF9yb21hbnRpayBob3RlbCBqdWxlbiB6ZXJtYXR0SDNYBGgniAEBmAEzuAEXyAEM2AED6AEB-AEBiAIBqAIBuALhvajKBsACAdICJDMwZTEwYzUwLWIzZDctNDViYi1iMzY2LTlhYTg2ZDg5NjQ2OdgCAeACAQ&ucfs=1&arphpl=1&group_adults=2&req_adults=2&no_rooms=1&group_children=0&req_children=0&hpos=1&hapos=1&sr_order=popularity&srpvid=38a421b0fb20005a&srepoch=1766465252&from=searchresults,https://www.booking.com/hotel/ch/romantik-julen.en-gb.html?aid=304142&label=gen173nr-10CAQoggJCI3NlYXJjaF9yb21hbnRpayBob3RlbCBqdWxlbiB6ZXJtYXR0SDNYBGgniAEBmAEzuAEXyAEM2AED6AEB-AEBiAIBqAIBuALhvajKBsACAdICJDMwZTEwYzUwLWIzZDctNDViYi1iMzY2LTlhYTg2ZDg5NjQ2OdgCAeACAQ&ucfs=1&arphpl=1&group_adults=2&req_adults=2&no_rooms=1&group_children=0&req_children=0&hpos=1&hapos=1&sr_order=popularity&srpvid=38a421b0fb20005a&srepoch=1766465252&from=searchresults,booking.com,0,0,,,,,,2025-12-23T04:47:50Z,Data sourced from Booking.com listing
switzerland-zermatt-hotel-firefly,Hotel Firefly,Zermatt,Valais,Switzerland,Upper-Midscale,15,46.0223,7.7512,https://www.firefly-zermatt.ch/,https://www.firefly-zermatt.ch/application/files/7017/2242/8660/terms-and-conditions-hotel-firefly-zermatt.pdf,,official,0,0,,,,,,2025-12-21T00:50:56Z,No taxes or fees found on policy page
switzerland-zermatt-hotel-alphubel,Hotel Alphubel,Zermatt,Valais,Switzerland,Upper-Midscale,18,46.0189,7.7478,https://www.alphubel-zermatt.ch/,https://alphubel-zermatt.ch/terms-and-conditions/,,official,0,0,,,,,,2025-12-21T00:54:29Z,No taxes or fees found on policy page
switzerland-zermatt-hotel-aristella-swissflair,Hotel Aristella Swissflair,Zermatt,Valais,Switzerland,Upper-Midscale,19,46.0201,7.7489,https://www.aristella.ch/,https://aristella.ch/about-us/,,official,0,0,,,,,,2025-12-21T00:55:22Z,No taxes or fees found on policy page
switzerland-zermatt-youth-hostel-zermatt,Youth Hostel Zermatt,Zermatt,Valais,Switzerland,Economy,26,46.0145,7.7423,https://www.youthhostel.ch/en/hostels/zermatt/,https://www.youthhostel.ch/de/faq,,official,0,0,,,,,,2025-12-21T01:03:22Z,No taxes or fees found on policy page
usa-aspen-the-little-nell,The Little Nell,Aspen,Colorado,USA,Luxury,1,39.1869,-106.8189,https://www.thelittlenell.com/,https://www.thelittlenell.com/stay/amenities,,official,0,0,,,,,,2025-12-23T04:35:58Z,No taxes or fees found on policy page
usa-aspen-the-st-regis-aspen-resort,The St. Regis Aspen Resort,Aspen,Colorado,USA,Luxury,2,39.1911,-106.8205,https://www.marriott.com/hotels/travel/asexr-the-st-regis-aspen-resort/,https://www.booking.com/hotel/us/st-regis-aspen-resort.html?aid=304142&label=mkt123sc-c3aa9ee5-f066-4ccb-b17a-83da2667ce97&ucfs=1&arphpl=1&group_adults=2&req_adults=2&no_rooms=1&group_children=0&req_children=0&hpos=1&hapos=1&sr_order=popularity&srpvid=7c4f236bfa33622ac101388ee4873fbf&srepoch=1766464651&from=searchresults,https://www.booking.com/hotel/us/st-regis-aspen-resort.html?aid=304142&label=mkt123sc-c3aa9ee5-f066-4ccb-b17a-83da2667ce97&ucfs=1&arphpl=1&group_adults=2&req_adults=2&no_rooms=1&group_children=0&req_children=0&hpos=1&hapos=1&sr_order=popularity&srpvid=7c4f236bfa33622ac101388ee4873fbf&srepoch=1766464651&from=searchresults,booking.com,0,0,,,,,,2025-12-23T04:37:47Z,Data sourced from Booking.com listing
usa-aspen-the-limelight-hotel-aspen,The Limelight Hotel Aspen,Aspen,Colorado,USA,Upscale,3,39.1878,-106.8198,https://www.limelighthotels.com/aspen,https://www.limelighthotels.com/our-story,,official,0,0,,,,,,2025-12-23T04:38:38Z,No taxes or fees found on policy page
usa-aspen-hotel-jerome,Hotel Jerome,Aspen,Colorado,USA,Luxury,4,39.1901,-106.8221,https://www.aubergeresorts.com/hoteljerome/,https://www.booking.com/hotel/us/po-hotel-jerome-an-auberge-resort-aspen.en-gb.html?aid=304142&label=gen173nr-10CAQoggJCGXNlYXJjaF9ob3RlbCBqZXJvbWUgYXNwZW5IM1gEaCeIAQGYATO4ARfIAQzYAQPoAQH4AQGIAgGoAgG4Ap66qMoGwAIB0gIkZDgzYTg4MDItNjQzYS00NDUxLTg2MWEtODQ4OTIwYWEwNDcx2AIB4AIB&ucfs=1&arphpl=1&group_adults=2&req_adults=2&no_rooms=1&group_children=0&req_children=0&hpos=1&hapos=1&sr_order=popularity&srpvid=e52520cfd85a02a5&srepoch=1766464801&from=searchresults,https://www.booking.com/hotel/us/po-hotel-jerome-an-auberge-resort-aspen.en-gb.html?aid=304142&label=gen173nr-10CAQoggJCGXNlYXJjaF9ob3RlbCBqZXJvbWUgYXNwZW5IM1gEaCeIAQGYATO4ARfIAQzYAQPoAQH4AQGIAgGoAgG4Ap66qMoGwAIB0gIkZDgzYTg4MDItNjQzYS00NDUxLTg2MWEtODQ4OTIwYWEwNDcx2AIB4AIB&ucfs=1&arphpl=1&group_adults=2&req_adults=2&no_rooms=1&group_children=0&req_children=0&hpos=1&hapos=1&sr_order=popularity&srpvid=e52520cfd85a02a5&srepoch=1766464801&from=searchresults,booking.com,0,0,,,,,,2025-12-23T04:40:17Z,Data sourced from Booking.com listing
usa-aspen-w-aspen,W Aspen,Aspen,Colorado,USA,Luxury,5,39.1867,-106.8176,https://www.marriott.com/hotels/travel/asewh-w-aspen/,https://www.booking.com/hotel/us/w-aspen.en-gb.html?aid=304142&label=mkt123sc-d35c7823-716a-4a02-8940-a419ce28884f&ucfs=1&arphpl=1&group_adults=2&req_adults=2&no_rooms=1&group_children=0&req_children=0&hpos=1&hapos=1&sr_order=popularity&srpvid=d1474a4579b8f0739e8e286c064a63c2&srepoch=1766464909&from=searchresults,https://www.booking.com/hotel/us/w-aspen.en-gb.html?aid=304142&label=mkt123sc-d35c7823-716a-4a02-8940-a419ce28884f&ucfs=1&arphpl=1&group_adults=2&req_adults=2&no_rooms=1&group_children=0&req_children=0&hpos=1&hapos=1&sr_order=popularity&srpvid=d1474a4579b8f0739e8e286c064a63c2&srepoch=1766464909&from=searchresults,booking.com,0,0,,,,,,2025-12-23T04:42:08Z,Data sourced from Booking.com listing
usa-aspen-aspen-meadows-resort,Aspen Meadows Resort,Aspen,Colorado,USA,Upscale,6,39.1823,-106.8312,https://www.aspenmeadows.com/,https://www.aspenmeadows.com/fees,,official,0,0,,,,,,2025-12-23T04:42:11Z,No taxes or fees found on policy page
usa-aspen-the-gant,The Gant,Aspen,Colorado,USA,Upscale,7,39.1934,-106.8134,https://www.gantaspen.com/,https://www.booking.com/hotel/us/gateway-lodge-mercer.en-gb.html?aid=304142&label=gen173nr-10CAQoggJCFXNlYXJjaF90aGUgZ2FudCBhc3BlbkgzWARoJ4gBAZgBM7gBF8gBDNgBA-gBAfgBAYgCAagCAbgC8ruoygbAAgHSAiRjNzg4ZWE2Ni01ZDJjLTQ2YzctYWQwZC1mZDY4MzFmMTMzZGPYAgHgAgE&ucfs=1&arphpl=1&group_adults=2&req_adults=2&no_rooms=1&group_children=0&req_children=0&hpos=26&hapos=26&sr_order=popularity&srpvid=6a7f2139b3080011&srepoch=1766465014&from=searchresults,https://www.booking.com/hotel/us/gateway-lodge-mercer.en-gb.html?aid=304142&label=gen173nr-10CAQoggJCFXNlYXJjaF90aGUgZ2FudCBhc3BlbkgzWARoJ4gBAZgBM7gBF8gBDNgBA-gBAfgBAYgCAagCAbgC8ruoygbAAgHSAiRjNzg4ZWE2Ni01ZDJjLTQ2YzctYWQwZC1mZDY4MzFmMTMzZGPYAgHgAgE&ucfs=1&arphpl=1&group_adults=2&req_adults=2&no_rooms=1&group_children=0&req_children=0&hpos=26&hapos=26&sr_order=popularity&srpvid=6a7f2139b3080011&srepoch=1766465014&from=searchresults,booking.com,0,0,,,,,,2025-12-23T04:43:50Z,Data sourced from Booking.com listing
usa-aspen-molly-gibson-lodge,Molly Gibson Lodge,Aspen,Colorado,USA,Upper-Midscale,8,39.1889,-106.8234,https://www.mollygibson.com/,https://laretornable.com/puntos-de-venta/,,official,0,0,,,,,,2025-12-23T04:43:55Z,No taxes or fees found on policy page
usa-aspen-hotel-aspen,Hotel Aspen,Aspen,Colorado,USA,Upper-Midscale,9,39.1912,-106.8245,https://www.hotelaspen.com/,https://www.booking.com/hotel/gb/aspen-apartments.en-gb.html?aid=304142&label=mkt123sc-8b3da781-86dd-414a-b219-66350a91a982&ucfs=1&arphpl=1&group_adults=2&req_adults=2&no_rooms=1&group_children=0&req_children=0&hpos=1&hapos=1&sr_order=popularity&srpvid=c0729dc4a48e1b26c04b8d495402fc61&srepoch=1766465113&from=searchresults,https://www.booking.com/hotel/gb/aspen-apartments.en-gb.html?aid=304142&label=mkt123sc-8b3da781-86dd-414a-b219-66350a91a982&ucfs=1&arphpl=1&group_adults=2&req_adults=2&no_rooms=1&group_children=0&req_children=0&hpos=1&hapos=1&sr_order=popularity&srpvid=c0729dc4a48e1b26c04b8d495402fc61&srepoch=1766465113&from=searchresults,booking.com,0,0,,,,,,2025-12-23T04:45:33Z,Data sourced from Booking.com listing
usa-aspen-aspen-mountain-lodge,Aspen Mountain Lodge,Aspen,Colorado,USA,Upper-Midscale,10,39.1856,-106.8189,https://www.aspenmountainlodge.com/,https://www.booking.com/hotel/us/aspen-mountain-lodge-aspen1.en-gb.html?aid=304142&label=gen173nr-10CAQoggJCIXNlYXJjaF9hc3BlbiBtb3VudGFpbiBsb2RnZSBhc3BlbkgzWARoJ4gBAZgBM7gBF8gBDNgBA-gBAfgBAYgCAagCAbgCt72oygbAAgHSAiRlZmMwOTY1OC1iMzgyLTQ2NjItOWI3Yy02NGY4NmU4MmE3ZjPYAgHgAgE&ucfs=1&arphpl=1&group_adults=2&req_adults=2&no_rooms=1&group_children=0&req_children=0&hpos=1&hapos=1&sr_order=popularity&srpvid=8df8219bdf37004b&srepoch=1766465210&from=searchresults,https://www.booking.com/hotel/us/aspen-mountain-lodge-aspen1.en-gb.html?aid=304142&label=gen173nr-10CAQoggJCIXNlYXJjaF9hc3BlbiBtb3VudGFpbiBsb2RnZSBhc3BlbkgzWARoJ4gBAZgBM7gBF8gBDNgBA-gBAfgBAYgCAagCAbgCt72oygbAAgHSAiRlZmMwOTY1OC1iMzgyLTQ2NjItOWI3Yy02NGY4NmU4MmE3ZjPYAgHgAgE&ucfs=1&arphpl=1&group_adults=2&req_adults=2&no_rooms=1&group_children=0&req_children=0&hpos=1&hapos=1&sr_order=popularity&srpvid=8df8219bdf37004b&srepoch=1766465210&from=searchresults,booking.com,0,0,,,,,,2025-12-23T04:47:07Z,Data sourced from Booking.com listing
usa-aspen-residences-at-the-little-nell,Residences at The Little Nell,Aspen,Colorado,USA,Luxury,12,39.1871,-106.8192,https://www.thelittlenell.com/residences,https://www.thelittlenell.com/stay/amenities,,official,0,0,,,,,,2025-12-23T04:49:01Z,No taxes or fees found on policy page
usa-aspen-aspen-square-condominium-hotel,Aspen Square Condominium Hotel,Aspen,Colorado,USA,Upper-Midscale,14,39.1901,-106.8201,https://www.aspensquarehotel.com/,https://www.aspensquarehotel.com/condominiums/reservations-policies,,official,0,0,,,,,,2025-12-20T06:30:15Z,No taxes or fees found on policy page
usa-aspen-limelight-hotel-snowmass,Limelight Hotel Snowmass,Aspen,Colorado,USA,Upscale,15,39.2123,-106.9378,https://www.limelighthotels.com/snowmass,https://www.limelighthotels.com/terms-and-conditions,,official,0,0,,,,,,2025-12-20T06:30:29Z,No taxes or fees found on policy page
usa-aspen-mountain-chalet-aspen,Mountain Chalet Aspen,Aspen,Colorado,USA,Midscale,20,39.1867,-106.8234,https://www.mountainchaletaspen.com/,https://www.mountainchaletaspen.com/,,official,0,0,,,,,,2025-12-20T06:46:03Z,No taxes or fees found on policy page
usa-aspen-tyrolean-lodge,Tyrolean Lodge,Aspen,Colorado,USA,Midscale,22,39.1845,-106.8256,https://www.tyroleanlodge.com/,https://www.tyroleanlodge.com/policies/,,official,0,0,,,,,,2025-12-20T06:46:45Z,No taxes or fees found on policy page
usa-aspen-wildwood-snowmass,Wildwood Snowmass,Aspen,Colorado,USA,Upper-Midscale,25,39.2145,-106.9378,https://www.wildwoodsnowmass.com/,https://www.viewlineresortsnowmass.com/,,official,0,0,,,,,,2025-12-20T06:47:59Z,No taxes or fees found on policy page
usa-big-sky-huntley-lodge,Huntley Lodge,Big Sky,Montana,USA,Upscale,3,45.2867,-111.4034,https://www.bigskyresort.com/stay/huntley-lodge,https://www.bigskyresort.com/policies,,official,0,0,,,,,,2025-12-20T09:06:13Z,No taxes or fees found on policy page
usa-big-sky-summit-hotel,Summit Hotel,Big Sky,Montana,USA,Upscale,4,45.2878,-111.4045,https://www.bigskyresort.com/stay/summit-hotel,https://www.bigskyresort.com/policies,,official,0,0,,,,,,2025-12-20T09:06:19Z,No taxes or fees found on policy page
usa-big-sky-lone-mountain-ranch,Lone Mountain Ranch,Big Sky,Montana,USA,Luxury,5,45.2689,-111.4234,https://www.lonemountainranch.com/,https://lonemountainranch.com/terms-of-service/,,official,0,0,,,,,,2025-12-20T09:06:25Z,No taxes or fees found on policy page
usa-big-sky-big-sky-resort-village-center,Big Sky Resort Village Center,Big Sky,Montana,USA,Upper-Midscale,6,45.2856,-111.4056,https://www.bigskyresort.com/stay/village-center,https://www.bigskyresort.com/policies,,official,0,0,,,,,,2025-12-20T09:06:29Z,No taxes or fees found on policy page
usa-big-sky-shoshone-condominium-hotel,Shoshone Condominium Hotel,Big Sky,Montana,USA,Upper-Midscale,7,45.2867,-111.4067,https://www.bigskyresort.com/stay/shoshone,https://www.bigskyresort.com/policies,,official,0,0,,,,,,2025-12-20T09:06:33Z,No taxes or fees found on policy page
usa-big-sky-stillwater-condos,Stillwater Condos,Big Sky,Montana,USA,Upper-Midscale,8,45.2878,-111.4078,https://www.bigskyresort.com/stay/stillwater,https://www.bigskyresort.com/policies,,official,0,0,,,,,,2025-12-20T09:06:38Z,No taxes or fees found on policy page
usa-big-sky-beaverhead-condos,Beaverhead Condos,Big Sky,Montana,USA,Upper-Midscale,9,45.2889,-111.4089,https://www.bigskyresort.com/stay/beaverhead,https://www.bigskyresort.com/policies,,official,0,0,,,,,,2025-12-20T09:06:44Z,No taxes or fees found on policy page
usa-big-sky-rainbow-ranch-lodge,Rainbow Ranch Lodge,Big Sky,Montana,USA,Upscale,10,45.2123,-111.3567,https://www.rainbowranch.net/,https://www.rainbowranch.net/Policies/,,official,0,0,,,,,,2025-12-20T09:07:22Z,No taxes or fees found on policy page
usa-big-sky-big-ez-lodge,Big EZ Lodge,Big Sky,Montana,USA,Upper-Midscale,12,45.2856,-111.3523,https://www.bigezlodge.com/,https://www.bigezlodge.com/,,official,0,0,,,,,,2025-12-20T09:08:39Z,No taxes or fees found on policy page
usa-big-sky-arrowhead-condominiums,Arrowhead Condominiums,Big Sky,Montana,USA,Upper-Midscale,13,45.2845,-111.4089,https://www.bigskyresort.com/stay/arrowhead,https://www.bigskyresort.com/policies,,official,0,0,,,,,,2025-12-20T09:08:42Z,No taxes or fees found on policy page
usa-big-sky-lake-condominiums,Lake Condominiums,Big Sky,Montana,USA,Upper-Midscale,14,45.2834,-111.4101,https://www.bigskyresort.com/stay/lake,https://www.bigskyresort.com/policies,,official,0,0,,,,,,2025-12-20T09:08:47Z,No taxes or fees found on policy page
usa-big-sky-powder-ridge-cabins,Powder Ridge Cabins,Big Sky,Montana,USA,Upscale,15,45.2823,-111.4112,https://www.bigskyresort.com/stay/powder-ridge,https://www.bigskyresort.com/policies,,official,0,0,,,,,,2025-12-20T09:08:53Z,No taxes or fees found on policy page
usa-big-sky-big-sky-resort-condominiums,Big Sky Resort Condominiums,Big Sky,Montana,USA,Upper-Midscale,22,45.2856,-111.4123,https://www.bigskyresort.com/stay,https://www.bigskyresort.com/policies,,official,0,0,,,,,,2025-12-20T09:12:47Z,No taxes or fees found on policy page
usa-big-sky-gallatin-river-lodge,Gallatin River Lodge,Big Sky,Montana,USA,Upper-Midscale,25,45.2156,-111.3478,https://www.grlodge.com/,https://grlodge.com/policies/,,official,0,0,,,,,,2025-12-20T09:14:00Z,No taxes or fees found on policy page
usa-big-sky-andesite-condominiums,Andesite Condominiums,Big Sky,Montana,USA,Upper-Midscale,28,45.2867,-111.4145,https://www.bigskyresort.com/stay/andesite,https://www.bigskyresort.com/policies,,official,0,0,,,,,,2025-12-20T09:15:15Z,No taxes or fees found on policy page
usa-big-sky-black-eagle-condos,Black Eagle Condos,Big Sky,Montana,USA,Upper-Midscale,29,45.2878,-111.4156,https://www.bigskyresort.com/stay/black-eagle,https://www.bigskyresort.com/policies,,official,0,0,,,,,,2025-12-20T09:15:21Z,No taxes or fees found on policy page
usa-big-sky-silverbow-condominiums,Silverbow Condominiums,Big Sky,Montana,USA,Upper-Midscale,30,45.2889,-111.4167,https://www.bigskyresort.com/stay/silverbow,https://www.bigskyresort.com/policies,,official,0,0,,,,,,2025-12-20T09:15:27Z,No taxes or fees found on policy page
usa-jackson-hole-four-seasons-resort-jackson-hole,Four Seasons Resort Jackson Hole,Jackson Hole,Wyoming,USA,Luxury,1,43.5875,-110.8279,https://www.fourseasons.com/jacksonhole/,https://www.fourseasons.com/legal/accessibility-policy/,,official,0,0,,,,,,2025-12-20T07:21:43Z,No taxes or fees found on policy page
usa-jackson-hole-amangani,Amangani,Jackson Hole,Wyoming,USA,Luxury,2,43.4956,-110.7834,https://www.aman.com/resorts/amangani,https://www.aman.com/,,official,0,0,,,,,,2025-12-20T07:21:45Z,No taxes or fees found on policy page
usa-jackson-hole-hotel-terra-jackson-hole,Hotel Terra Jackson Hole,Jackson Hole,Wyoming,USA,Upscale,3,43.5867,-110.8267,https://www.hotelterrajacksonhole.com/,https://www.hotelterrajacksonhole.com/faqs/,,official,0,0,,,,,,2025-12-20T07:22:14Z,No taxes or fees found on policy page
usa-jackson-hole-teton-mountain-lodge-spa,Teton Mountain Lodge & Spa,Jackson Hole,Wyoming,USA,Upscale,4,43.5889,-110.8289,https://www.tetonlodge.com/,https://www.tetonlodge.com/faqs/,,official,0,0,,,,,,2025-12-20T07:22:41Z,No taxes or fees found on policy page
usa-jackson-hole-the-wort-hotel,The Wort Hotel,Jackson Hole,Wyoming,USA,Upscale,5,43.4801,-110.7612,https://www.worthotel.com/,https://www.worthotel.com/privacy-policy/,,official,0,0,,,,,,2025-12-20T07:23:24Z,No taxes or fees found on policy page
usa-jackson-hole-wyoming-inn-of-jackson-hole,Wyoming Inn of Jackson Hole,Jackson Hole,Wyoming,USA,Upper-Midscale,8,43.4767,-110.7634,https://www.wyominginn.com/,https://www.wyominginn.com,,official,0,0,,,,,,2025-12-20T07:24:37Z,No taxes or fees found on policy page
usa-jackson-hole-jackson-lake-lodge,Jackson Lake Lodge,Jackson Hole,Wyoming,USA,Upper-Midscale,12,43.8556,-110.6489,https://www.gtlc.com/lodges/jackson-lake-lodge,https://www.gtlc.com/contact-us/policies/,,official,0,0,,,11,,,2025-12-20T07:27:10Z,No taxes or fees found on policy page
usa-jackson-hole-jenny-lake-lodge,Jenny Lake Lodge,Jackson Hole,Wyoming,USA,Luxury,13,43.7534,-110.7234,https://www.gtlc.com/lodges/jenny-lake-lodge,https://www.gtlc.com/contact-us/policies/,,official,0,0,,,11,,,2025-12-20T07:27:53Z,No taxes or fees found on policy page
usa-jackson-hole-colter-bay-village,Colter Bay Village,Jackson Hole,Wyoming,USA,Midscale,14,43.9012,-110.6412,https://www.gtlc.com/lodges/colter-bay-village,https://www.gtlc.com/contact-us/policies/,,official,0,0,,,11,,,2025-12-20T07:28:37Z,No taxes or fees found on policy page
usa-jackson-hole-the-hostel,The Hostel,Jackson Hole,Wyoming,USA,Economy,15,43.5834,-110.8234,https://www.thehostel.us/,https://thehostel.us/hotel-policies/,,official,0,0,,,,,,2025-12-20T07:28:54Z,No taxes or fees found on policy page
usa-jackson-hole-parkway-inn,Parkway Inn,Jackson Hole,Wyoming,USA,Midscale,16,43.4756,-110.7678,https://www.parkwayinn.com/,https://parkwayinn.com/faq/,,official,0,0,,,,,,2025-12-20T07:29:22Z,No taxes or fees found on policy page
usa-jackson-hole-alpenhof-lodge,Alpenhof Lodge,Jackson Hole,Wyoming,USA,Upper-Midscale,26,43.5856,-110.8256,https://www.alpenhoflodge.com/,https://www.alpenhoflodge.com/privacy-policy,,official,0,0,,,,,,2025-12-20T07:34:48Z,No taxes or fees found on policy page
usa-lake-tahoe-the-landing-resort-spa,The Landing Resort & Spa,Lake Tahoe,California,USA,Upscale,5,38.9534,-119.9623,https://thelandingtahoe.com/,https://www.thelandingtahoe.com/faq/,,official,0,0,,,,,,2025-12-20T07:40:06Z,No taxes or fees found on policy page
usa-lake-tahoe-granlibakken-tahoe,Granlibakken Tahoe,Lake Tahoe,California,USA,Upper-Midscale,8,39.1456,-120.1423,https://www.granlibakken.com/,https://www.granlibakken.com/faq,,official,0,0,,,,,,2025-12-20T07:41:42Z,No taxes or fees found on policy page
usa-lake-tahoe-cedar-house-sport-hotel,Cedar House Sport Hotel,Lake Tahoe,California,USA,Upper-Midscale,9,39.3212,-120.1789,https://www.cedarhousesporthotel.com/,https://gravityhaus.com/locations/gravity-haus-truckee-tahoe,,official,0,0,,,,,,2025-12-20T07:41:43Z,No taxes or fees found on policy page
usa-lake-tahoe-harrahs-lake-tahoe,Harrah's Lake Tahoe,Lake Tahoe,California,USA,Upscale,16,38.9567,-119.9401,https://www.caesars.com/harrahs-tahoe,https://www.caesars.com/?originalrequest=%2Fpolicies,,official,0,0,,,,,,2025-12-20T07:51:23Z,No taxes or fees found on policy page
usa-lake-tahoe-harveys-lake-tahoe,Harveys Lake Tahoe,Lake Tahoe,California,USA,Upscale,17,38.9578,-119.9423,https://www.caesars.com/harveys-tahoe,https://www.caesars.com/?originalrequest=%2Fpolicies,,official,0,0,,,,,,2025-12-20T07:51:30Z,No taxes or fees found on policy page
usa-lake-tahoe-forest-suites-resort,Forest Suites Resort,Lake Tahoe,California,USA,Upper-Midscale,22,38.9612,-119.9456,https://www.forestsuites.com/,https://www.forestsuites.com/faq,,official,0,0,,,,,,2025-12-20T07:54:21Z,No taxes or fees found on policy page
usa-lake-tahoe-basecamp-tahoe-city,Basecamp Tahoe City,Lake Tahoe,California,USA,Upper-Midscale,26,39.1701,-120.1456,https://basecamphotels.com/tahoe-city/,https://basecamphotels.com/legal/privacy,,official,0,0,,,,,,2025-12-20T08:00:34Z,No taxes or fees found on policy page
usa-lake-tahoe-days-inn-south-lake-tahoe,Days Inn South Lake Tahoe,Lake Tahoe,California,USA,Economy,30,38.9456,-119.9567,https://www.wyndhamhotels.com/days-inn/south-lake-tahoe-california/days-inn-south-lake-tahoe/overview,https://www.wyndhamhotels.com/days-inn/south-lake-tahoe-california/days-inn-south-lake-tahoe/overview?lightbox=/content/whg-ecomm-responsive/en-us/whg/about-us/terms-of-use-more-info.display.html,,official,0,0,,,,,,2025-12-20T08:03:02Z,No taxes or fees found on policy page
usa-mammoth-lakes-shilo-inn-suites-mammoth-lakes,Shilo Inn Suites Mammoth Lakes,Mammoth Lakes,California,USA,Midscale,10,37.6534,-118.9656,https://www.shiloinns.com/mammoth-lakes.html,https://www.shiloinns.com/policies,,official,0,0,,,,,,2025-12-20T08:08:54Z,No taxes or fees found on policy page
usa-mammoth-lakes-innsbruck-lodge,Innsbruck Lodge,Mammoth Lakes,California,USA,Upper-Midscale,11,37.6445,-118.9767,https://www.innsbrucklodge.com/,https://www.dropcatch.com/domain/innsbrucklodge.com,,official,0,0,,,,,,2025-12-20T08:08:55Z,No taxes or fees found on policy page
usa-mammoth-lakes-cinnamon-bear-inn,Cinnamon Bear Inn,Mammoth Lakes,California,USA,Upper-Midscale,12,37.6467,-118.9745,https://www.cinnamonbearinn.com/,https://www.cinnamonbearinn.com/policies,,official,0,1,,,,,,2025-12-20T08:08:58Z,
usa-mammoth-lakes-convict-lake-resort,Convict Lake Resort,Mammoth Lakes,California,USA,Upper-Midscale,15,37.5889,-118.8567,https://www.convictlake.com/,https://convictlake.com/lodging/policies/,,official,0,0,,,,,,2025-12-20T08:10:16Z,No taxes or fees found on policy page
usa-mammoth-lakes-snowcreek-resort,Snowcreek Resort,Mammoth Lakes,California,USA,Upper-Midscale,19,37.6345,-118.9567,https://www.snowcreekresort.com/,https://www.snowcreekresort.com/terms-and-conditions,,official,0,0,,,,,,2025-12-20T08:12:35Z,No taxes or fees found on policy page
usa-mammoth-lakes-motel-6-mammoth-lakes,Motel 6 Mammoth Lakes,Mammoth Lakes,California,USA,Economy,22,37.6556,-118.9634,https://www.motel6.com/en/home/motels.ca.mammoth-lakes.html,https://www.motel6.com/terms/,,official,0,0,,,,,,2025-12-20T08:14:06Z,No taxes or fees found on policy page
usa-mammoth-lakes-chamonix-condominiums,Chamonix Condominiums,Mammoth Lakes,California,USA,Upper-Midscale,25,37.6434,-118.9778,https://www.chamonixmammoth.com/,https://chamonixmammoth.com,,official,0,0,,,,,,2025-12-20T08:15:22Z,No taxes or fees found on policy page
usa-mammoth-lakes-mammoth-estates,Mammoth Estates,Mammoth Lakes,California,USA,Upper-Midscale,30,37.6489,-118.9689,https://www.mammothestates.com/,https://mammothestates.com/visiting-mammoth/weather-and-road-conditions/,,official,0,0,,,,,,2025-12-20T08:18:29Z,No taxes or fees found on policy page
usa-park-city-stein-eriksen-lodge-deer-valley,Stein Eriksen Lodge Deer Valley,Park City,Utah,USA,Luxury,2,40.6234,-111.4878,https://www.steinlodge.com/,https://www.steinlodge.com/terms-and-conditions,,official,0,0,,,,,,2025-12-20T07:06:30Z,No taxes or fees found on policy page
usa-park-city-westgate-park-city-resort,Westgate Park City Resort,Park City,Utah,USA,Upscale,7,40.6789,-111.4512,https://www.westgateresorts.com/hotels/utah/park-city/westgate-park-city-resort-spa/,https://www.westgateresorts.com/terms-and-conditions,,official,0,0,,,,,,2025-12-20T07:09:05Z,No taxes or fees found on policy page
usa-park-city-black-diamond-lodge,Black Diamond Lodge,Park City,Utah,USA,Upscale,16,40.6267,-111.4912,https://www.blackdiamondlodge.com/,https://www.blackdiamondlodge.com/policies,,official,0,0,,,,,,2025-12-20T07:13:56Z,No taxes or fees found on policy page
usa-park-city-holiday-inn-express-park-city,Holiday Inn Express Park City,Park City,Utah,USA,Midscale,20,40.6623,-111.4923,https://www.ihg.com/holidayinnexpress/hotels/us/en/park-city/slcpc/hoteldetail,https://www.ihg.com/content/us/en/customer-care/member-tc,,official,0,0,,,,,,2025-12-20T07:15:57Z,No taxes or fees found on policy page
usa-park-city-all-seasons-resort-lodging,All Seasons Resort Lodging,Park City,Utah,USA,Upper-Midscale,22,40.6456,-111.4978,https://www.allseasonsresortlodging.com/,https://www.allseasonsresortlodging.com/terms-and-conditions/,,official,0,0,,,,,,2025-12-20T07:16:46Z,No taxes or fees found on policy page
usa-park-city-shadow-ridge-resort-hotel,Shadow Ridge Resort Hotel,Park City,Utah,USA,Upper-Midscale,23,40.6523,-111.4945,https://www.shadowridgeresort.com/,https://www.allseasonsresortlodging.com/park-city/rentals/shadow-ridge-resort-hotel/,,official,0,0,,,,,,2025-12-20T07:16:50Z,No taxes or fees found on policy page
usa-stowe-topnotch-resort,Topnotch Resort,Stowe,Vermont,USA,Upscale,2,44.4934,-72.7412,https://www.topnotchresort.com/,https://www.topnotchresort.com/faq,,official,0,0,,,,,,2025-12-20T08:19:42Z,No taxes or fees found on policy page
usa-stowe-trapp-family-lodge,Trapp Family Lodge,Stowe,Vermont,USA,Upscale,3,44.4623,-72.7567,https://www.trappfamily.com/,https://www.vontrappresort.com/villa-rental-agreement.htm,,official,0,0,,,,,,2025-12-20T08:19:51Z,No taxes or fees found on policy page
usa-stowe-stoweflake-mountain-resort-spa,Stoweflake Mountain Resort & Spa,Stowe,Vermont,USA,Upscale,6,44.4712,-72.6934,https://www.stoweflake.com/,https://stoweflake.com/hotel-policies/,,official,0,0,,,,,,2025-12-20T08:21:28Z,No taxes or fees found on policy page
usa-stowe-green-mountain-inn,Green Mountain Inn,Stowe,Vermont,USA,Upper-Midscale,7,44.4634,-72.6856,https://www.greenmountaininn.com/,https://www.greenmountaininn.com/discover-the-inn/faq,,official,0,0,,,,,,2025-12-20T08:22:05Z,No taxes or fees found on policy page
usa-stowe-stowehof-inn,Stowehof Inn,Stowe,Vermont,USA,Upper-Midscale,10,44.4756,-72.7123,https://www.stowehof.com/,https://www.stowehof.com/policies,,official,0,0,,,,,,2025-12-20T08:23:20Z,No taxes or fees found on policy page
usa-stowe-smugglers-notch-resort,Smugglers Notch Resort,Stowe,Vermont,USA,Upper-Midscale,14,44.5867,-72.7856,https://www.smuggs.com/,https://www.smuggs.com/resort-info/resort-policies/,,official,0,0,,,,,,2025-12-20T08:25:19Z,No taxes or fees found on policy page
usa-stowe-innsbruck-inn-at-stowe,Innsbruck Inn at Stowe,Stowe,Vermont,USA,Midscale,18,44.4834,-72.7178,https://www.innsbruckinn.com/,https://www.innsbruckinn.com/hotel-policies.html,,official,0,0,,,,,,2025-12-20T08:27:50Z,No taxes or fees found on policy page
usa-stowe-stowe-motel-snowdrift,Stowe Motel & Snowdrift,Stowe,Vermont,USA,Midscale,20,44.4856,-72.7201,https://www.stowemotel.com/,https://www.stowemotel.com/policies,,official,0,0,,,,,,2025-12-20T08:28:30Z,No taxes or fees found on policy page
usa-stowe-timberholm-inn,Timberholm Inn,Stowe,Vermont,USA,Upper-Midscale,26,44.4756,-72.6978,https://www.timberholm.com/,https://timberholm.com/inn-policies/,,official,0,0,,,,,,2025-12-20T08:31:30Z,No taxes or fees found on policy page
usa-stowe-stowe-cabins-in-the-woods,Stowe Cabins in the Woods,Stowe,Vermont,USA,Upper-Midscale,27,44.4612,-72.6834,https://www.stowecabins.com/,https://stowecabins.com/policies/,,official,0,0,,,,,,2025-12-20T08:31:34Z,No taxes or fees found on policy page
usa-stowe-brass-lantern-inn,Brass Lantern Inn,Stowe,Vermont,USA,Upper-Midscale,28,44.4623,-72.6823,https://www.brasslanterninn.com/,https://www.brasslanterninn.com/policies,,official,0,0,,,,,,2025-12-20T08:31:37Z,No taxes or fees found on policy page
usa-stowe-stone-hill-inn,Stone Hill Inn,Stowe,Vermont,USA,Upper-Midscale,29,44.4701,-72.6901,https://www.stonehillinn.com/,https://www.stonehillinn.com/lodging-in-stowe-vermont.html,,official,0,0,,,,,,2025-12-20T08:32:16Z,No taxes or fees found on policy page
usa-sun-valley-sun-valley-lodge,Sun Valley Lodge,Sun Valley,Idaho,USA,Luxury,1,43.6823,-114.3523,https://www.sunvalley.com/lodging/sun-valley-lodge,https://www.sunvalley.com/the-mountain/mountain-report/,,official,0,0,,,,,,2025-12-20T09:15:40Z,No taxes or fees found on policy page
usa-sun-valley-sun-valley-inn,Sun Valley Inn,Sun Valley,Idaho,USA,Upscale,2,43.6834,-114.3534,https://www.sunvalley.com/lodging/sun-valley-inn,https://www.sunvalley.com/the-mountain/mountain-report/,,official,0,0,,,,,,2025-12-20T09:15:56Z,No taxes or fees found on policy page
usa-sun-valley-limelight-hotel-ketchum,Limelight Hotel Ketchum,Sun Valley,Idaho,USA,Upscale,3,43.6812,-114.3612,https://www.limelighthotels.com/ketchum,https://www.limelighthotels.com/terms-and-conditions,,official,0,0,,,,,,2025-12-20T09:16:13Z,No taxes or fees found on policy page
usa-sun-valley-knob-hill-inn,Knob Hill Inn,Sun Valley,Idaho,USA,Upscale,4,43.6801,-114.3623,https://www.knobhillinn.com/,https://www.knobhillinn.com/faq/,,official,0,0,,,,,,2025-12-20T09:16:16Z,No taxes or fees found on policy page
usa-sun-valley-tamarack-lodge,Tamarack Lodge,Sun Valley,Idaho,USA,Upper-Midscale,8,43.6756,-114.3667,https://www.tamaracksunvalley.com/,https://www.tamaracksunvalley.com/pet-policy.htm,,official,0,0,,,,,,2025-12-20T09:18:52Z,No taxes or fees found on policy page
usa-sun-valley-sun-valley-cottages,Sun Valley Cottages,Sun Valley,Idaho,USA,Upper-Midscale,11,43.6845,-114.3512,https://www.sunvalley.com/lodging/cottages,https://www.sunvalley.com/the-mountain/mountain-report/,,official,0,0,,,,,,2025-12-20T09:20:22Z,No taxes or fees found on policy page
usa-sun-valley-river-street-inn,River Street Inn,Sun Valley,Idaho,USA,Midscale,16,43.6712,-114.3712,https://www.riverstreetinn.com/,https://www.riverstreetinn.com/faq,,official,0,0,,,,,,2025-12-20T09:23:18Z,No taxes or fees found on policy page
usa-sun-valley-americinn-by-wyndham-hailey,AmericInn by Wyndham Hailey,Sun Valley,Idaho,USA,Midscale,23,43.5178,-114.3156,https://www.wyndhamhotels.com/americinn/hailey-idaho/americinn-lodge-suites-hailey-sun-valley/overview,https://www.wyndhamhotels.com/americinn/hailey-idaho/americinn-lodge-suites-hailey-sun-valley/overview?lightbox=/content/whg-ecomm-responsive/en-us/whg/about-us/terms-of-use-more-info.display.html,,official,0,0,,,,,,2025-12-20T09:27:45Z,No taxes or fees found on policy page
usa-sun-valley-sun-valley-condominiums,Sun Valley Condominiums,Sun Valley,Idaho,USA,Upper-Midscale,24,43.6856,-114.3501,https://www.sunvalley.com/lodging/condos,https://www.sunvalley.com/the-mountain/mountain-report/,,official,0,0,,,,,,2025-12-20T09:28:00Z,No taxes or fees found on policy page
usa-sun-valley-penny-lane-lodge,Penny Lane Lodge,Sun Valley,Idaho,USA,Midscale,27,43.6712,-114.3723,https://www.pennylanelodge.com/,https://www.pennylanelodge.com/policies,,official,0,0,,,,,,2025-12-20T09:29:12Z,No taxes or fees found on policy page
usa-telluride-the-peaks-resort-spa,The Peaks Resort & Spa,Telluride,Colorado,USA,Upscale,2,37.9345,-107.8134,https://www.thepeaksresort.com/,https://www.thepeaksresort.com,,official,0,0,,,,,,2025-12-20T08:33:09Z,No taxes or fees found on policy page
usa-telluride-lumiere-telluride,Lumiere Telluride,Telluride,Colorado,USA,Luxury,3,37.9367,-107.8112,https://www.lumieretelluride.com/,https://www.duntondestinations.com/river-camp/frequently-asked-questions/,,official,0,0,,,,,,2025-12-20T08:33:54Z,No taxes or fees found on policy page
usa-telluride-mountain-lodge-at-telluride,Mountain Lodge at Telluride,Telluride,Colorado,USA,Upper-Midscale,8,37.9412,-107.8067,https://www.mountainlodgetelluride.com/,https://www.mountainlodgetelluride.com,,official,0,0,,,,,,2025-12-20T08:36:22Z,No taxes or fees found on policy page
usa-telluride-inn-at-lost-creek,Inn at Lost Creek,Telluride,Colorado,USA,Upscale,9,37.9367,-107.8123,https://www.innatlostcreek.com/,https://www.innatlostcreek.com,,official,0,0,,,,,,2025-12-20T08:36:25Z,No taxes or fees found on policy page
usa-telluride-the-victorian-inn,The Victorian Inn,Telluride,Colorado,USA,Upper-Midscale,10,37.9378,-107.8112,https://www.victorianinntelluride.com/,https://www.victorianinntelluride.com/faqs,,official,0,0,,,,,,2025-12-20T08:37:07Z,No taxes or fees found on policy page
usa-telluride-etta-place,Etta Place,Telluride,Colorado,USA,Upper-Midscale,28,37.9378,-107.8134,https://www.ettaplace.com/,https://www.ettaplace.com/policies,,official,0,0,,,,,,2025-12-20T09:03:40Z,No taxes or fees found on policy page
usa-vail-four-seasons-resort-vail,Four Seasons Resort Vail,Vail,Colorado,USA,Luxury,1,39.6403,-106.3742,https://www.fourseasons.com/vail/,https://www.fourseasons.com/legal/accessibility-policy/,,official,0,0,,,,,,2025-12-20T06:51:46Z,No taxes or fees found on policy page
usa-vail-the-sebastian-vail,The Sebastian Vail,Vail,Colorado,USA,Luxury,2,39.6412,-106.3756,https://www.thesebastianvail.com/,https://www.thesebastianvail.com/real-estate/faq/,,official,0,0,,,,,,2025-12-20T06:52:14Z,No taxes or fees found on policy page
usa-vail-sonnenalp-vail,Sonnenalp Vail,Vail,Colorado,USA,Luxury,4,39.6389,-106.3734,https://www.sonnenalp.com/,https://sonnenalp.com/policies/,,official,0,0,,,,,,2025-12-20T06:52:51Z,No taxes or fees found on policy page
usa-vail-tivoli-lodge,Tivoli Lodge,Vail,Colorado,USA,Upper-Midscale,10,39.6387,-106.3723,https://www.tivolilodge.com/,https://tivolilodge.com/frequently-asked-questions/,,official,0,0,,,,,,2025-12-20T06:56:34Z,No taxes or fees found on policy page
usa-vail-evergreen-lodge-at-vail,Evergreen Lodge at Vail,Vail,Colorado,USA,Upper-Midscale,12,39.6378,-106.3689,https://www.evergreenvail.com/,https://evergreenvail.com/hotel-policies/,,official,0,0,,,,,,2025-12-20T06:57:35Z,No taxes or fees found on policy page
usa-vail-sitzmark-lodge,Sitzmark Lodge,Vail,Colorado,USA,Midscale,13,39.6389,-106.3767,https://www.sitzmarklodge.com/,https://sitzmarkvail.com/policies-faq/,,official,0,0,,,,,,2025-12-20T06:57:37Z,No taxes or fees found on policy page
usa-vail-vail-cascade-resort,Vail Cascade Resort,Vail,Colorado,USA,Upscale,15,39.6423,-106.3545,https://www.vail.com/plan-your-trip/stay/vail-cascade,https://www.vail.com/policies,,official,0,0,,,,,,2025-12-20T06:58:18Z,No taxes or fees found on policy page
usa-vail-antlers-at-vail,Antlers at Vail,Vail,Colorado,USA,Upper-Midscale,16,39.6401,-106.3612,https://www.antlersvail.com/,https://antlersvail.com/about-antlers/faqs/,,official,0,0,,,,,,2025-12-20T06:58:42Z,No taxes or fees found on policy page
usa-vail-lion-square-lodge,Lion Square Lodge,Vail,Colorado,USA,Upper-Midscale,18,39.6412,-106.3567,https://www.lionsquare.com/,https://lionsquarelodge.com?partnerid=716,,official,0,0,,,,,,2025-12-20T06:59:21Z,No taxes or fees found on policy page
usa-vail-montaneros-condominiums,Montaneros Condominiums,Vail,Colorado,USA,Upper-Midscale,19,39.6423,-106.3578,https://www.montaneros.com/,https://www.montaneros.com/terms-and-conditions/,,official,0,0,,,,,,2025-12-20T06:59:36Z,No taxes or fees found on policy page
usa-vail-the-christie-lodge,The Christie Lodge,Vail,Colorado,USA,Upper-Midscale,20,39.6401,-106.3623,https://www.christielodge.com/,https://www.christielodge.com,,official,0,0,,,,,,2025-12-20T06:59:40Z,No taxes or fees found on policy page
usa-vail-simba-run-vail-condominiums,Simba Run Vail Condominiums,Vail,Colorado,USA,Upper-Midscale,27,39.6489,-106.3489,https://www.simbarun.com/,https://simbarun.com/terms-conditions/,,official,0,0,,,,,,2025-12-20T07:03:39Z,No taxes or fees found on policy page
